{"type":"FeatureCollection","features":[{"type":"Feature","properties":{"date":"2026-02-16","label":"16 Feb","yday":47,"tier":"day","major":false},"geometry":{"type":"MultiLineString","coordinates":[[[-82.075,26.712],[-82.025,26.715],[-81.975,26.72],[-81.925,26.725]]]}},{"type":"Feature","properties":{"date":"2026-02-17","label":"17 Feb","yday":48,"tier":"day","major":false},"geometry":{"type":"MultiLineString","coordinates":[[[-82.425,27.039],[-82.375,27.043],[-82.325,27.046],[-82.275,27.049],[-82.225,27.052],[-82.175,27.054],[-82.125,27.057],[-82.075,27.06],[-82.025,27.064],[-81.975,27.07],[-81.937,27.075],[-81.925,27.077],[-81.875,27.085],[-81.825,27.093],[-81.775,27.102],[-81.725,27.111],[-81.675,27.119],[-81.633,27.125],[-81.625,27.126],[-81.575,27.133],[-81.525,27.14],[-81.475,27.146],[-81.425,27.151],[-81.375,27.155],[-81.325,27.159],[-81.275,27.162]]]}},{"type":"Feature","properties":{"date":"2026-02-18","label":"18 Feb","yday":49,"tier":"day","major":false},"geometry":{"type":"MultiLineString","coordinates":[[[-82.545,27.395],[-82.525,27.401],[-82.475,27.415],[-82.436,27.425],[-82.425,27.428],[-82.375,27.439],[-82.325,27.45],[-82.275,27.46],[-82.225,27.47],[-82.197,27.475],[-82.175,27.479],[-82.125,27.487],[-82.075,27.495],[-82.025,27.504],[-81.975,27.512],[-81.925,27.52],[-81.893,27.525],[-81.875,27.528],[-81.825,27.535],[-81.775,27.543],[-81.725,27.55],[-81.675,27.557],[-81.625,27.564],[-81.575,27.571],[-81.545,27.575],[-81.525,27.578],[-81.475,27.584],[-81.425,27.59],[-81.375,27.596],[-81.325,27.602],[-81.275,27.608],[-81.225,27.614],[-81.175,27.619],[-81.125,27.625],[-81.121,27.625],[-81.075,27.63],[-81.025,27.634],[-80.975,27.639],[-80.925,27.643],[-80.875,27.647],[-80.825,27.65],[-80.775,27.653]]]}},{"type":"Feature","properties":{"date":"2026-02-19","label":"19 Feb","yday":50,"tier":"five","major":false},"geometry":{"type":"MultiLineString","coordinates":[[[-82.435,27.715],[-82.425,27.717],[-82.38,27.725],[-82.375,27.726],[-82.325,27.734],[-82.275,27.743],[-82.225,27.752],[-82.175,27.762],[-82.125,27.772],[-82.112,27.775],[-82.075,27.782],[-82.025,27.793],[-81.975,27.803],[-81.925,27.814],[-81.875,27.825],[-81.873,27.825],[-81.825,27.835],[-81.775,27.845],[-81.725,27.856],[-81.675,27.867],[-81.64,27.875],[-81.625,27.878],[-81.575,27.89],[-81.525,27.902],[-81.475,27.915],[-81.438,27.925],[-81.425,27.928],[-81.375,27.942],[-81.325,27.957],[-81.275,27.973],[-81.267,27.975],[-81.225,27.988],[-81.175,28.004],[-81.125,28.021],[-81.114,28.025],[-81.075,28.038],[-81.025,28.054],[-80.975,28.071],[-80.962,28.075],[-80.925,28.087]]]}},{"type":"Feature","properties":{"date":"2026-02-20","label":"20 Feb","yday":51,"tier":"day","major":false},"geometry":{"type":"MultiLineString","coordinates":[[[-82.768,27.818],[-82.748,27.825],[-82.725,27.832],[-82.675,27.847],[-82.625,27.859],[-82.582,27.868]],[[-82.57,27.87],[-82.544,27.875],[-82.525,27.878],[-82.521,27.879]],[[-82.4,27.9],[-82.375,27.905],[-82.325,27.915],[-82.276,27.925],[-82.275,27.925],[-82.225,27.936],[-82.175,27.947],[-82.125,27.959],[-82.075,27.972],[-82.063,27.975],[-82.025,27.984],[-81.975,27.996],[-81.925,28.009],[-81.875,28.021],[-81.861,28.025],[-81.825,28.034],[-81.775,28.047],[-81.725,28.061],[-81.679,28.075],[-81.675,28.076],[-81.625,28.091],[-81.575,28.107],[-81.525,28.125],[-81.524,28.125],[-81.475,28.142],[-81.425,28.161],[-81.389,28.175],[-81.375,28.18],[-81.325,28.2],[-81.275,28.221],[-81.265,28.225],[-81.225,28.241],[-81.175,28.261],[-81.142,28.275],[-81.125,28.282],[-81.075,28.301],[-81.025,28.319],[-81.009,28.325],[-80.975,28.337]]]}},{"type":"Feature","properties":{"date":"2026-02-21","label":"21 Feb","yday":52,"tier":"day","major":false},"geometry":{"type":"MultiLineString","coordinates":[[[-82.803,27.953],[-82.775,27.961],[-82.725,27.974]],[[-82.601,28.001],[-82.575,28.006],[-82.525,28.015],[-82.475,28.025],[-82.474,28.025],[-82.425,28.034],[-82.375,28.044],[-82.325,28.054],[-82.275,28.065],[-82.235,28.075],[-82.225,28.077],[-82.175,28.09],[-82.125,28.103],[-82.075,28.116],[-82.043,28.125],[-82.025,28.13],[-81.975,28.144],[-81.925,28.159],[-81.875,28.175],[-81.874,28.175],[-81.825,28.19],[-81.775,28.207],[-81.725,28.225],[-81.725,28.225],[-81.675,28.243],[-81.625,28.263],[-81.594,28.275],[-81.575,28.283],[-81.525,28.304],[-81.476,28.325],[-81.475,28.326],[-81.425,28.348],[-81.375,28.371],[-81.365,28.375],[-81.325,28.393],[-81.275,28.415],[-81.253,28.425],[-81.225,28.437],[-81.175,28.457],[-81.129,28.475],[-81.125,28.476],[-81.075,28.494],[-81.025,28.511],[-81.014,28.514]]]}},{"type":"Feature","properties":{"date":"2026-02-22","label":"22 Feb","yday":53,"tier":"day","major":false},"geometry":{"type":"MultiLineString","coordinates":[[[-82.775,28.086],[-82.725,28.096],[-82.675,28.106],[-82.625,28.116],[-82.576,28.125],[-82.575,28.125],[-82.525,28.134],[-82.475,28.144],[-82.425,28.154],[-82.375,28.164],[-82.327,28.175],[-82.325,28.175],[-82.275,28.187],[-82.225,28.2],[-82.175,28.214],[-82.135,28.225],[-82.125,28.228],[-82.075,28.243],[-82.025,28.259],[-81.977,28.275],[-81.975,28.276],[-81.925,28.293],[-81.875,28.311],[-81.838,28.325],[-81.825,28.33],[-81.775,28.35],[-81.725,28.371],[-81.716,28.375],[-81.675,28.393],[-81.625,28.415],[-81.604,28.425],[-81.575,28.439],[-81.525,28.463],[-81.5,28.475],[-81.475,28.487],[-81.425,28.511],[-81.397,28.525],[-81.375,28.535],[-81.325,28.558],[-81.287,28.575],[-81.275,28.58],[-81.225,28.6],[-81.175,28.62],[-81.161,28.625],[-81.125,28.638],[-81.075,28.654]]]}},{"type":"Feature","properties":{"date":"2026-02-23","label":"23 Feb","yday":54,"tier":"day","major":false},"geometry":{"type":"MultiLineString","coordinates":[[[-82.742,28.208],[-82.725,28.211],[-82.675,28.219],[-82.642,28.225],[-82.625,28.228],[-82.575,28.236],[-82.525,28.245],[-82.475,28.255],[-82.425,28.265],[-82.379,28.275],[-82.375,28.276],[-82.325,28.288],[-82.275,28.301],[-82.225,28.315],[-82.192,28.325],[-82.175,28.33],[-82.125,28.346],[-82.075,28.363],[-82.042,28.375],[-82.025,28.381],[-81.975,28.4],[-81.925,28.42],[-81.913,28.425],[-81.875,28.441],[-81.825,28.463],[-81.798,28.475],[-81.775,28.486],[-81.725,28.509],[-81.692,28.525],[-81.675,28.533],[-81.625,28.558],[-81.592,28.575],[-81.575,28.583],[-81.525,28.609],[-81.493,28.625],[-81.475,28.634],[-81.425,28.658],[-81.39,28.675],[-81.375,28.682],[-81.325,28.705],[-81.277,28.725],[-81.275,28.726],[-81.225,28.746],[-81.175,28.764],[-81.141,28.775],[-81.125,28.78],[-81.075,28.795]]]}},{"type":"Feature","properties":{"date":"2026-02-24","label":"24 Feb","yday":55,"tier":"five","major":false},"geometry":{"type":"MultiLineString","coordinates":[[[-82.675,28.33],[-82.625,28.337],[-82.575,28.345],[-82.525,28.353],[-82.475,28.363],[-82.425,28.373],[-82.416,28.375],[-82.375,28.385],[-82.325,28.398],[-82.275,28.412],[-82.234,28.425],[-82.225,28.428],[-82.175,28.445],[-82.125,28.463],[-82.093,28.475],[-82.075,28.482],[-82.025,28.502],[-81.975,28.523],[-81.971,28.525],[-81.925,28.546],[-81.875,28.569],[-81.863,28.575],[-81.825,28.593],[-81.775,28.618],[-81.762,28.625],[-81.725,28.644],[-81.675,28.67],[-81.665,28.675],[-81.625,28.696],[-81.575,28.721],[-81.568,28.725],[-81.525,28.747],[-81.475,28.772],[-81.468,28.775],[-81.425,28.796],[-81.375,28.819],[-81.36,28.825],[-81.325,28.84],[-81.275,28.86],[-81.235,28.875],[-81.225,28.879],[-81.175,28.896],[-81.125,28.912],[-81.079,28.925],[-81.075,28.926],[-81.025,28.94]]]}},{"type":"Feature","properties":{"date":"2026-02-25","label":"25 Feb","yday":56,"tier":"day","major":false},"geometry":{"type":"MultiLineString","coordinates":[[[-82.625,28.448],[-82.575,28.455],[-82.525,28.463],[-82.475,28.472],[-82.461,28.475],[-82.425,28.483],[-82.375,28.496],[-82.325,28.511],[-82.279,28.525],[-82.275,28.526],[-82.225,28.544],[-82.175,28.562],[-82.142,28.575],[-82.125,28.582],[-82.075,28.603],[-82.027,28.625],[-82.025,28.626],[-81.975,28.649],[-81.925,28.674],[-81.923,28.675],[-81.875,28.699],[-81.825,28.725],[-81.825,28.725],[-81.775,28.752],[-81.731,28.775],[-81.725,28.778],[-81.675,28.805],[-81.637,28.825],[-81.625,28.831],[-81.575,28.857],[-81.539,28.875],[-81.525,28.882],[-81.475,28.906],[-81.433,28.925],[-81.425,28.928],[-81.375,28.95],[-81.325,28.97],[-81.312,28.975],[-81.275,28.989],[-81.225,29.006],[-81.175,29.023],[-81.168,29.025],[-81.125,29.038],[-81.075,29.052],[-81.025,29.065],[-80.985,29.075],[-80.975,29.077]]]}},{"type":"Feature","properties":{"date":"2026-02-26","label":"26 Feb","yday":57,"tier":"day","major":false},"geometry":{"type":"MultiLineString","coordinates":[[[-82.625,28.566],[-82.575,28.573],[-82.563,28.575],[-82.525,28.581],[-82.475,28.591],[-82.425,28.602],[-82.375,28.615],[-82.342,28.625],[-82.325,28.63],[-82.275,28.647],[-82.225,28.665],[-82.201,28.675],[-82.175,28.686],[-82.125,28.708],[-82.089,28.725],[-82.075,28.732],[-82.025,28.756],[-81.989,28.775],[-81.975,28.782],[-81.925,28.809],[-81.894,28.825],[-81.875,28.835],[-81.825,28.862],[-81.802,28.875],[-81.775,28.89],[-81.725,28.916],[-81.709,28.925],[-81.675,28.943],[-81.625,28.968],[-81.612,28.975],[-81.575,28.993],[-81.525,29.017],[-81.507,29.025],[-81.475,29.039],[-81.425,29.061],[-81.389,29.075],[-81.375,29.081],[-81.325,29.099],[-81.275,29.117],[-81.251,29.125],[-81.225,29.134],[-81.175,29.149],[-81.125,29.163],[-81.081,29.175],[-81.075,29.176],[-81.025,29.189],[-80.996,29.196]],[[-94.665,29.735],[-94.649,29.725],[-94.625,29.709],[-94.575,29.677],[-94.572,29.675],[-94.525,29.645],[-94.492,29.625]]]}},{"type":"Feature","properties":{"date":"2026-02-27","label":"27 Feb","yday":58,"tier":"day","major":false},"geometry":{"type":"MultiLineString","coordinates":[[[-82.625,28.695],[-82.575,28.702],[-82.525,28.711],[-82.475,28.72],[-82.453,28.725],[-82.425,28.731],[-82.375,28.745],[-82.325,28.76],[-82.283,28.775],[-82.275,28.778],[-82.225,28.799],[-82.175,28.822],[-82.169,28.825],[-82.125,28.847],[-82.075,28.873],[-82.071,28.875],[-82.025,28.9],[-81.978,28.925],[-81.975,28.927],[-81.925,28.954],[-81.886,28.975],[-81.875,28.981],[-81.825,29.008],[-81.793,29.025],[-81.775,29.035],[-81.725,29.061],[-81.696,29.075],[-81.675,29.086],[-81.625,29.11],[-81.592,29.125],[-81.575,29.133],[-81.525,29.155],[-81.476,29.175],[-81.475,29.176],[-81.425,29.195],[-81.375,29.214],[-81.343,29.225],[-81.325,29.231],[-81.275,29.248],[-81.225,29.263],[-81.185,29.275],[-81.175,29.278],[-81.125,29.291],[-81.075,29.304]]]}},{"type":"Feature","properties":{"date":"2026-02-28","label":"28 Feb","yday":59,"tier":"day","major":false},"geometry":{"type":"MultiLineString","coordinates":[[[-82.625,28.841],[-82.575,28.849],[-82.525,28.858],[-82.475,28.868],[-82.446,28.875],[-82.425,28.881],[-82.375,28.896],[-82.325,28.914],[-82.297,28.925],[-82.275,28.934],[-82.225,28.957],[-82.188,28.975],[-82.175,28.981],[-82.125,29.007],[-82.09,29.025],[-82.075,29.033],[-82.025,29.059],[-81.995,29.075],[-81.975,29.086],[-81.925,29.112],[-81.9,29.125],[-81.875,29.138],[-81.825,29.163],[-81.801,29.175],[-81.775,29.188],[-81.725,29.212],[-81.697,29.225],[-81.675,29.235],[-81.625,29.257],[-81.582,29.275],[-81.575,29.278],[-81.525,29.298],[-81.475,29.317],[-81.453,29.325],[-81.425,29.335],[-81.375,29.352],[-81.325,29.368],[-81.302,29.375],[-81.275,29.383],[-81.225,29.398],[-81.175,29.411],[-81.125,29.424],[-81.124,29.424]],[[-94.375,30.162],[-94.325,30.143],[-94.275,30.125],[-94.275,30.125],[-94.225,30.107],[-94.175,30.09],[-94.132,30.075],[-94.127,30.073]],[[-94.825,30.335],[-94.799,30.325],[-94.775,30.316],[-94.725,30.297],[-94.675,30.278]]]}},{"type":"Feature","properties":{"date":"2026-03-01","label":"1 Mar","yday":60,"tier":"index","major":true},"geometry":{"type":"MultiLineString","coordinates":[[[-82.725,28.996],[-82.675,29.003],[-82.625,29.011],[-82.575,29.02],[-82.554,29.025],[-82.525,29.032],[-82.475,29.045],[-82.425,29.06],[-82.38,29.075],[-82.375,29.077],[-82.325,29.096],[-82.275,29.117],[-82.257,29.125],[-82.225,29.139],[-82.175,29.162],[-82.149,29.175],[-82.125,29.186],[-82.075,29.21],[-82.045,29.225],[-82.025,29.235],[-81.975,29.259],[-81.941,29.275],[-81.925,29.283],[-81.875,29.306],[-81.833,29.325],[-81.825,29.329],[-81.775,29.351],[-81.725,29.372],[-81.718,29.375],[-81.675,29.393],[-81.625,29.412],[-81.591,29.425],[-81.575,29.431],[-81.525,29.449],[-81.475,29.465],[-81.445,29.475],[-81.425,29.481],[-81.375,29.497],[-81.325,29.511],[-81.275,29.525],[-81.273,29.525],[-81.225,29.537],[-81.175,29.55]],[[-93.574,30.274],[-93.525,30.272],[-93.475,30.27],[-93.425,30.267],[-93.375,30.263],[-93.325,30.259],[-93.275,30.253],[-93.225,30.247],[-93.175,30.241],[-93.125,30.234],[-93.075,30.227],[-93.073,30.227]],[[-94.475,30.464],[-94.425,30.448],[-94.375,30.432],[-94.352,30.425],[-94.325,30.417],[-94.275,30.402],[-94.225,30.387],[-94.181,30.375],[-94.175,30.373],[-94.125,30.36],[-94.075,30.348],[-94.025,30.336],[-93.977,30.325],[-93.975,30.325],[-93.925,30.314],[-93.875,30.305],[-93.849,30.301]]]}},{"type":"Feature","properties":{"date":"2026-03-02","label":"2 Mar","yday":61,"tier":"day","major":false},"geometry":{"type":"MultiLineString","coordinates":[[[-82.862,29.175],[-82.825,29.179],[-82.775,29.186],[-82.725,29.194],[-82.675,29.202],[-82.625,29.212],[-82.575,29.223],[-82.568,29.225],[-82.525,29.236],[-82.475,29.25],[-82.425,29.266],[-82.399,29.275],[-82.375,29.283],[-82.325,29.302],[-82.275,29.321],[-82.265,29.325],[-82.225,29.341],[-82.175,29.362],[-82.144,29.375],[-82.125,29.383],[-82.075,29.404],[-82.025,29.425],[-82.025,29.425],[-81.975,29.446],[-81.925,29.467],[-81.905,29.475],[-81.875,29.487],[-81.825,29.507],[-81.777,29.525],[-81.775,29.526],[-81.725,29.544],[-81.675,29.561],[-81.633,29.575],[-81.625,29.578],[-81.575,29.594],[-81.525,29.608],[-81.475,29.623],[-81.466,29.625],[-81.425,29.636],[-81.375,29.649],[-81.325,29.661],[-81.275,29.673],[-81.264,29.675],[-81.232,29.682]],[[-90.748,30.398],[-90.725,30.393],[-90.675,30.381],[-90.653,30.375]],[[-94.87,30.87],[-94.825,30.854],[-94.775,30.837],[-94.739,30.825],[-94.725,30.82],[-94.675,30.804],[-94.625,30.788],[-94.583,30.775],[-94.575,30.773],[-94.525,30.758],[-94.475,30.743],[-94.425,30.728],[-94.413,30.725],[-94.375,30.714],[-94.325,30.701],[-94.275,30.689],[-94.225,30.677],[-94.217,30.675],[-94.175,30.666],[-94.125,30.656],[-94.075,30.647],[-94.025,30.64],[-93.975,30.633],[-93.925,30.627],[-93.899,30.625],[-93.875,30.623],[-93.825,30.619],[-93.775,30.616],[-93.725,30.614],[-93.675,30.613],[-93.625,30.611],[-93.575,30.61],[-93.525,30.609],[-93.475,30.607],[-93.425,30.606],[-93.375,30.603],[-93.325,30.601],[-93.275,30.597],[-93.225,30.593],[-93.175,30.588],[-93.125,30.582],[-93.075,30.575],[-93.072,30.575],[-93.025,30.568],[-92.975,30.561],[-92.925,30.553],[-92.875,30.545],[-92.825,30.537],[-92.775,30.529],[-92.749,30.525],[-92.725,30.521],[-92.675,30.514],[-92.625,30.507],[-92.575,30.5],[-92.525,30.493],[-92.475,30.487]],[[-95.175,30.987],[-95.146,30.975],[-95.125,30.967],[-95.075,30.947],[-95.025,30.927],[-95.019,30.925],[-94.975,30.909],[-94.925,30.89],[-94.884,30.875],[-94.877,30.873]]]}},{"type":"Feature","properties":{"date":"2026-03-03","label":"3 Mar","yday":62,"tier":"day","major":false},"geometry":{"type":"MultiLineString","coordinates":[[[-83.177,29.377],[-83.175,29.377],[-83.125,29.381],[-83.075,29.385],[-83.025,29.39],[-82.975,29.395],[-82.925,29.4],[-82.875,29.406],[-82.825,29.413],[-82.775,29.421],[-82.748,29.425],[-82.725,29.429],[-82.675,29.439],[-82.625,29.449],[-82.575,29.46],[-82.525,29.473],[-82.516,29.475],[-82.475,29.486],[-82.425,29.5],[-82.375,29.515],[-82.344,29.525],[-82.325,29.531],[-82.275,29.548],[-82.225,29.565],[-82.195,29.575],[-82.175,29.582],[-82.125,29.6],[-82.075,29.617],[-82.053,29.625],[-82.025,29.635],[-81.975,29.652],[-81.925,29.669],[-81.907,29.675],[-81.875,29.685],[-81.825,29.701],[-81.775,29.716],[-81.744,29.725],[-81.725,29.73],[-81.675,29.744],[-81.625,29.757],[-81.575,29.769],[-81.548,29.775],[-81.525,29.78],[-81.475,29.791],[-81.425,29.801],[-81.375,29.811],[-81.325,29.82],[-81.297,29.825],[-81.279,29.829]],[[-91.225,30.747],[-91.175,30.742],[-91.125,30.737],[-91.075,30.731],[-91.035,30.725],[-91.025,30.724],[-90.975,30.716],[-90.925,30.707],[-90.875,30.697],[-90.825,30.687],[-90.775,30.677],[-90.766,30.675],[-90.725,30.666],[-90.675,30.654],[-90.625,30.642],[-90.575,30.63],[-90.555,30.625],[-90.525,30.617],[-90.475,30.604],[-90.425,30.591],[-90.375,30.577],[-90.368,30.575],[-90.325,30.563],[-90.275,30.548],[-90.225,30.532],[-90.202,30.525],[-90.175,30.516],[-90.125,30.499],[-90.075,30.481],[-90.058,30.475],[-90.025,30.463],[-89.975,30.443],[-89.931,30.425],[-89.925,30.422],[-89.875,30.401],[-89.825,30.38],[-89.813,30.375],[-89.775,30.36],[-89.725,30.339],[-89.69,30.325],[-89.675,30.319],[-89.625,30.298],[-89.575,30.277],[-89.57,30.275],[-89.525,30.256],[-89.475,30.233],[-89.456,30.225]],[[-94.7,31.125],[-94.675,31.118],[-94.625,31.104],[-94.575,31.091],[-94.525,31.078],[-94.511,31.075],[-94.475,31.066],[-94.425,31.055],[-94.375,31.043],[-94.325,31.032],[-94.29,31.025],[-94.275,31.022],[-94.225,31.012],[-94.175,31.004],[-94.125,30.996],[-94.075,30.989],[-94.025,30.984],[-93.975,30.981],[-93.925,30.98],[-93.875,30.98],[-93.825,30.98],[-93.775,30.982],[-93.725,30.984],[-93.675,30.986],[-93.625,30.988],[-93.575,30.99],[-93.525,30.991],[-93.475,30.992],[-93.425,30.993],[-93.375,30.993],[-93.325,30.992],[-93.275,30.989],[-93.225,30.984],[-93.175,30.977],[-93.167,30.975],[-93.125,30.967],[-93.075,30.955],[-93.025,30.942],[-92.975,30.93],[-92.957,30.925],[-92.925,30.917],[-92.875,30.904],[-92.825,30.892],[-92.775,30.88],[-92.752,30.875],[-92.725,30.869],[-92.675,30.858],[-92.625,30.848],[-92.575,30.839],[-92.525,30.831],[-92.488,30.825],[-92.475,30.823],[-92.425,30.816],[-92.375,30.809],[-92.325,30.803],[-92.275,30.797],[-92.225,30.792],[-92.175,30.788],[-92.125,30.784]]]}},{"type":"Feature","properties":{"date":"2026-03-04","label":"4 Mar","yday":63,"tier":"day","major":false},"geometry":{"type":"MultiLineString","coordinates":[[[-83.395,29.645],[-83.375,29.647],[-83.325,29.651],[-83.275,29.655],[-83.225,29.659],[-83.175,29.664],[-83.125,29.668],[-83.075,29.673],[-83.055,29.675],[-83.025,29.678],[-82.975,29.684],[-82.925,29.689],[-82.875,29.696],[-82.825,29.702],[-82.775,29.709],[-82.725,29.717],[-82.675,29.725],[-82.674,29.725],[-82.625,29.734],[-82.575,29.743],[-82.525,29.753],[-82.475,29.763],[-82.425,29.774],[-82.418,29.775],[-82.375,29.785],[-82.325,29.797],[-82.275,29.809],[-82.225,29.821],[-82.21,29.825],[-82.175,29.834],[-82.125,29.847],[-82.075,29.86],[-82.025,29.872],[-82.013,29.875],[-81.975,29.884],[-81.925,29.896],[-81.875,29.908],[-81.825,29.919],[-81.794,29.925],[-81.775,29.929],[-81.725,29.939],[-81.675,29.948],[-81.625,29.956],[-81.575,29.963],[-81.525,29.969],[-81.476,29.975],[-81.475,29.975],[-81.425,29.981],[-81.375,29.986],[-81.325,29.992]],[[-91.371,31.021],[-91.325,31.017],[-91.275,31.011],[-91.225,31.006],[-91.175,31.0],[-91.125,30.994],[-91.075,30.987],[-91.025,30.98],[-90.995,30.975],[-90.975,30.972],[-90.925,30.964],[-90.875,30.955],[-90.825,30.946],[-90.775,30.937],[-90.725,30.928],[-90.711,30.925],[-90.675,30.918],[-90.625,30.908],[-90.575,30.899],[-90.525,30.889],[-90.475,30.879],[-90.454,30.875],[-90.425,30.869],[-90.375,30.86],[-90.325,30.85],[-90.275,30.84],[-90.225,30.83],[-90.201,30.825],[-90.175,30.82],[-90.125,30.809],[-90.075,30.798],[-90.025,30.787],[-89.975,30.775],[-89.974,30.775],[-89.925,30.763],[-89.875,30.75],[-89.825,30.737],[-89.784,30.725],[-89.775,30.722],[-89.725,30.707],[-89.675,30.692],[-89.626,30.675],[-89.625,30.675],[-89.575,30.657],[-89.525,30.638],[-89.492,30.625],[-89.475,30.618],[-89.425,30.597],[-89.376,30.575],[-89.375,30.574],[-89.325,30.551],[-89.275,30.527],[-89.272,30.525],[-89.225,30.502],[-89.175,30.476],[-89.173,30.475],[-89.125,30.45],[-89.077,30.425],[-89.075,30.424],[-89.025,30.4]],[[-94.425,31.475],[-94.424,31.475],[-94.375,31.469],[-94.325,31.463],[-94.275,31.458],[-94.225,31.453],[-94.175,31.449],[-94.125,31.445],[-94.075,31.441],[-94.025,31.437],[-93.975,31.433],[-93.925,31.43],[-93.875,31.426],[-93.861,31.425],[-93.825,31.422],[-93.775,31.419],[-93.725,31.414],[-93.675,31.41],[-93.625,31.405],[-93.575,31.4],[-93.525,31.394],[-93.475,31.387],[-93.425,31.38],[-93.392,31.375],[-93.375,31.372],[-93.325,31.364],[-93.275,31.354],[-93.225,31.344],[-93.175,31.332],[-93.146,31.325],[-93.125,31.32],[-93.075,31.307],[-93.025,31.293],[-92.975,31.278],[-92.964,31.275],[-92.925,31.263],[-92.875,31.248],[-92.825,31.234],[-92.796,31.225],[-92.775,31.219],[-92.725,31.205]]]}},{"type":"Feature","properties":{"date":"2026-03-05","label":"5 Mar","yday":64,"tier":"day","major":false},"geometry":{"type":"MultiLineString","coordinates":[[[-84.411,29.939],[-84.375,29.94]],[[-83.785,29.985],[-83.775,29.986],[-83.725,29.992],[-83.675,29.998],[-83.625,30.003],[-83.575,30.009],[-83.525,30.015],[-83.475,30.021],[-83.435,30.025],[-83.425,30.026],[-83.375,30.032],[-83.325,30.037],[-83.275,30.043],[-83.225,30.048],[-83.175,30.053],[-83.125,30.057],[-83.075,30.062],[-83.025,30.066],[-82.975,30.069],[-82.925,30.073],[-82.898,30.075],[-82.875,30.077],[-82.825,30.08],[-82.775,30.083],[-82.725,30.087],[-82.675,30.09],[-82.625,30.093],[-82.575,30.096],[-82.525,30.1],[-82.475,30.103],[-82.425,30.107],[-82.375,30.111],[-82.325,30.115],[-82.275,30.119],[-82.225,30.123],[-82.208,30.125],[-82.175,30.128],[-82.125,30.133],[-82.075,30.137],[-82.025,30.142],[-81.975,30.147],[-81.925,30.153],[-81.875,30.158],[-81.825,30.165],[-81.775,30.171],[-81.74,30.175],[-81.725,30.177],[-81.675,30.18],[-81.625,30.182],[-81.575,30.182],[-81.525,30.181],[-81.475,30.18],[-81.425,30.18],[-81.375,30.18]],[[-87.739,30.289],[-87.725,30.286],[-87.675,30.277],[-87.663,30.275]],[[-86.155,30.475],[-86.125,30.48],[-86.075,30.486],[-86.025,30.492],[-85.975,30.496],[-85.925,30.499],[-85.875,30.5],[-85.825,30.499],[-85.775,30.495],[-85.725,30.489],[-85.675,30.48],[-85.655,30.475],[-85.625,30.467],[-85.575,30.452],[-85.525,30.434],[-85.503,30.425],[-85.475,30.413],[-85.425,30.388],[-85.401,30.375],[-85.375,30.36],[-85.325,30.329],[-85.319,30.325],[-85.275,30.293],[-85.25,30.275],[-85.225,30.255],[-85.188,30.225],[-85.175,30.214],[-85.129,30.175],[-85.125,30.172],[-85.075,30.13],[-85.069,30.125],[-85.025,30.09],[-85.004,30.075],[-84.975,30.055],[-84.925,30.025],[-84.925,30.025],[-84.875,30.002],[-84.825,29.983],[-84.798,29.975],[-84.775,29.969],[-84.725,29.959],[-84.675,29.951],[-84.625,29.946],[-84.575,29.942],[-84.525,29.94],[-84.475,29.939],[-84.439,29.939]],[[-91.375,31.285],[-91.325,31.279],[-91.293,31.275],[-91.275,31.273],[-91.225,31.266],[-91.175,31.26],[-91.125,31.253],[-91.075,31.246],[-91.025,31.239],[-90.975,31.231],[-90.936,31.225],[-90.925,31.223],[-90.875,31.216],[-90.825,31.207],[-90.775,31.199],[-90.725,31.191],[-90.675,31.183],[-90.63,31.175],[-90.625,31.174],[-90.575,31.166],[-90.525,31.158],[-90.475,31.151],[-90.425,31.145],[-90.375,31.139],[-90.325,31.134],[-90.275,31.129],[-90.229,31.125],[-90.225,31.125],[-90.175,31.12],[-90.125,31.116],[-90.075,31.112],[-90.025,31.107],[-89.975,31.103],[-89.925,31.099],[-89.875,31.094],[-89.825,31.09],[-89.775,31.085],[-89.725,31.08],[-89.682,31.075],[-89.675,31.074],[-89.625,31.068],[-89.575,31.061],[-89.525,31.053],[-89.475,31.044],[-89.425,31.033],[-89.395,31.025],[-89.375,31.02],[-89.325,31.004],[-89.275,30.986],[-89.249,30.975],[-89.225,30.965],[-89.175,30.941],[-89.142,30.925],[-89.125,30.916],[-89.075,30.889],[-89.05,30.875],[-89.025,30.861],[-88.975,30.831],[-88.965,30.825],[-88.925,30.801],[-88.883,30.775],[-88.875,30.77],[-88.825,30.739],[-88.803,30.725],[-88.775,30.708],[-88.725,30.676],[-88.723,30.675],[-88.675,30.645],[-88.643,30.625],[-88.625,30.614],[-88.575,30.584],[-88.56,30.575],[-88.525,30.555],[-88.475,30.529],[-88.468,30.525],[-88.425,30.505],[-88.375,30.482],[-88.358,30.475],[-88.325,30.461],[-88.275,30.442],[-88.231,30.425],[-88.225,30.423],[-88.175,30.405],[-88.125,30.388]],[[-92.513,31.463],[-92.475,31.454],[-92.425,31.442],[-92.375,31.431],[-92.348,31.425],[-92.325,31.42],[-92.275,31.41]]]}},{"type":"Feature","properties":{"date":"2026-03-06","label":"6 Mar","yday":65,"tier":"five","major":false},"geometry":{"type":"MultiLineString","coordinates":[[[-91.263,31.537],[-91.225,31.532],[-91.175,31.526],[-91.17,31.525],[-91.125,31.519],[-91.075,31.513],[-91.025,31.506],[-90.975,31.499],[-90.925,31.493],[-90.875,31.486],[-90.825,31.48],[-90.786,31.475],[-90.775,31.474],[-90.725,31.467],[-90.675,31.461],[-90.625,31.456],[-90.575,31.45],[-90.525,31.445],[-90.475,31.44],[-90.425,31.435],[-90.375,31.431],[-90.325,31.428],[-90.28,31.425],[-90.275,31.425],[-90.225,31.422],[-90.175,31.419],[-90.125,31.417],[-90.075,31.414],[-90.025,31.412],[-89.975,31.41],[-89.925,31.408],[-89.875,31.405],[-89.825,31.403],[-89.775,31.4],[-89.725,31.397],[-89.675,31.394],[-89.625,31.39],[-89.575,31.386],[-89.525,31.382],[-89.475,31.377],[-89.46,31.375],[-89.425,31.371],[-89.375,31.364],[-89.325,31.357],[-89.275,31.347],[-89.225,31.336],[-89.185,31.325],[-89.175,31.322],[-89.125,31.305],[-89.075,31.286],[-89.048,31.275],[-89.025,31.265],[-88.975,31.243],[-88.936,31.225],[-88.925,31.22],[-88.875,31.195],[-88.834,31.175],[-88.825,31.17],[-88.775,31.145],[-88.736,31.125],[-88.725,31.119],[-88.675,31.093],[-88.64,31.075],[-88.625,31.067],[-88.575,31.041],[-88.543,31.025],[-88.525,31.016],[-88.475,30.991],[-88.442,30.975],[-88.425,30.967],[-88.375,30.943],[-88.335,30.925],[-88.325,30.92],[-88.275,30.898],[-88.225,30.878],[-88.219,30.875],[-88.175,30.857],[-88.125,30.838],[-88.089,30.825],[-88.075,30.82],[-88.025,30.803],[-87.975,30.787],[-87.931,30.775],[-87.925,30.773],[-87.875,30.76],[-87.825,30.749],[-87.775,30.74],[-87.725,30.731],[-87.678,30.725],[-87.675,30.725],[-87.625,30.719],[-87.575,30.716],[-87.525,30.714],[-87.475,30.713],[-87.425,30.715],[-87.375,30.718],[-87.325,30.723],[-87.308,30.725],[-87.275,30.729],[-87.225,30.736],[-87.175,30.744],[-87.125,30.753],[-87.075,30.762],[-87.025,30.77],[-86.994,30.775],[-86.975,30.778],[-86.925,30.785],[-86.875,30.792],[-86.825,30.798],[-86.775,30.805],[-86.725,30.812],[-86.675,30.818],[-86.625,30.825],[-86.624,30.825],[-86.575,30.832],[-86.525,30.84],[-86.475,30.848],[-86.425,30.858],[-86.375,30.867],[-86.337,30.875],[-86.325,30.877],[-86.275,30.887],[-86.225,30.897],[-86.175,30.907],[-86.125,30.917],[-86.076,30.925],[-86.075,30.925],[-86.025,30.933],[-85.975,30.94],[-85.925,30.945],[-85.875,30.949],[-85.825,30.951],[-85.775,30.951],[-85.725,30.95],[-85.675,30.946],[-85.625,30.941],[-85.575,30.934],[-85.525,30.926],[-85.521,30.925],[-85.475,30.916],[-85.425,30.905],[-85.375,30.893],[-85.325,30.879],[-85.309,30.875],[-85.275,30.865],[-85.225,30.85],[-85.175,30.834],[-85.147,30.825],[-85.125,30.817],[-85.075,30.799],[-85.025,30.781],[-85.008,30.775],[-84.975,30.762],[-84.925,30.742],[-84.884,30.725],[-84.875,30.721],[-84.825,30.7],[-84.775,30.678],[-84.767,30.675],[-84.725,30.656],[-84.675,30.635],[-84.652,30.625],[-84.625,30.614],[-84.575,30.593],[-84.527,30.575],[-84.525,30.574],[-84.475,30.556],[-84.425,30.54],[-84.375,30.526],[-84.369,30.525],[-84.325,30.515],[-84.275,30.505],[-84.225,30.497],[-84.175,30.491],[-84.125,30.487],[-84.075,30.485],[-84.025,30.484],[-83.975,30.484],[-83.925,30.486],[-83.875,30.489],[-83.825,30.494],[-83.775,30.499],[-83.725,30.506],[-83.675,30.513],[-83.625,30.522],[-83.605,30.525],[-83.575,30.53],[-83.525,30.539],[-83.475,30.548],[-83.425,30.556],[-83.375,30.564],[-83.325,30.571],[-83.294,30.575],[-83.275,30.577],[-83.225,30.582],[-83.175,30.584],[-83.125,30.586],[-83.075,30.585],[-83.025,30.583],[-82.975,30.579],[-82.933,30.575],[-82.925,30.574],[-82.875,30.568],[-82.825,30.561],[-82.775,30.553],[-82.725,30.545],[-82.675,30.537],[-82.625,30.528],[-82.608,30.525],[-82.575,30.519],[-82.525,30.51],[-82.475,30.502],[-82.425,30.493],[-82.375,30.485],[-82.325,30.478],[-82.307,30.475],[-82.275,30.47],[-82.225,30.464],[-82.175,30.458],[-82.125,30.452],[-82.075,30.447],[-82.025,30.443],[-81.975,30.439],[-81.925,30.436],[-81.875,30.433],[-81.825,30.43],[-81.775,30.427],[-81.749,30.425],[-81.725,30.423],[-81.675,30.418],[-81.625,30.412],[-81.575,30.405],[-81.525,30.398],[-81.475,30.392],[-81.425,30.386]],[[-92.961,31.911],[-92.925,31.897],[-92.875,31.878],[-92.867,31.875],[-92.825,31.86],[-92.775,31.842],[-92.725,31.825],[-92.724,31.825],[-92.675,31.809],[-92.625,31.793],[-92.575,31.778],[-92.563,31.775],[-92.525,31.764],[-92.475,31.75],[-92.425,31.737],[-92.376,31.725],[-92.375,31.725],[-92.325,31.713],[-92.275,31.702],[-92.225,31.691],[-92.175,31.68],[-92.148,31.675],[-92.125,31.67],[-92.075,31.661],[-92.025,31.652],[-91.975,31.643],[-91.96,31.64]]]}},{"type":"Feature","properties":{"date":"2026-03-07","label":"7 Mar","yday":66,"tier":"day","major":false},"geometry":{"type":"MultiLineString","coordinates":[[[-91.11,31.79],[-91.075,31.786],[-91.025,31.78],[-90.977,31.775],[-90.975,31.775],[-90.925,31.77],[-90.875,31.765],[-90.825,31.76],[-90.775,31.756],[-90.725,31.752],[-90.675,31.748],[-90.625,31.744],[-90.575,31.74],[-90.525,31.737],[-90.475,31.733],[-90.425,31.73],[-90.375,31.727],[-90.348,31.725],[-90.325,31.724],[-90.275,31.72],[-90.225,31.717],[-90.175,31.714],[-90.125,31.711],[-90.075,31.708],[-90.025,31.704],[-89.975,31.7],[-89.925,31.696],[-89.875,31.692],[-89.825,31.688],[-89.775,31.683],[-89.725,31.677],[-89.706,31.675],[-89.675,31.671],[-89.625,31.665],[-89.575,31.659],[-89.525,31.651],[-89.475,31.644],[-89.425,31.635],[-89.375,31.626],[-89.367,31.625],[-89.325,31.617],[-89.275,31.607],[-89.225,31.596],[-89.175,31.584],[-89.137,31.575],[-89.125,31.572],[-89.075,31.559],[-89.025,31.544],[-88.975,31.529],[-88.962,31.525],[-88.925,31.513],[-88.875,31.496],[-88.825,31.479],[-88.813,31.475],[-88.775,31.461],[-88.725,31.443],[-88.676,31.425],[-88.675,31.425],[-88.625,31.406],[-88.575,31.387],[-88.542,31.375],[-88.525,31.369],[-88.475,31.35],[-88.425,31.332],[-88.404,31.325],[-88.375,31.314],[-88.325,31.297],[-88.275,31.281],[-88.257,31.275],[-88.225,31.265],[-88.175,31.249],[-88.125,31.235],[-88.089,31.225],[-88.075,31.221],[-88.025,31.208],[-87.975,31.196],[-87.925,31.186],[-87.875,31.176],[-87.869,31.175],[-87.825,31.167],[-87.775,31.16],[-87.725,31.153],[-87.675,31.148],[-87.625,31.144],[-87.575,31.141],[-87.525,31.139],[-87.475,31.138],[-87.425,31.138],[-87.375,31.138],[-87.325,31.14],[-87.275,31.143],[-87.225,31.146],[-87.175,31.15],[-87.125,31.154],[-87.075,31.159],[-87.025,31.164],[-86.975,31.17],[-86.929,31.175],[-86.925,31.175],[-86.875,31.182],[-86.825,31.188],[-86.775,31.195],[-86.725,31.201],[-86.675,31.208],[-86.625,31.216],[-86.575,31.223],[-86.563,31.225],[-86.525,31.231],[-86.475,31.238],[-86.425,31.246],[-86.375,31.253],[-86.325,31.261],[-86.275,31.268],[-86.228,31.275],[-86.225,31.275],[-86.175,31.282],[-86.125,31.288],[-86.075,31.294],[-86.025,31.299],[-85.975,31.304],[-85.925,31.308],[-85.875,31.31],[-85.825,31.312],[-85.775,31.312],[-85.725,31.311],[-85.675,31.307],[-85.625,31.3],[-85.575,31.293],[-85.525,31.284],[-85.475,31.275],[-85.474,31.275],[-85.425,31.266],[-85.375,31.257],[-85.325,31.248],[-85.275,31.239],[-85.225,31.23],[-85.201,31.225],[-85.175,31.22],[-85.125,31.21],[-85.075,31.2],[-85.025,31.19],[-84.975,31.179],[-84.955,31.175],[-84.925,31.168],[-84.875,31.158],[-84.825,31.147],[-84.775,31.135],[-84.728,31.125],[-84.725,31.124],[-84.675,31.112],[-84.625,31.1],[-84.575,31.088],[-84.525,31.076],[-84.521,31.075],[-84.475,31.063],[-84.425,31.05],[-84.375,31.038],[-84.325,31.026],[-84.319,31.025],[-84.275,31.015],[-84.225,31.005],[-84.175,30.995],[-84.125,30.987],[-84.075,30.981],[-84.025,30.975],[-84.02,30.975],[-83.975,30.972],[-83.925,30.97],[-83.875,30.971],[-83.825,30.974],[-83.813,30.975],[-83.775,30.979],[-83.725,30.985],[-83.675,30.992],[-83.625,31.0],[-83.575,31.008],[-83.525,31.016],[-83.475,31.024],[-83.468,31.025],[-83.425,31.031],[-83.375,31.037],[-83.325,31.041],[-83.275,31.045],[-83.225,31.046],[-83.175,31.045],[-83.125,31.042],[-83.075,31.037],[-83.025,31.03],[-82.993,31.025],[-82.975,31.022],[-82.925,31.012],[-82.875,31.001],[-82.825,30.99],[-82.775,30.977],[-82.767,30.975],[-82.725,30.963],[-82.675,30.949],[-82.625,30.934],[-82.598,30.925],[-82.575,30.918],[-82.525,30.901],[-82.475,30.883],[-82.452,30.875],[-82.425,30.865],[-82.375,30.848],[-82.325,30.83],[-82.311,30.825],[-82.275,30.813],[-82.225,30.796],[-82.175,30.78],[-82.16,30.775],[-82.125,30.764],[-82.075,30.75],[-82.025,30.736],[-81.981,30.725],[-81.975,30.723],[-81.925,30.711],[-81.875,30.7],[-81.825,30.689],[-81.775,30.678],[-81.758,30.675],[-81.725,30.668],[-81.675,30.658],[-81.625,30.648],[-81.575,30.638],[-81.525,30.629],[-81.505,30.625],[-81.48,30.62]],[[-93.025,32.212],[-92.975,32.19],[-92.938,32.175],[-92.925,32.17],[-92.875,32.149],[-92.825,32.131],[-92.809,32.125],[-92.775,32.112],[-92.725,32.095],[-92.675,32.079],[-92.661,32.075],[-92.625,32.064],[-92.575,32.05],[-92.525,32.036],[-92.482,32.025],[-92.475,32.023],[-92.425,32.011],[-92.375,31.999],[-92.325,31.988],[-92.275,31.977],[-92.265,31.975],[-92.225,31.967],[-92.175,31.957],[-92.125,31.947],[-92.075,31.938],[-92.025,31.929],[-92.005,31.925],[-91.975,31.92],[-91.925,31.911],[-91.875,31.902]]]}},{"type":"Feature","properties":{"date":"2026-03-08","label":"8 Mar","yday":67,"tier":"day","major":false},"geometry":{"type":"MultiLineString","coordinates":[[[-90.757,32.043],[-90.725,32.042],[-90.675,32.04],[-90.625,32.038],[-90.575,32.036],[-90.525,32.033],[-90.475,32.031],[-90.425,32.028],[-90.375,32.026],[-90.365,32.025],[-90.325,32.023],[-90.275,32.019],[-90.225,32.015],[-90.175,32.011],[-90.125,32.006],[-90.075,32.001],[-90.025,31.995],[-89.975,31.989],[-89.925,31.982],[-89.875,31.975],[-89.874,31.975],[-89.825,31.967],[-89.775,31.959],[-89.725,31.951],[-89.675,31.942],[-89.625,31.932],[-89.588,31.925],[-89.575,31.922],[-89.525,31.912],[-89.475,31.901],[-89.425,31.89],[-89.375,31.879],[-89.358,31.875],[-89.325,31.867],[-89.275,31.855],[-89.225,31.843],[-89.175,31.83],[-89.156,31.825],[-89.125,31.817],[-89.075,31.804],[-89.025,31.79],[-88.975,31.776],[-88.971,31.775],[-88.925,31.762],[-88.875,31.748],[-88.825,31.733],[-88.797,31.725],[-88.775,31.719],[-88.725,31.704],[-88.675,31.689],[-88.625,31.675],[-88.625,31.675],[-88.575,31.66],[-88.525,31.646],[-88.475,31.632],[-88.448,31.625],[-88.425,31.619],[-88.375,31.605],[-88.325,31.592],[-88.275,31.58],[-88.253,31.575],[-88.225,31.568],[-88.175,31.557],[-88.125,31.546],[-88.075,31.536],[-88.025,31.527],[-88.011,31.525],[-87.975,31.519],[-87.925,31.511],[-87.875,31.504],[-87.825,31.498],[-87.775,31.493],[-87.725,31.488],[-87.675,31.484],[-87.625,31.482],[-87.575,31.479],[-87.525,31.478],[-87.475,31.478],[-87.425,31.478],[-87.375,31.478],[-87.325,31.48],[-87.275,31.482],[-87.225,31.484],[-87.175,31.488],[-87.125,31.491],[-87.075,31.495],[-87.025,31.5],[-86.975,31.505],[-86.925,31.511],[-86.875,31.517],[-86.825,31.523],[-86.806,31.525],[-86.775,31.529],[-86.725,31.534],[-86.675,31.54],[-86.625,31.545],[-86.575,31.551],[-86.525,31.555],[-86.475,31.56],[-86.425,31.564],[-86.375,31.567],[-86.325,31.57],[-86.275,31.573],[-86.225,31.575],[-86.213,31.575],[-86.175,31.576],[-86.125,31.577],[-86.075,31.578],[-86.025,31.579],[-85.975,31.579],[-85.925,31.578],[-85.875,31.577],[-85.825,31.576],[-85.81,31.575],[-85.775,31.573],[-85.725,31.571],[-85.675,31.567],[-85.625,31.563],[-85.575,31.558],[-85.525,31.552],[-85.475,31.546],[-85.425,31.54],[-85.375,31.533],[-85.325,31.527],[-85.312,31.525],[-85.275,31.52],[-85.225,31.513],[-85.175,31.505],[-85.125,31.498],[-85.075,31.49],[-85.025,31.483],[-84.975,31.475],[-84.975,31.475],[-84.925,31.467],[-84.875,31.459],[-84.825,31.451],[-84.775,31.442],[-84.725,31.434],[-84.675,31.426],[-84.668,31.425],[-84.625,31.418],[-84.575,31.409],[-84.525,31.401],[-84.475,31.393],[-84.425,31.385],[-84.375,31.378],[-84.354,31.375],[-84.325,31.371],[-84.275,31.364],[-84.225,31.358],[-84.175,31.353],[-84.125,31.348],[-84.075,31.345],[-84.025,31.342],[-83.975,31.34],[-83.925,31.339],[-83.875,31.338],[-83.825,31.338],[-83.775,31.339],[-83.725,31.34],[-83.675,31.341],[-83.625,31.343],[-83.575,31.344],[-83.525,31.345],[-83.475,31.346],[-83.425,31.347],[-83.375,31.347],[-83.325,31.346],[-83.275,31.345],[-83.225,31.342],[-83.175,31.339],[-83.125,31.334],[-83.075,31.329],[-83.042,31.325],[-83.025,31.323],[-82.975,31.315],[-82.925,31.307],[-82.875,31.298],[-82.825,31.288],[-82.775,31.278],[-82.762,31.275],[-82.725,31.267],[-82.675,31.254],[-82.625,31.241],[-82.575,31.228],[-82.565,31.225],[-82.525,31.213],[-82.475,31.196],[-82.425,31.179],[-82.416,31.175],[-82.375,31.158],[-82.325,31.136],[-82.3,31.125],[-82.275,31.114],[-82.225,31.091],[-82.188,31.075],[-82.175,31.069],[-82.125,31.048],[-82.075,31.027],[-82.069,31.025],[-82.025,31.008],[-81.975,30.989],[-81.935,30.975],[-81.925,30.972],[-81.875,30.955],[-81.825,30.939],[-81.777,30.925],[-81.775,30.924],[-81.725,30.91],[-81.675,30.897],[-81.625,30.884],[-81.587,30.875],[-81.575,30.872],[-81.525,30.861],[-81.475,30.85]],[[-92.561,32.289],[-92.525,32.281],[-92.499,32.275],[-92.475,32.27],[-92.425,32.26],[-92.375,32.251],[-92.325,32.242],[-92.275,32.234],[-92.225,32.227],[-92.215,32.225],[-92.175,32.219],[-92.125,32.212],[-92.109,32.209]]]}},{"type":"Feature","properties":{"date":"2026-03-09","label":"9 Mar","yday":68,"tier":"day","major":false},"geometry":{"type":"MultiLineString","coordinates":[[[-81.433,31.075],[-81.425,31.073]],[[-89.445,32.155],[-89.425,32.149],[-89.375,32.134],[-89.347,32.125],[-89.325,32.118],[-89.275,32.103],[-89.225,32.088],[-89.183,32.075],[-89.175,32.072],[-89.125,32.057],[-89.075,32.042],[-89.025,32.027],[-89.019,32.025],[-88.975,32.012],[-88.925,31.997],[-88.875,31.982],[-88.849,31.975],[-88.825,31.968],[-88.775,31.954],[-88.725,31.94],[-88.675,31.927],[-88.667,31.925],[-88.625,31.914],[-88.575,31.901],[-88.525,31.889],[-88.475,31.877],[-88.466,31.875],[-88.425,31.866],[-88.375,31.855],[-88.325,31.844],[-88.275,31.834],[-88.225,31.825],[-88.224,31.825],[-88.175,31.816],[-88.125,31.808],[-88.075,31.8],[-88.025,31.794],[-87.975,31.787],[-87.925,31.782],[-87.875,31.777],[-87.853,31.775],[-87.825,31.773],[-87.775,31.769],[-87.725,31.766],[-87.675,31.764],[-87.625,31.762],[-87.575,31.761],[-87.525,31.761],[-87.475,31.761],[-87.425,31.762],[-87.375,31.764],[-87.325,31.766],[-87.275,31.768],[-87.225,31.771],[-87.175,31.775],[-87.175,31.775],[-87.125,31.779],[-87.075,31.783],[-87.025,31.787],[-86.975,31.792],[-86.925,31.797],[-86.875,31.801],[-86.825,31.806],[-86.775,31.811],[-86.725,31.815],[-86.675,31.819],[-86.625,31.822],[-86.578,31.825],[-86.575,31.825],[-86.525,31.827],[-86.475,31.829],[-86.425,31.829],[-86.375,31.829],[-86.325,31.829],[-86.275,31.827],[-86.225,31.825],[-86.217,31.825],[-86.175,31.823],[-86.125,31.82],[-86.075,31.817],[-86.025,31.814],[-85.975,31.811],[-85.925,31.808],[-85.875,31.805],[-85.825,31.801],[-85.775,31.798],[-85.725,31.794],[-85.675,31.79],[-85.625,31.786],[-85.575,31.782],[-85.525,31.777],[-85.499,31.775],[-85.475,31.773],[-85.425,31.768],[-85.375,31.762],[-85.325,31.757],[-85.275,31.751],[-85.225,31.746],[-85.175,31.74],[-85.125,31.734],[-85.075,31.728],[-85.048,31.725],[-85.025,31.722],[-84.975,31.716],[-84.925,31.709],[-84.875,31.703],[-84.825,31.696],[-84.775,31.69],[-84.725,31.684],[-84.675,31.677],[-84.656,31.675],[-84.625,31.671],[-84.575,31.665],[-84.525,31.659],[-84.475,31.653],[-84.425,31.647],[-84.375,31.642],[-84.325,31.637],[-84.275,31.632],[-84.225,31.628],[-84.181,31.625],[-84.175,31.625],[-84.125,31.621],[-84.075,31.619],[-84.025,31.617],[-83.975,31.615],[-83.925,31.614],[-83.875,31.613],[-83.825,31.612],[-83.775,31.612],[-83.725,31.611],[-83.675,31.61],[-83.625,31.61],[-83.575,31.609],[-83.525,31.608],[-83.475,31.606],[-83.425,31.605],[-83.375,31.602],[-83.325,31.6],[-83.275,31.597],[-83.225,31.593],[-83.175,31.588],[-83.125,31.583],[-83.075,31.577],[-83.061,31.575],[-83.025,31.57],[-82.975,31.562],[-82.925,31.554],[-82.875,31.545],[-82.825,31.535],[-82.779,31.525],[-82.775,31.524],[-82.725,31.512],[-82.675,31.5],[-82.625,31.487],[-82.584,31.475],[-82.575,31.472],[-82.525,31.457],[-82.475,31.441],[-82.427,31.425],[-82.425,31.424],[-82.375,31.406],[-82.325,31.387],[-82.297,31.375],[-82.275,31.366],[-82.225,31.344],[-82.183,31.325],[-82.175,31.321],[-82.125,31.299],[-82.075,31.277],[-82.071,31.275],[-82.025,31.256],[-81.975,31.235],[-81.947,31.225],[-81.925,31.216],[-81.875,31.199],[-81.825,31.182],[-81.804,31.175],[-81.775,31.166],[-81.725,31.151],[-81.675,31.136],[-81.635,31.125],[-81.625,31.122],[-81.575,31.109],[-81.525,31.097],[-81.487,31.087]],[[-89.961,32.289],[-89.925,32.282],[-89.895,32.275],[-89.875,32.271],[-89.825,32.259],[-89.775,32.247],[-89.725,32.234],[-89.692,32.225],[-89.675,32.221],[-89.625,32.207],[-89.575,32.193],[-89.53,32.18]]]}},{"type":"Feature","properties":{"date":"2026-03-10","label":"10 Mar","yday":69,"tier":"day","major":false},"geometry":{"type":"MultiLineString","coordinates":[[[-86.068,32.032],[-86.025,32.027],[-86.006,32.025],[-85.975,32.021],[-85.925,32.016],[-85.875,32.01],[-85.825,32.005],[-85.775,31.999],[-85.725,31.994],[-85.675,31.989],[-85.625,31.984],[-85.575,31.979],[-85.529,31.975],[-85.525,31.975],[-85.475,31.97],[-85.425,31.965],[-85.375,31.96],[-85.325,31.956],[-85.275,31.951],[-85.225,31.946],[-85.175,31.941],[-85.125,31.937],[-85.075,31.932],[-85.025,31.926],[-85.011,31.925],[-84.975,31.921],[-84.925,31.916],[-84.875,31.91],[-84.825,31.905],[-84.775,31.9],[-84.725,31.894],[-84.675,31.889],[-84.625,31.884],[-84.575,31.879],[-84.528,31.875],[-84.525,31.875],[-84.475,31.87],[-84.425,31.866],[-84.375,31.862],[-84.325,31.859],[-84.275,31.855],[-84.225,31.853],[-84.175,31.85],[-84.125,31.848],[-84.075,31.846],[-84.025,31.845],[-83.975,31.843],[-83.925,31.842],[-83.875,31.841],[-83.825,31.84],[-83.775,31.84],[-83.725,31.839],[-83.675,31.838],[-83.625,31.836],[-83.575,31.835],[-83.525,31.833],[-83.475,31.831],[-83.425,31.829],[-83.375,31.827],[-83.35,31.825],[-83.325,31.823],[-83.275,31.82],[-83.225,31.816],[-83.175,31.811],[-83.125,31.806],[-83.075,31.801],[-83.025,31.795],[-82.975,31.788],[-82.925,31.78],[-82.891,31.775],[-82.875,31.772],[-82.825,31.763],[-82.775,31.754],[-82.725,31.743],[-82.675,31.732],[-82.648,31.725],[-82.625,31.719],[-82.575,31.706],[-82.525,31.691],[-82.475,31.675],[-82.474,31.675],[-82.425,31.658],[-82.375,31.641],[-82.333,31.625],[-82.325,31.622],[-82.275,31.602],[-82.225,31.581],[-82.212,31.575],[-82.175,31.559],[-82.125,31.536],[-82.101,31.525],[-82.075,31.513],[-82.025,31.491],[-81.987,31.475],[-81.975,31.47],[-81.925,31.451],[-81.875,31.435],[-81.84,31.425],[-81.825,31.421],[-81.775,31.408],[-81.725,31.397],[-81.675,31.385],[-81.627,31.375],[-81.625,31.375],[-81.575,31.364],[-81.525,31.353],[-81.475,31.342],[-81.425,31.331],[-81.42,31.33]],[[-89.249,32.351],[-89.225,32.341],[-89.184,32.325],[-89.175,32.321],[-89.125,32.302],[-89.075,32.283],[-89.053,32.275],[-89.025,32.265],[-88.975,32.247],[-88.925,32.229],[-88.912,32.225],[-88.875,32.213],[-88.825,32.197],[-88.775,32.181],[-88.754,32.175],[-88.725,32.166],[-88.675,32.153],[-88.625,32.139],[-88.575,32.127],[-88.568,32.125],[-88.525,32.115],[-88.475,32.104],[-88.425,32.093],[-88.375,32.083],[-88.332,32.075],[-88.325,32.074],[-88.275,32.065],[-88.225,32.057],[-88.175,32.049],[-88.125,32.042],[-88.075,32.036],[-88.025,32.03],[-87.975,32.025],[-87.974,32.025],[-87.925,32.02],[-87.92,32.02]]]}},{"type":"Feature","properties":{"date":"2026-03-11","label":"11 Mar","yday":70,"tier":"five","major":false},"geometry":{"type":"MultiLineString","coordinates":[[[-81.223,31.577],[-81.219,31.575],[-81.175,31.56]],[[-85.594,32.156],[-85.575,32.154],[-85.525,32.149],[-85.475,32.144],[-85.425,32.139],[-85.375,32.135],[-85.325,32.13],[-85.275,32.126],[-85.259,32.125],[-85.225,32.122],[-85.175,32.118],[-85.125,32.114],[-85.075,32.11],[-85.025,32.105],[-84.975,32.101],[-84.925,32.096],[-84.875,32.091],[-84.825,32.087],[-84.775,32.082],[-84.725,32.077],[-84.7,32.075],[-84.675,32.073],[-84.625,32.068],[-84.575,32.064],[-84.525,32.06],[-84.475,32.057],[-84.425,32.054],[-84.375,32.051],[-84.325,32.048],[-84.275,32.046],[-84.225,32.045],[-84.175,32.043],[-84.125,32.042],[-84.075,32.041],[-84.025,32.04],[-83.975,32.04],[-83.925,32.039],[-83.875,32.039],[-83.825,32.038],[-83.775,32.038],[-83.725,32.037],[-83.675,32.037],[-83.625,32.036],[-83.575,32.034],[-83.525,32.033],[-83.475,32.031],[-83.425,32.028],[-83.375,32.026],[-83.363,32.025],[-83.325,32.023],[-83.275,32.019],[-83.225,32.015],[-83.175,32.011],[-83.125,32.007],[-83.075,32.002],[-83.025,31.996],[-82.975,31.991],[-82.925,31.985],[-82.875,31.978],[-82.849,31.975],[-82.825,31.972],[-82.775,31.964],[-82.725,31.956],[-82.675,31.948],[-82.625,31.938],[-82.575,31.928],[-82.56,31.925],[-82.525,31.917],[-82.475,31.905],[-82.425,31.892],[-82.375,31.877],[-82.367,31.875],[-82.325,31.862],[-82.275,31.846],[-82.225,31.829],[-82.213,31.825],[-82.175,31.812],[-82.125,31.794],[-82.075,31.777],[-82.07,31.775],[-82.025,31.759],[-81.975,31.742],[-81.925,31.726],[-81.92,31.725],[-81.875,31.712],[-81.825,31.7],[-81.775,31.691],[-81.725,31.683],[-81.675,31.677],[-81.661,31.675],[-81.625,31.67],[-81.575,31.663],[-81.525,31.655],[-81.475,31.646],[-81.425,31.635],[-81.384,31.625],[-81.375,31.623],[-81.325,31.609],[-81.275,31.594],[-81.228,31.578]],[[-87.175,32.231],[-87.125,32.233],[-87.075,32.236],[-87.025,32.238],[-86.975,32.241],[-86.925,32.244],[-86.904,32.246]],[[-89.032,32.518],[-89.025,32.515],[-88.975,32.492],[-88.936,32.475],[-88.925,32.47],[-88.875,32.45],[-88.825,32.43],[-88.813,32.425],[-88.775,32.411],[-88.725,32.393],[-88.675,32.376],[-88.67,32.375],[-88.625,32.361],[-88.575,32.347],[-88.525,32.334],[-88.485,32.325],[-88.475,32.323],[-88.425,32.312],[-88.375,32.302],[-88.325,32.292],[-88.275,32.284],[-88.225,32.276],[-88.221,32.275],[-88.175,32.268],[-88.167,32.267]],[[-89.675,32.851],[-89.627,32.825],[-89.625,32.824],[-89.575,32.797],[-89.561,32.789]]]}},{"type":"Feature","properties":{"date":"2026-03-12","label":"12 Mar","yday":71,"tier":"day","major":false},"geometry":{"type":"MultiLineString","coordinates":[[[-85.617,32.317],[-85.575,32.312],[-85.525,32.306],[-85.475,32.3],[-85.425,32.295],[-85.375,32.291],[-85.325,32.286],[-85.275,32.282],[-85.225,32.279],[-85.175,32.275],[-85.17,32.275],[-85.125,32.272],[-85.075,32.268],[-85.025,32.265],[-84.975,32.261],[-84.925,32.256],[-84.875,32.252],[-84.825,32.247],[-84.775,32.243],[-84.725,32.238],[-84.675,32.234],[-84.625,32.231],[-84.575,32.227],[-84.539,32.225],[-84.525,32.224],[-84.475,32.221],[-84.425,32.219],[-84.375,32.217],[-84.325,32.215],[-84.275,32.214],[-84.225,32.213],[-84.175,32.212],[-84.125,32.212],[-84.075,32.212],[-84.025,32.212],[-83.975,32.213],[-83.925,32.213],[-83.875,32.214],[-83.825,32.214],[-83.775,32.214],[-83.725,32.215],[-83.675,32.214],[-83.625,32.214],[-83.575,32.213],[-83.525,32.212],[-83.475,32.21],[-83.425,32.207],[-83.375,32.205],[-83.325,32.202],[-83.275,32.198],[-83.225,32.194],[-83.175,32.19],[-83.125,32.186],[-83.075,32.181],[-83.025,32.176],[-83.01,32.175],[-82.975,32.171],[-82.925,32.166],[-82.875,32.161],[-82.825,32.155],[-82.775,32.15],[-82.725,32.144],[-82.675,32.137],[-82.625,32.131],[-82.583,32.125],[-82.575,32.124],[-82.525,32.116],[-82.475,32.108],[-82.425,32.098],[-82.375,32.088],[-82.325,32.076],[-82.322,32.075],[-82.275,32.063],[-82.225,32.049],[-82.175,32.036],[-82.133,32.025],[-82.125,32.023],[-82.075,32.01],[-82.025,31.998],[-81.975,31.987],[-81.925,31.977],[-81.912,31.975],[-81.875,31.968],[-81.825,31.961],[-81.775,31.955],[-81.725,31.95],[-81.675,31.946],[-81.625,31.943],[-81.575,31.939],[-81.525,31.933],[-81.475,31.927],[-81.465,31.925],[-81.425,31.918],[-81.375,31.908],[-81.325,31.896],[-81.275,31.882],[-81.252,31.875],[-81.225,31.866],[-81.175,31.846],[-81.126,31.825],[-81.125,31.825],[-81.075,31.8]],[[-87.231,32.419],[-87.225,32.419],[-87.175,32.419],[-87.125,32.42],[-87.075,32.421],[-87.025,32.422],[-86.975,32.423],[-86.925,32.425],[-86.925,32.425]],[[-88.788,32.662],[-88.775,32.656],[-88.725,32.634],[-88.705,32.625],[-88.675,32.613],[-88.625,32.593],[-88.575,32.575],[-88.575,32.575],[-88.525,32.559],[-88.475,32.545],[-88.425,32.532],[-88.395,32.525],[-88.375,32.521],[-88.325,32.51],[-88.275,32.5],[-88.225,32.491],[-88.184,32.484]]]}},{"type":"Feature","properties":{"date":"2026-03-13","label":"13 Mar","yday":72,"tier":"day","major":false},"geometry":{"type":"MultiLineString","coordinates":[[[-86.202,32.552],[-86.175,32.548],[-86.125,32.541],[-86.075,32.533],[-86.025,32.525],[-86.023,32.525],[-85.975,32.517],[-85.925,32.509],[-85.875,32.5],[-85.825,32.492],[-85.775,32.484],[-85.725,32.477],[-85.714,32.475],[-85.675,32.469],[-85.625,32.462],[-85.575,32.455],[-85.525,32.449],[-85.475,32.443],[-85.425,32.438],[-85.375,32.433],[-85.325,32.428],[-85.282,32.425],[-85.275,32.424],[-85.225,32.421],[-85.175,32.417],[-85.125,32.413],[-85.075,32.41],[-85.025,32.407],[-84.975,32.403],[-84.925,32.399],[-84.875,32.395],[-84.825,32.391],[-84.775,32.387],[-84.725,32.383],[-84.675,32.38],[-84.625,32.376],[-84.599,32.375],[-84.575,32.374],[-84.525,32.371],[-84.475,32.369],[-84.425,32.367],[-84.375,32.366],[-84.325,32.365],[-84.275,32.365],[-84.225,32.364],[-84.175,32.365],[-84.125,32.365],[-84.075,32.366],[-84.025,32.367],[-83.975,32.369],[-83.925,32.37],[-83.875,32.371],[-83.825,32.373],[-83.775,32.374],[-83.744,32.375],[-83.725,32.375],[-83.675,32.376],[-83.625,32.376],[-83.575,32.376],[-83.535,32.375],[-83.525,32.375],[-83.475,32.373],[-83.425,32.371],[-83.375,32.368],[-83.325,32.364],[-83.275,32.361],[-83.225,32.356],[-83.175,32.352],[-83.125,32.348],[-83.075,32.343],[-83.025,32.338],[-82.975,32.333],[-82.925,32.328],[-82.89,32.325],[-82.875,32.323],[-82.825,32.318],[-82.775,32.313],[-82.725,32.308],[-82.675,32.302],[-82.625,32.296],[-82.575,32.29],[-82.525,32.283],[-82.475,32.277],[-82.465,32.275],[-82.425,32.269],[-82.375,32.26],[-82.325,32.25],[-82.275,32.239],[-82.225,32.228],[-82.212,32.225],[-82.175,32.216],[-82.125,32.204],[-82.075,32.193],[-82.025,32.182],[-81.991,32.175],[-81.975,32.172],[-81.925,32.162],[-81.875,32.154],[-81.825,32.146],[-81.775,32.14],[-81.725,32.135],[-81.675,32.13],[-81.625,32.126],[-81.612,32.125],[-81.575,32.122],[-81.525,32.118],[-81.475,32.114],[-81.425,32.11],[-81.375,32.105],[-81.325,32.099],[-81.275,32.091],[-81.225,32.082],[-81.198,32.075],[-81.175,32.069],[-81.125,32.052],[-81.075,32.032],[-81.059,32.025],[-81.025,32.009],[-80.975,31.984],[-80.958,31.975],[-80.937,31.963]],[[-86.786,32.586],[-86.775,32.586],[-86.725,32.586],[-86.675,32.585],[-86.625,32.584],[-86.575,32.583],[-86.525,32.581],[-86.475,32.578],[-86.425,32.576],[-86.418,32.575]]]}},{"type":"Feature","properties":{"date":"2026-03-14","label":"14 Mar","yday":73,"tier":"day","major":false},"geometry":{"type":"MultiLineString","coordinates":[[[-87.543,32.793],[-87.525,32.79],[-87.475,32.784],[-87.425,32.779],[-87.39,32.775],[-87.375,32.773],[-87.325,32.769],[-87.275,32.764],[-87.225,32.76],[-87.175,32.756],[-87.125,32.752],[-87.075,32.749],[-87.025,32.746],[-86.975,32.743],[-86.925,32.74],[-86.875,32.738],[-86.825,32.735],[-86.775,32.733],[-86.725,32.73],[-86.675,32.728],[-86.627,32.725],[-86.625,32.725],[-86.575,32.722],[-86.525,32.719],[-86.475,32.715],[-86.425,32.711],[-86.375,32.706],[-86.325,32.701],[-86.275,32.696],[-86.225,32.689],[-86.175,32.683],[-86.125,32.676],[-86.119,32.675],[-86.075,32.669],[-86.025,32.661],[-85.975,32.653],[-85.925,32.645],[-85.875,32.637],[-85.825,32.629],[-85.801,32.625],[-85.775,32.621],[-85.725,32.613],[-85.675,32.605],[-85.625,32.598],[-85.575,32.591],[-85.525,32.584],[-85.475,32.578],[-85.453,32.575],[-85.425,32.572],[-85.375,32.566],[-85.325,32.561],[-85.275,32.557],[-85.225,32.553],[-85.175,32.549],[-85.125,32.545],[-85.075,32.541],[-85.025,32.537],[-84.975,32.534],[-84.925,32.53],[-84.875,32.526],[-84.855,32.525],[-84.825,32.523],[-84.775,32.519],[-84.725,32.516],[-84.675,32.513],[-84.625,32.511],[-84.575,32.508],[-84.525,32.506],[-84.475,32.505],[-84.425,32.504],[-84.375,32.503],[-84.325,32.503],[-84.275,32.503],[-84.225,32.503],[-84.175,32.504],[-84.125,32.505],[-84.075,32.507],[-84.025,32.509],[-83.975,32.511],[-83.925,32.513],[-83.875,32.515],[-83.825,32.518],[-83.775,32.52],[-83.725,32.522],[-83.675,32.524],[-83.635,32.525],[-83.625,32.525],[-83.575,32.525],[-83.544,32.525],[-83.525,32.525],[-83.475,32.523],[-83.425,32.52],[-83.375,32.517],[-83.325,32.514],[-83.275,32.51],[-83.225,32.505],[-83.175,32.501],[-83.125,32.496],[-83.075,32.491],[-83.025,32.487],[-82.975,32.482],[-82.925,32.477],[-82.904,32.475],[-82.875,32.472],[-82.825,32.467],[-82.775,32.462],[-82.725,32.456],[-82.675,32.451],[-82.625,32.445],[-82.575,32.439],[-82.525,32.432],[-82.476,32.425],[-82.475,32.425],[-82.425,32.417],[-82.375,32.409],[-82.325,32.4],[-82.275,32.39],[-82.225,32.38],[-82.202,32.375],[-82.175,32.369],[-82.125,32.358],[-82.075,32.348],[-82.025,32.337],[-81.975,32.327],[-81.964,32.325],[-81.925,32.317],[-81.875,32.309],[-81.825,32.301],[-81.775,32.293],[-81.725,32.287],[-81.675,32.282],[-81.625,32.278],[-81.592,32.275],[-81.575,32.274],[-81.525,32.27],[-81.475,32.267],[-81.425,32.264],[-81.375,32.26],[-81.325,32.256],[-81.275,32.251],[-81.225,32.245],[-81.175,32.236],[-81.125,32.225],[-81.123,32.225],[-81.075,32.212],[-81.025,32.195],[-80.975,32.176],[-80.973,32.175],[-80.925,32.154],[-80.875,32.13],[-80.872,32.128]]]}},{"type":"Feature","properties":{"date":"2026-03-15","label":"15 Mar","yday":74,"tier":"day","major":false},"geometry":{"type":"MultiLineString","coordinates":[[[-87.575,32.976],[-87.568,32.975],[-87.525,32.967],[-87.475,32.958],[-87.425,32.95],[-87.375,32.942],[-87.325,32.934],[-87.275,32.927],[-87.259,32.925],[-87.225,32.92],[-87.175,32.914],[-87.125,32.908],[-87.075,32.903],[-87.025,32.897],[-86.975,32.892],[-86.925,32.887],[-86.875,32.883],[-86.825,32.878],[-86.785,32.875],[-86.775,32.874],[-86.725,32.87],[-86.675,32.866],[-86.625,32.862],[-86.575,32.857],[-86.525,32.853],[-86.475,32.848],[-86.425,32.843],[-86.375,32.838],[-86.325,32.832],[-86.275,32.826],[-86.265,32.825],[-86.225,32.82],[-86.175,32.813],[-86.125,32.806],[-86.075,32.799],[-86.025,32.792],[-85.975,32.784],[-85.925,32.776],[-85.917,32.775],[-85.875,32.768],[-85.825,32.76],[-85.775,32.753],[-85.725,32.745],[-85.675,32.737],[-85.625,32.73],[-85.594,32.725],[-85.575,32.722],[-85.525,32.715],[-85.475,32.708],[-85.425,32.702],[-85.375,32.696],[-85.325,32.691],[-85.275,32.686],[-85.225,32.681],[-85.175,32.676],[-85.162,32.675],[-85.125,32.672],[-85.075,32.667],[-85.025,32.663],[-84.975,32.659],[-84.925,32.656],[-84.875,32.652],[-84.825,32.648],[-84.775,32.645],[-84.725,32.642],[-84.675,32.64],[-84.625,32.637],[-84.575,32.635],[-84.525,32.634],[-84.475,32.633],[-84.425,32.632],[-84.375,32.632],[-84.325,32.632],[-84.275,32.632],[-84.225,32.633],[-84.175,32.635],[-84.125,32.636],[-84.075,32.638],[-84.025,32.64],[-83.975,32.643],[-83.925,32.645],[-83.875,32.648],[-83.825,32.651],[-83.775,32.653],[-83.725,32.656],[-83.675,32.658],[-83.625,32.66],[-83.575,32.661],[-83.525,32.661],[-83.475,32.659],[-83.425,32.657],[-83.375,32.654],[-83.325,32.651],[-83.275,32.648],[-83.225,32.644],[-83.175,32.64],[-83.125,32.636],[-83.075,32.631],[-83.025,32.627],[-83.007,32.625],[-82.975,32.622],[-82.925,32.617],[-82.875,32.613],[-82.825,32.608],[-82.775,32.603],[-82.725,32.598],[-82.675,32.592],[-82.625,32.586],[-82.575,32.58],[-82.537,32.575],[-82.525,32.573],[-82.475,32.566],[-82.425,32.559],[-82.375,32.551],[-82.325,32.542],[-82.275,32.533],[-82.235,32.525],[-82.225,32.523],[-82.175,32.513],[-82.125,32.503],[-82.075,32.492],[-82.025,32.482],[-81.993,32.475],[-81.975,32.471],[-81.925,32.461],[-81.875,32.451],[-81.825,32.443],[-81.775,32.435],[-81.725,32.427],[-81.704,32.425],[-81.675,32.422],[-81.625,32.417],[-81.575,32.413],[-81.525,32.41],[-81.475,32.408],[-81.425,32.406],[-81.375,32.404],[-81.325,32.402],[-81.275,32.4],[-81.225,32.396],[-81.175,32.392],[-81.125,32.386],[-81.075,32.378],[-81.058,32.375],[-81.025,32.369],[-80.975,32.357],[-80.925,32.343],[-80.875,32.326],[-80.872,32.325],[-80.825,32.306],[-80.79,32.29]]]}},{"type":"Feature","properties":{"date":"2026-03-16","label":"16 Mar","yday":75,"tier":"index","major":true},"geometry":{"type":"MultiLineString","coordinates":[[[-87.546,33.146],[-87.525,33.141],[-87.475,33.129],[-87.455,33.125],[-87.425,33.118],[-87.375,33.108],[-87.325,33.098],[-87.275,33.088],[-87.225,33.079],[-87.2,33.075],[-87.175,33.071],[-87.125,33.063],[-87.075,33.055],[-87.025,33.047],[-86.975,33.04],[-86.925,33.033],[-86.875,33.027],[-86.861,33.025],[-86.825,33.021],[-86.775,33.015],[-86.725,33.009],[-86.675,33.003],[-86.625,32.998],[-86.575,32.992],[-86.525,32.987],[-86.475,32.981],[-86.425,32.975],[-86.422,32.975],[-86.375,32.969],[-86.325,32.963],[-86.275,32.957],[-86.225,32.95],[-86.175,32.943],[-86.125,32.936],[-86.075,32.928],[-86.052,32.925],[-86.025,32.921],[-85.975,32.913],[-85.925,32.906],[-85.875,32.898],[-85.825,32.89],[-85.775,32.883],[-85.726,32.875],[-85.725,32.875],[-85.675,32.867],[-85.625,32.86],[-85.575,32.852],[-85.525,32.845],[-85.475,32.838],[-85.425,32.832],[-85.375,32.825],[-85.374,32.825],[-85.325,32.819],[-85.275,32.813],[-85.225,32.808],[-85.175,32.802],[-85.125,32.797],[-85.075,32.792],[-85.025,32.788],[-84.975,32.783],[-84.925,32.779],[-84.876,32.775],[-84.875,32.775],[-84.825,32.771],[-84.775,32.768],[-84.725,32.765],[-84.675,32.762],[-84.625,32.76],[-84.575,32.758],[-84.525,32.757],[-84.475,32.756],[-84.425,32.755],[-84.375,32.755],[-84.325,32.756],[-84.275,32.756],[-84.225,32.758],[-84.175,32.759],[-84.125,32.761],[-84.075,32.763],[-84.025,32.765],[-83.975,32.768],[-83.925,32.77],[-83.875,32.773],[-83.836,32.775],[-83.825,32.776],[-83.775,32.778],[-83.725,32.78],[-83.675,32.782],[-83.625,32.784],[-83.575,32.785],[-83.525,32.785],[-83.475,32.785],[-83.425,32.784],[-83.375,32.782],[-83.325,32.78],[-83.275,32.778],[-83.225,32.775],[-83.225,32.775],[-83.175,32.772],[-83.125,32.768],[-83.075,32.765],[-83.025,32.761],[-82.975,32.757],[-82.925,32.753],[-82.875,32.749],[-82.825,32.745],[-82.775,32.74],[-82.725,32.735],[-82.675,32.73],[-82.629,32.725],[-82.625,32.725],[-82.575,32.719],[-82.525,32.713],[-82.475,32.706],[-82.425,32.699],[-82.375,32.692],[-82.325,32.684],[-82.275,32.675],[-82.274,32.675],[-82.225,32.666],[-82.175,32.657],[-82.125,32.647],[-82.075,32.637],[-82.025,32.627],[-82.018,32.625],[-81.975,32.616],[-81.925,32.606],[-81.875,32.595],[-81.825,32.585],[-81.775,32.576],[-81.771,32.575],[-81.725,32.567],[-81.675,32.56],[-81.625,32.555],[-81.575,32.551],[-81.525,32.549],[-81.475,32.549],[-81.425,32.549],[-81.375,32.55],[-81.325,32.551],[-81.275,32.552],[-81.225,32.552],[-81.175,32.551],[-81.125,32.55],[-81.075,32.547],[-81.025,32.543],[-80.975,32.538],[-80.925,32.532],[-80.875,32.525],[-80.873,32.525],[-80.825,32.516],[-80.775,32.506],[-80.725,32.493],[-80.675,32.476],[-80.671,32.475],[-80.625,32.456],[-80.575,32.434],[-80.554,32.425],[-80.525,32.412],[-80.5,32.4]],[[-87.749,33.201],[-87.725,33.194],[-87.675,33.18],[-87.658,33.175],[-87.625,33.166],[-87.592,33.158]]]}},{"type":"Feature","properties":{"date":"2026-03-17","label":"17 Mar","yday":76,"tier":"day","major":false},"geometry":{"type":"MultiLineString","coordinates":[[[-83.595,32.905],[-83.575,32.905],[-83.525,32.906],[-83.475,32.906],[-83.425,32.906],[-83.375,32.906],[-83.325,32.905],[-83.275,32.903],[-83.225,32.901],[-83.175,32.899],[-83.125,32.897],[-83.075,32.895],[-83.025,32.892],[-82.975,32.889],[-82.925,32.886],[-82.875,32.883],[-82.825,32.879],[-82.775,32.875],[-82.771,32.875],[-82.725,32.871],[-82.675,32.867],[-82.625,32.863],[-82.575,32.858],[-82.525,32.853],[-82.475,32.847],[-82.425,32.841],[-82.375,32.835],[-82.325,32.828],[-82.3,32.825],[-82.275,32.821],[-82.225,32.814],[-82.175,32.806],[-82.125,32.798],[-82.075,32.789],[-82.025,32.78],[-81.997,32.775],[-81.975,32.771],[-81.925,32.762],[-81.875,32.752],[-81.825,32.743],[-81.775,32.733],[-81.727,32.725],[-81.725,32.725],[-81.675,32.717],[-81.625,32.712],[-81.575,32.709],[-81.525,32.708],[-81.475,32.71],[-81.425,32.712],[-81.375,32.716],[-81.325,32.719],[-81.275,32.722],[-81.225,32.724],[-81.209,32.725],[-81.175,32.726],[-81.125,32.728],[-81.075,32.728],[-81.025,32.727],[-80.986,32.725],[-80.975,32.725],[-80.925,32.721],[-80.875,32.717],[-80.825,32.711],[-80.775,32.703],[-80.725,32.695],[-80.675,32.685],[-80.633,32.675],[-80.625,32.673],[-80.575,32.66],[-80.525,32.645],[-80.475,32.628],[-80.465,32.625],[-80.425,32.61],[-80.375,32.589],[-80.345,32.575],[-80.325,32.566],[-80.275,32.541],[-80.265,32.535]],[[-87.625,33.343],[-87.575,33.328],[-87.566,33.325],[-87.525,33.313],[-87.475,33.299],[-87.425,33.286],[-87.382,33.275],[-87.375,33.273],[-87.325,33.261],[-87.275,33.25],[-87.225,33.239],[-87.175,33.228],[-87.159,33.225],[-87.125,33.218],[-87.075,33.209],[-87.025,33.199],[-86.975,33.19],[-86.925,33.182],[-86.887,33.175],[-86.875,33.173],[-86.825,33.165],[-86.775,33.157],[-86.725,33.15],[-86.675,33.144],[-86.625,33.137],[-86.575,33.13],[-86.535,33.125],[-86.525,33.124],[-86.475,33.117],[-86.425,33.11],[-86.375,33.103],[-86.325,33.096],[-86.275,33.089],[-86.225,33.082],[-86.179,33.075],[-86.175,33.074],[-86.125,33.067],[-86.075,33.059],[-86.025,33.052],[-85.975,33.044],[-85.925,33.036],[-85.875,33.029],[-85.852,33.025],[-85.825,33.021],[-85.775,33.013],[-85.725,33.006],[-85.675,32.998],[-85.625,32.991],[-85.575,32.983],[-85.525,32.976],[-85.519,32.975],[-85.475,32.969],[-85.425,32.962],[-85.375,32.955],[-85.325,32.948],[-85.275,32.942],[-85.225,32.936],[-85.175,32.929],[-85.138,32.925],[-85.125,32.923],[-85.075,32.918],[-85.025,32.912],[-84.975,32.907],[-84.925,32.902],[-84.875,32.898],[-84.825,32.893],[-84.775,32.89],[-84.725,32.886],[-84.675,32.883],[-84.625,32.881],[-84.575,32.879],[-84.525,32.877],[-84.475,32.876],[-84.425,32.876],[-84.375,32.876],[-84.325,32.877],[-84.275,32.878],[-84.225,32.879],[-84.175,32.88],[-84.125,32.882],[-84.075,32.884],[-84.025,32.887],[-83.975,32.889],[-83.925,32.892],[-83.875,32.894],[-83.825,32.896],[-83.775,32.899],[-83.75,32.9]]]}},{"type":"Feature","properties":{"date":"2026-03-18","label":"18 Mar","yday":77,"tier":"day","major":false},"geometry":{"type":"MultiLineString","coordinates":[[[-84.044,33.006],[-84.025,33.007],[-83.975,33.009],[-83.925,33.012],[-83.875,33.014],[-83.864,33.014]],[[-83.425,33.027],[-83.375,33.027],[-83.325,33.027],[-83.275,33.027],[-83.225,33.026],[-83.175,33.025],[-83.159,33.025],[-83.125,33.024],[-83.075,33.023],[-83.025,33.021],[-82.975,33.019],[-82.925,33.017],[-82.875,33.015],[-82.825,33.013],[-82.775,33.01],[-82.725,33.008],[-82.675,33.005],[-82.625,33.002],[-82.575,32.998],[-82.525,32.995],[-82.475,32.991],[-82.425,32.987],[-82.375,32.983],[-82.325,32.978],[-82.291,32.975],[-82.275,32.973],[-82.225,32.969],[-82.175,32.963],[-82.125,32.958],[-82.075,32.952],[-82.025,32.947],[-81.975,32.941],[-81.925,32.935],[-81.875,32.93],[-81.832,32.925],[-81.825,32.924],[-81.775,32.92],[-81.725,32.916],[-81.675,32.913],[-81.625,32.911],[-81.575,32.911],[-81.525,32.912],[-81.475,32.915],[-81.425,32.918],[-81.375,32.922],[-81.345,32.925],[-81.325,32.927],[-81.275,32.931],[-81.225,32.936],[-81.175,32.939],[-81.125,32.942],[-81.075,32.943],[-81.025,32.943],[-80.975,32.942],[-80.925,32.939],[-80.875,32.934],[-80.825,32.928],[-80.81,32.925],[-80.775,32.92],[-80.725,32.911],[-80.675,32.901],[-80.625,32.891],[-80.575,32.882],[-80.542,32.875],[-80.525,32.872],[-80.475,32.861],[-80.425,32.848],[-80.375,32.833],[-80.351,32.825],[-80.325,32.816],[-80.275,32.797],[-80.227,32.775],[-80.225,32.774],[-80.175,32.748],[-80.138,32.725],[-80.125,32.717],[-80.075,32.683],[-80.064,32.675],[-80.025,32.647],[-80.013,32.637]],[[-87.205,33.395],[-87.175,33.388],[-87.125,33.377],[-87.116,33.375],[-87.075,33.366],[-87.025,33.356],[-86.975,33.346],[-86.925,33.336],[-86.875,33.326],[-86.869,33.325],[-86.825,33.317],[-86.775,33.308],[-86.725,33.299],[-86.675,33.291],[-86.625,33.283],[-86.577,33.275],[-86.575,33.275],[-86.525,33.267],[-86.475,33.259],[-86.425,33.251],[-86.375,33.243],[-86.325,33.235],[-86.275,33.227],[-86.266,33.225],[-86.225,33.218],[-86.175,33.21],[-86.125,33.202],[-86.075,33.194],[-86.025,33.186],[-85.975,33.178],[-85.956,33.175],[-85.925,33.17],[-85.875,33.162],[-85.825,33.155],[-85.775,33.147],[-85.725,33.14],[-85.675,33.132],[-85.628,33.125],[-85.625,33.125],[-85.575,33.117],[-85.525,33.11],[-85.475,33.103],[-85.425,33.096],[-85.375,33.088],[-85.325,33.081],[-85.282,33.075],[-85.275,33.074],[-85.225,33.067],[-85.175,33.06],[-85.125,33.053],[-85.075,33.047],[-85.025,33.04],[-84.975,33.034],[-84.925,33.028],[-84.899,33.025],[-84.875,33.022],[-84.825,33.017],[-84.775,33.012],[-84.725,33.008],[-84.675,33.005],[-84.625,33.002],[-84.575,32.999],[-84.525,32.998],[-84.475,32.997],[-84.425,32.996],[-84.375,32.996],[-84.325,32.997],[-84.275,32.998],[-84.249,32.999]],[[-87.775,33.577],[-87.771,33.575],[-87.725,33.556],[-87.675,33.536],[-87.645,33.525],[-87.625,33.518],[-87.575,33.5],[-87.525,33.484],[-87.498,33.475],[-87.475,33.468],[-87.465,33.465]]]}},{"type":"Feature","properties":{"date":"2026-03-19","label":"19 Mar","yday":78,"tier":"day","major":false},"geometry":{"type":"MultiLineString","coordinates":[[[-84.615,33.125],[-84.575,33.123],[-84.525,33.121],[-84.475,33.119],[-84.425,33.119],[-84.419,33.119]],[[-83.425,33.149],[-83.375,33.15],[-83.325,33.151],[-83.275,33.151],[-83.225,33.151],[-83.175,33.152],[-83.125,33.151],[-83.075,33.151],[-83.025,33.151],[-82.975,33.15],[-82.925,33.15],[-82.875,33.149],[-82.825,33.148],[-82.775,33.147],[-82.725,33.146],[-82.675,33.144],[-82.625,33.143],[-82.575,33.141],[-82.525,33.14],[-82.475,33.138],[-82.425,33.136],[-82.375,33.135],[-82.325,33.133],[-82.275,33.131],[-82.225,33.13],[-82.175,33.128],[-82.125,33.127],[-82.075,33.126],[-82.042,33.125],[-82.025,33.125],[-81.975,33.124],[-81.925,33.124],[-81.875,33.124],[-81.83,33.125],[-81.825,33.125],[-81.775,33.127],[-81.725,33.13],[-81.675,33.134],[-81.625,33.139],[-81.575,33.145],[-81.525,33.152],[-81.475,33.16],[-81.425,33.169],[-81.396,33.175],[-81.375,33.179],[-81.325,33.189],[-81.275,33.199],[-81.225,33.209],[-81.175,33.219],[-81.138,33.225],[-81.125,33.227],[-81.075,33.235],[-81.025,33.241],[-80.975,33.245],[-80.925,33.247],[-80.875,33.246],[-80.825,33.243],[-80.775,33.236],[-80.725,33.226],[-80.722,33.225],[-80.675,33.213],[-80.625,33.197],[-80.575,33.179],[-80.566,33.175],[-80.525,33.159],[-80.475,33.138],[-80.445,33.125],[-80.425,33.117],[-80.375,33.095],[-80.332,33.075],[-80.325,33.072],[-80.275,33.049],[-80.227,33.025],[-80.225,33.024],[-80.175,32.999],[-80.13,32.975],[-80.125,32.973],[-80.075,32.944],[-80.046,32.925],[-80.025,32.911],[-79.979,32.875],[-79.975,32.872],[-79.951,32.849]],[[-87.154,33.546],[-87.125,33.539],[-87.075,33.528],[-87.062,33.525],[-87.025,33.517],[-86.975,33.506],[-86.925,33.496],[-86.875,33.486],[-86.825,33.476],[-86.82,33.475],[-86.775,33.466],[-86.725,33.457],[-86.675,33.447],[-86.625,33.437],[-86.575,33.428],[-86.56,33.425],[-86.525,33.418],[-86.475,33.409],[-86.425,33.4],[-86.375,33.391],[-86.325,33.381],[-86.292,33.375],[-86.275,33.372],[-86.225,33.363],[-86.175,33.354],[-86.125,33.345],[-86.075,33.336],[-86.025,33.327],[-86.013,33.325],[-85.975,33.319],[-85.925,33.31],[-85.875,33.302],[-85.825,33.295],[-85.775,33.287],[-85.725,33.28],[-85.693,33.275],[-85.675,33.272],[-85.625,33.265],[-85.575,33.258],[-85.525,33.251],[-85.475,33.244],[-85.425,33.236],[-85.375,33.229],[-85.351,33.225],[-85.325,33.221],[-85.275,33.214],[-85.225,33.206],[-85.175,33.198],[-85.125,33.19],[-85.075,33.182],[-85.029,33.175],[-85.025,33.174],[-84.975,33.167],[-84.925,33.16],[-84.875,33.153],[-84.825,33.146],[-84.792,33.142]]]}},{"type":"Feature","properties":{"date":"2026-03-20","label":"20 Mar","yday":79,"tier":"day","major":false},"geometry":{"type":"MultiLineString","coordinates":[[[-83.376,33.274],[-83.375,33.274],[-83.339,33.275],[-83.325,33.275],[-83.275,33.277],[-83.225,33.278],[-83.175,33.279],[-83.125,33.281],[-83.075,33.282],[-83.025,33.283],[-82.975,33.283],[-82.925,33.284],[-82.875,33.285],[-82.825,33.285],[-82.775,33.286],[-82.725,33.286],[-82.675,33.286],[-82.625,33.287],[-82.575,33.287],[-82.525,33.288],[-82.475,33.289],[-82.425,33.29],[-82.375,33.291],[-82.325,33.293],[-82.275,33.294],[-82.225,33.296],[-82.175,33.299],[-82.125,33.302],[-82.075,33.305],[-82.025,33.31],[-81.975,33.314],[-81.925,33.32],[-81.884,33.325],[-81.875,33.326],[-81.825,33.333],[-81.775,33.342],[-81.725,33.352],[-81.675,33.363],[-81.628,33.375],[-81.625,33.376],[-81.575,33.39],[-81.525,33.406],[-81.475,33.424],[-81.473,33.425],[-81.425,33.443],[-81.375,33.465],[-81.352,33.475],[-81.325,33.488],[-81.275,33.512],[-81.251,33.525],[-81.225,33.539],[-81.175,33.568],[-81.163,33.575],[-81.125,33.598],[-81.084,33.625],[-81.075,33.631],[-81.025,33.665],[-81.011,33.675],[-80.975,33.7],[-80.938,33.725],[-80.925,33.733],[-80.875,33.763],[-80.848,33.775],[-80.825,33.785],[-80.775,33.795],[-80.725,33.794],[-80.675,33.779],[-80.667,33.775],[-80.625,33.749],[-80.597,33.725],[-80.575,33.704],[-80.551,33.675],[-80.525,33.643],[-80.512,33.625],[-80.475,33.575],[-80.475,33.575],[-80.439,33.525],[-80.425,33.507],[-80.401,33.475],[-80.375,33.445],[-80.359,33.425],[-80.325,33.388],[-80.313,33.375],[-80.275,33.337],[-80.263,33.325],[-80.225,33.291],[-80.208,33.275],[-80.175,33.248],[-80.148,33.225],[-80.125,33.207],[-80.085,33.175],[-80.075,33.168],[-80.025,33.13],[-80.019,33.125],[-79.975,33.092],[-79.954,33.075],[-79.925,33.053],[-79.891,33.025],[-79.875,33.012],[-79.833,32.975],[-79.825,32.968],[-79.777,32.925],[-79.775,32.923],[-79.725,32.877],[-79.723,32.875],[-79.698,32.852]],[[-87.165,33.715],[-87.125,33.705],[-87.075,33.694],[-87.025,33.682],[-86.991,33.675],[-86.975,33.671],[-86.925,33.661],[-86.875,33.651],[-86.825,33.641],[-86.775,33.631],[-86.745,33.625],[-86.725,33.621],[-86.675,33.611],[-86.625,33.601],[-86.575,33.591],[-86.525,33.58],[-86.499,33.575],[-86.475,33.57],[-86.425,33.56],[-86.375,33.55],[-86.325,33.54],[-86.275,33.529],[-86.254,33.525],[-86.225,33.519],[-86.175,33.509],[-86.125,33.499],[-86.075,33.489],[-86.025,33.479],[-86.003,33.475],[-85.975,33.47],[-85.925,33.461],[-85.875,33.453],[-85.825,33.445],[-85.775,33.438],[-85.725,33.431],[-85.684,33.425],[-85.675,33.424],[-85.625,33.417],[-85.575,33.411],[-85.525,33.404],[-85.475,33.397],[-85.425,33.39],[-85.375,33.382],[-85.332,33.375],[-85.325,33.374],[-85.275,33.366],[-85.225,33.357],[-85.175,33.349],[-85.125,33.34],[-85.075,33.33]]]}},{"type":"Feature","properties":{"date":"2026-03-21","label":"21 Mar","yday":80,"tier":"five","major":false},"geometry":{"type":"MultiLineString","coordinates":[[[-82.508,33.442],[-82.475,33.444],[-82.425,33.447],[-82.375,33.452],[-82.325,33.456],[-82.275,33.461],[-82.225,33.467],[-82.175,33.473],[-82.157,33.475],[-82.125,33.479],[-82.075,33.487],[-82.025,33.495],[-81.975,33.504],[-81.925,33.514],[-81.876,33.525],[-81.875,33.525],[-81.825,33.538],[-81.775,33.551],[-81.725,33.567],[-81.7,33.575],[-81.675,33.584],[-81.625,33.603],[-81.575,33.624],[-81.573,33.625],[-81.525,33.647],[-81.475,33.673],[-81.471,33.675],[-81.425,33.7],[-81.381,33.725],[-81.375,33.729],[-81.325,33.759],[-81.299,33.775],[-81.275,33.79],[-81.225,33.823],[-81.222,33.825],[-81.175,33.855],[-81.145,33.875],[-81.125,33.887],[-81.075,33.919],[-81.065,33.925],[-81.025,33.948],[-80.976,33.975],[-80.975,33.975],[-80.925,33.997],[-80.875,34.016],[-80.843,34.025],[-80.825,34.03],[-80.775,34.038],[-80.725,34.041],[-80.675,34.041],[-80.625,34.036],[-80.575,34.026],[-80.571,34.025],[-80.525,34.01],[-80.475,33.988],[-80.453,33.975],[-80.425,33.955],[-80.391,33.925],[-80.375,33.908],[-80.347,33.875],[-80.325,33.845],[-80.312,33.825],[-80.281,33.775],[-80.275,33.764],[-80.254,33.725],[-80.227,33.675],[-80.225,33.672],[-80.2,33.625],[-80.175,33.583],[-80.17,33.575],[-80.138,33.525],[-80.125,33.506],[-80.103,33.475],[-80.075,33.439],[-80.064,33.425],[-80.025,33.379],[-80.021,33.375],[-79.975,33.325],[-79.975,33.325],[-79.925,33.275],[-79.925,33.275],[-79.875,33.228],[-79.872,33.225],[-79.825,33.182],[-79.818,33.175],[-79.775,33.136],[-79.763,33.125],[-79.725,33.09],[-79.708,33.075],[-79.675,33.044],[-79.654,33.025],[-79.625,32.998],[-79.613,32.987]],[[-87.407,33.957],[-87.375,33.946],[-87.325,33.931],[-87.305,33.925],[-87.275,33.917],[-87.225,33.903],[-87.175,33.89],[-87.125,33.878],[-87.114,33.875],[-87.075,33.866],[-87.025,33.855],[-86.975,33.844],[-86.925,33.833],[-86.885,33.825],[-86.875,33.823],[-86.825,33.813],[-86.775,33.803],[-86.725,33.794],[-86.675,33.784],[-86.63,33.775],[-86.625,33.774],[-86.575,33.764],[-86.525,33.754],[-86.475,33.745],[-86.425,33.735],[-86.378,33.725],[-86.375,33.724],[-86.325,33.714],[-86.275,33.704],[-86.225,33.694],[-86.175,33.684],[-86.133,33.675],[-86.125,33.673],[-86.075,33.663],[-86.025,33.653],[-85.975,33.643],[-85.925,33.633],[-85.883,33.625],[-85.875,33.624],[-85.825,33.616],[-85.775,33.609],[-85.725,33.603],[-85.675,33.597],[-85.625,33.591],[-85.575,33.585],[-85.525,33.578],[-85.501,33.575],[-85.475,33.572],[-85.425,33.564],[-85.375,33.557],[-85.325,33.548],[-85.275,33.54],[-85.225,33.53],[-85.2,33.525],[-85.175,33.52],[-85.125,33.51],[-85.075,33.5],[-85.055,33.495]]]}},{"type":"Feature","properties":{"date":"2026-03-22","label":"22 Mar","yday":81,"tier":"day","major":false},"geometry":{"type":"MultiLineString","coordinates":[[[-82.375,33.617],[-82.325,33.624],[-82.317,33.625],[-82.275,33.631],[-82.225,33.639],[-82.175,33.648],[-82.125,33.658],[-82.075,33.668],[-82.043,33.675],[-82.025,33.679],[-81.975,33.691],[-81.925,33.704],[-81.875,33.718],[-81.853,33.725],[-81.825,33.734],[-81.775,33.751],[-81.725,33.769],[-81.711,33.775],[-81.675,33.789],[-81.625,33.811],[-81.595,33.825],[-81.575,33.834],[-81.525,33.858],[-81.493,33.875],[-81.475,33.884],[-81.425,33.91],[-81.398,33.925],[-81.375,33.937],[-81.325,33.965],[-81.307,33.975],[-81.275,33.992],[-81.225,34.019],[-81.214,34.025],[-81.175,34.045],[-81.125,34.071],[-81.116,34.075],[-81.075,34.094],[-81.025,34.115],[-81.001,34.125],[-80.975,34.135],[-80.925,34.151],[-80.875,34.165],[-80.833,34.175],[-80.825,34.177],[-80.775,34.185],[-80.725,34.191],[-80.675,34.194],[-80.625,34.194],[-80.575,34.192],[-80.525,34.186],[-80.475,34.177],[-80.469,34.175],[-80.425,34.163],[-80.375,34.144],[-80.335,34.125],[-80.325,34.12],[-80.275,34.088],[-80.258,34.075],[-80.225,34.045],[-80.204,34.025],[-80.175,33.99],[-80.163,33.975],[-80.13,33.925],[-80.125,33.917],[-80.101,33.875],[-80.076,33.825],[-80.075,33.823],[-80.052,33.775],[-80.028,33.725],[-80.025,33.718],[-80.003,33.675],[-79.975,33.625],[-79.975,33.625],[-79.943,33.575],[-79.925,33.548],[-79.909,33.525],[-79.875,33.481],[-79.871,33.475],[-79.83,33.425],[-79.825,33.42],[-79.786,33.375],[-79.775,33.363],[-79.74,33.325],[-79.725,33.31],[-79.691,33.275],[-79.675,33.259],[-79.641,33.225],[-79.625,33.209],[-79.59,33.175],[-79.575,33.161],[-79.538,33.125],[-79.525,33.113],[-79.484,33.075],[-79.475,33.067],[-79.429,33.025]],[[-86.625,33.962],[-86.575,33.953],[-86.525,33.945],[-86.475,33.936],[-86.425,33.927],[-86.411,33.925],[-86.375,33.919],[-86.325,33.91],[-86.275,33.902],[-86.225,33.894],[-86.175,33.885],[-86.125,33.877],[-86.115,33.875],[-86.075,33.868],[-86.025,33.86],[-85.975,33.853],[-85.925,33.845],[-85.875,33.838],[-85.825,33.83],[-85.784,33.825],[-85.775,33.824],[-85.725,33.818],[-85.675,33.812],[-85.625,33.806],[-85.575,33.799],[-85.525,33.793],[-85.475,33.785],[-85.425,33.777],[-85.414,33.775],[-85.375,33.768],[-85.325,33.759],[-85.275,33.748],[-85.225,33.737],[-85.175,33.725],[-85.175,33.725],[-85.125,33.713],[-85.075,33.7],[-85.025,33.687],[-84.981,33.675],[-84.975,33.674]],[[-87.349,34.125],[-87.325,34.117],[-87.275,34.103],[-87.225,34.089],[-87.175,34.075],[-87.174,34.075],[-87.125,34.063],[-87.075,34.051],[-87.044,34.044]]]}},{"type":"Feature","properties":{"date":"2026-03-23","label":"23 Mar","yday":82,"tier":"day","major":false},"geometry":{"type":"MultiLineString","coordinates":[[[-82.36,33.79],[-82.325,33.796],[-82.275,33.805],[-82.225,33.815],[-82.175,33.825],[-82.174,33.825],[-82.125,33.836],[-82.075,33.847],[-82.025,33.86],[-81.975,33.873],[-81.968,33.875],[-81.925,33.887],[-81.875,33.902],[-81.825,33.918],[-81.806,33.925],[-81.775,33.936],[-81.725,33.954],[-81.675,33.974],[-81.672,33.975],[-81.625,33.994],[-81.575,34.015],[-81.554,34.025],[-81.525,34.037],[-81.475,34.06],[-81.443,34.075],[-81.425,34.083],[-81.375,34.107],[-81.336,34.125],[-81.325,34.13],[-81.275,34.153],[-81.226,34.175]],[[-85.862,34.088],[-85.825,34.085],[-85.775,34.081],[-85.725,34.078],[-85.689,34.075],[-85.675,34.074],[-85.625,34.07],[-85.575,34.065],[-85.525,34.059],[-85.475,34.052],[-85.425,34.044],[-85.375,34.034],[-85.338,34.025],[-85.325,34.022],[-85.275,34.009],[-85.225,33.993],[-85.175,33.976],[-85.172,33.975],[-85.125,33.958],[-85.075,33.939],[-85.038,33.925],[-85.025,33.92],[-84.975,33.901],[-84.925,33.882],[-84.905,33.875],[-84.875,33.864],[-84.825,33.847],[-84.775,33.831],[-84.755,33.825],[-84.732,33.818]],[[-86.657,34.175],[-86.625,34.17],[-86.619,34.169]],[[-80.912,34.288],[-80.875,34.298],[-80.825,34.309],[-80.775,34.318],[-80.73,34.325],[-80.725,34.326],[-80.675,34.331],[-80.625,34.335],[-80.575,34.336],[-80.525,34.336],[-80.475,34.333],[-80.425,34.328],[-80.407,34.325],[-80.375,34.32],[-80.325,34.308],[-80.275,34.293],[-80.226,34.275],[-80.225,34.275],[-80.175,34.25],[-80.133,34.225],[-80.125,34.219],[-80.075,34.181],[-80.069,34.175],[-80.025,34.131],[-80.02,34.125],[-79.981,34.075],[-79.975,34.065],[-79.95,34.025],[-79.925,33.977],[-79.924,33.975],[-79.902,33.925],[-79.881,33.875],[-79.875,33.86],[-79.861,33.825],[-79.84,33.775],[-79.825,33.741],[-79.817,33.725],[-79.79,33.675],[-79.775,33.651],[-79.758,33.625],[-79.725,33.576],[-79.724,33.575],[-79.688,33.525],[-79.675,33.509],[-79.649,33.475],[-79.625,33.446],[-79.607,33.425],[-79.575,33.388],[-79.564,33.375],[-79.525,33.333],[-79.518,33.325],[-79.475,33.28],[-79.47,33.275],[-79.425,33.23],[-79.42,33.225],[-79.375,33.182],[-79.368,33.175],[-79.325,33.136],[-79.319,33.131]]]}},{"type":"Feature","properties":{"date":"2026-03-24","label":"24 Mar","yday":83,"tier":"day","major":false},"geometry":{"type":"MultiLineString","coordinates":[[[-82.206,33.994],[-82.175,34.001],[-82.125,34.012],[-82.075,34.023],[-82.067,34.025],[-82.025,34.035],[-81.975,34.048],[-81.925,34.061],[-81.875,34.075],[-81.875,34.075],[-81.836,34.086]],[[-85.36,34.325],[-85.325,34.318],[-85.275,34.306],[-85.225,34.291],[-85.186,34.275],[-85.175,34.271],[-85.125,34.245],[-85.09,34.225],[-85.075,34.217],[-85.025,34.187],[-85.006,34.175],[-84.975,34.157],[-84.925,34.127],[-84.922,34.125],[-84.875,34.099],[-84.831,34.075],[-84.825,34.072],[-84.775,34.047],[-84.727,34.025],[-84.725,34.024],[-84.675,34.003],[-84.625,33.984],[-84.598,33.975],[-84.575,33.968]],[[-80.688,34.462],[-80.675,34.464],[-80.625,34.47],[-80.578,34.475],[-80.575,34.475],[-80.525,34.479],[-80.475,34.48],[-80.425,34.48],[-80.375,34.479],[-80.325,34.475],[-80.323,34.475],[-80.275,34.47],[-80.225,34.462],[-80.175,34.451],[-80.125,34.438],[-80.086,34.425],[-80.075,34.421],[-80.025,34.399],[-79.978,34.375],[-79.975,34.373],[-79.925,34.341],[-79.903,34.325],[-79.875,34.302],[-79.845,34.275],[-79.825,34.253],[-79.801,34.225],[-79.775,34.187],[-79.767,34.175],[-79.741,34.125],[-79.725,34.088],[-79.72,34.075],[-79.701,34.025],[-79.684,33.975],[-79.675,33.947],[-79.668,33.925],[-79.651,33.875],[-79.633,33.825],[-79.625,33.806],[-79.612,33.775],[-79.589,33.725],[-79.575,33.699],[-79.562,33.675],[-79.533,33.625],[-79.525,33.613],[-79.5,33.575],[-79.475,33.539],[-79.465,33.525],[-79.427,33.475],[-79.425,33.473],[-79.385,33.425],[-79.375,33.413],[-79.341,33.375],[-79.325,33.358],[-79.309,33.341]]]}},{"type":"Feature","properties":{"date":"2026-03-25","label":"25 Mar","yday":84,"tier":"day","major":false},"geometry":{"type":"MultiLineString","coordinates":[[[-84.701,34.225],[-84.675,34.21],[-84.64,34.19]],[[-84.849,34.325],[-84.825,34.308],[-84.777,34.275],[-84.775,34.273],[-84.77,34.27]],[[-80.648,34.602],[-80.625,34.606],[-80.575,34.613],[-80.525,34.619],[-80.475,34.624],[-80.466,34.625],[-80.425,34.628],[-80.375,34.63],[-80.325,34.632],[-80.275,34.632],[-80.225,34.631],[-80.175,34.629],[-80.125,34.625],[-80.122,34.625],[-80.075,34.621],[-80.025,34.614],[-79.975,34.606],[-79.925,34.596],[-79.875,34.584],[-79.843,34.575],[-79.825,34.569],[-79.775,34.551],[-79.725,34.529],[-79.716,34.525],[-79.675,34.502],[-79.634,34.475],[-79.625,34.468],[-79.577,34.425],[-79.575,34.422],[-79.537,34.375],[-79.525,34.354],[-79.509,34.325],[-79.489,34.275],[-79.475,34.225],[-79.475,34.224],[-79.464,34.175],[-79.455,34.125],[-79.446,34.075],[-79.437,34.025],[-79.429,33.975],[-79.425,33.958],[-79.418,33.925],[-79.406,33.875],[-79.392,33.825],[-79.375,33.777],[-79.374,33.775],[-79.354,33.725],[-79.329,33.675],[-79.325,33.667],[-79.301,33.625],[-79.275,33.583],[-79.27,33.575],[-79.234,33.525],[-79.225,33.513],[-79.194,33.475],[-79.175,33.453],[-79.162,33.438]]]}},{"type":"Feature","properties":{"date":"2026-03-26","label":"26 Mar","yday":85,"tier":"five","major":false},"geometry":{"type":"MultiLineString","coordinates":[[[-80.265,34.785],[-80.225,34.787],[-80.175,34.789],[-80.125,34.791],[-80.075,34.793],[-80.025,34.795],[-79.975,34.797],[-79.925,34.799],[-79.875,34.8],[-79.825,34.801],[-79.775,34.801],[-79.725,34.799],[-79.675,34.795],[-79.625,34.791],[-79.575,34.785],[-79.525,34.779],[-79.491,34.775],[-79.475,34.773],[-79.425,34.766],[-79.375,34.759],[-79.325,34.754],[-79.275,34.75],[-79.225,34.748],[-79.175,34.746],[-79.125,34.745],[-79.075,34.746],[-79.025,34.748],[-78.975,34.75],[-78.925,34.752],[-78.875,34.754],[-78.825,34.754],[-78.775,34.753],[-78.725,34.749],[-78.675,34.744],[-78.625,34.736],[-78.575,34.725],[-78.574,34.725],[-78.525,34.707],[-78.475,34.683],[-78.46,34.675],[-78.425,34.642],[-78.409,34.625],[-78.393,34.575],[-78.406,34.525],[-78.425,34.502],[-78.447,34.475],[-78.475,34.454],[-78.514,34.425],[-78.525,34.419],[-78.575,34.391],[-78.604,34.375],[-78.625,34.365],[-78.675,34.342],[-78.714,34.325],[-78.725,34.321],[-78.775,34.304],[-78.825,34.286],[-78.854,34.275],[-78.875,34.267],[-78.925,34.244],[-78.955,34.225],[-78.975,34.212],[-79.019,34.175],[-79.025,34.169],[-79.061,34.125],[-79.075,34.104],[-79.091,34.075],[-79.112,34.025],[-79.125,33.975],[-79.125,33.975],[-79.132,33.925],[-79.133,33.875],[-79.128,33.825],[-79.125,33.809],[-79.117,33.775],[-79.101,33.725],[-79.078,33.675],[-79.075,33.669],[-79.05,33.625],[-79.025,33.587],[-79.02,33.58]]]}},{"type":"Feature","properties":{"date":"2026-03-27","label":"27 Mar","yday":86,"tier":"day","major":false},"geometry":{"type":"MultiLineString","coordinates":[[[-80.125,34.939],[-80.075,34.943],[-80.025,34.948],[-79.975,34.953],[-79.925,34.959],[-79.875,34.964],[-79.825,34.97],[-79.776,34.975],[-79.775,34.975],[-79.725,34.979],[-79.675,34.982],[-79.625,34.985],[-79.575,34.988],[-79.525,34.991],[-79.475,34.994],[-79.425,34.997],[-79.375,35.001],[-79.325,35.006],[-79.275,35.012],[-79.225,35.018],[-79.175,35.025],[-79.172,35.025],[-79.125,35.031],[-79.075,35.036],[-79.025,35.041],[-78.975,35.044],[-78.925,35.045],[-78.875,35.044],[-78.825,35.04],[-78.775,35.036],[-78.725,35.031],[-78.675,35.026],[-78.664,35.025],[-78.625,35.02],[-78.575,35.014],[-78.525,35.008],[-78.475,35.002],[-78.425,34.996],[-78.375,34.99],[-78.325,34.984],[-78.275,34.977],[-78.256,34.975],[-78.225,34.971],[-78.175,34.963],[-78.125,34.956],[-78.075,34.949],[-78.025,34.941],[-77.975,34.932],[-77.934,34.925],[-77.925,34.923],[-77.875,34.911],[-77.825,34.896],[-77.775,34.877],[-77.77,34.875],[-77.725,34.849],[-77.692,34.825],[-77.675,34.809],[-77.646,34.775],[-77.625,34.735],[-77.62,34.725],[-77.609,34.675],[-77.61,34.625],[-77.619,34.575],[-77.625,34.556],[-77.636,34.525],[-77.659,34.475],[-77.675,34.449],[-77.69,34.425],[-77.725,34.38],[-77.729,34.375],[-77.775,34.329],[-77.779,34.325],[-77.825,34.29],[-77.848,34.275],[-77.875,34.26],[-77.925,34.238],[-77.964,34.225],[-77.975,34.222],[-78.025,34.208],[-78.075,34.195],[-78.125,34.182],[-78.149,34.175],[-78.175,34.168],[-78.225,34.153],[-78.275,34.138],[-78.313,34.125],[-78.325,34.121],[-78.375,34.103],[-78.425,34.085],[-78.451,34.075],[-78.475,34.065],[-78.525,34.045],[-78.571,34.025],[-78.575,34.023],[-78.625,33.999],[-78.669,33.975],[-78.675,33.971],[-78.725,33.935],[-78.736,33.925],[-78.775,33.879],[-78.778,33.875],[-78.797,33.825],[-78.799,33.775]]]}},{"type":"Feature","properties":{"date":"2026-03-28","label":"28 Mar","yday":87,"tier":"day","major":false},"geometry":{"type":"MultiLineString","coordinates":[[[-80.075,35.081],[-80.025,35.086],[-79.975,35.092],[-79.925,35.098],[-79.875,35.104],[-79.825,35.11],[-79.775,35.116],[-79.725,35.123],[-79.705,35.125],[-79.675,35.128],[-79.625,35.134],[-79.575,35.14],[-79.525,35.146],[-79.475,35.152],[-79.425,35.158],[-79.375,35.164],[-79.325,35.17],[-79.288,35.175],[-79.275,35.177],[-79.225,35.183],[-79.175,35.189],[-79.125,35.194],[-79.075,35.2],[-79.025,35.204],[-78.975,35.206],[-78.925,35.207],[-78.875,35.206],[-78.825,35.204],[-78.775,35.2],[-78.725,35.197],[-78.675,35.193],[-78.625,35.19],[-78.575,35.187],[-78.525,35.184],[-78.475,35.181],[-78.425,35.179],[-78.375,35.177],[-78.325,35.176],[-78.298,35.175],[-78.275,35.174],[-78.225,35.174],[-78.175,35.173],[-78.125,35.174],[-78.075,35.174],[-78.038,35.175],[-78.025,35.175],[-77.975,35.177],[-77.925,35.178],[-77.875,35.179],[-77.825,35.18],[-77.775,35.18],[-77.725,35.178],[-77.697,35.175],[-77.675,35.173],[-77.625,35.164],[-77.575,35.15],[-77.525,35.13],[-77.515,35.125],[-77.475,35.102],[-77.438,35.075],[-77.425,35.064],[-77.388,35.025],[-77.375,35.008],[-77.353,34.975],[-77.327,34.925],[-77.325,34.921],[-77.308,34.875],[-77.295,34.825],[-77.286,34.775],[-77.281,34.725],[-77.281,34.675],[-77.283,34.625],[-77.285,34.615]]]}},{"type":"Feature","properties":{"date":"2026-03-29","label":"29 Mar","yday":88,"tier":"day","major":false},"geometry":{"type":"MultiLineString","coordinates":[[[-80.125,35.209],[-80.075,35.213],[-80.025,35.218],[-79.975,35.223],[-79.959,35.225],[-79.925,35.229],[-79.875,35.235],[-79.825,35.241],[-79.775,35.248],[-79.725,35.254],[-79.675,35.261],[-79.625,35.268],[-79.575,35.274],[-79.568,35.275],[-79.525,35.28],[-79.475,35.287],[-79.425,35.293],[-79.375,35.298],[-79.325,35.304],[-79.275,35.309],[-79.225,35.314],[-79.175,35.319],[-79.125,35.323],[-79.101,35.325],[-79.075,35.327],[-79.025,35.33],[-78.975,35.332],[-78.925,35.333],[-78.875,35.333],[-78.825,35.333],[-78.775,35.332],[-78.725,35.331],[-78.675,35.33],[-78.625,35.329],[-78.575,35.328],[-78.525,35.328],[-78.475,35.328],[-78.425,35.328],[-78.375,35.329],[-78.325,35.33],[-78.275,35.332],[-78.225,35.334],[-78.175,35.337],[-78.125,35.34],[-78.075,35.345],[-78.025,35.349],[-77.975,35.355],[-77.925,35.36],[-77.875,35.367],[-77.825,35.373],[-77.807,35.375],[-77.775,35.379],[-77.725,35.384],[-77.675,35.387],[-77.625,35.388],[-77.575,35.387],[-77.525,35.382],[-77.484,35.375],[-77.475,35.373],[-77.425,35.36],[-77.375,35.343],[-77.336,35.325],[-77.325,35.32],[-77.275,35.289],[-77.256,35.275],[-77.225,35.248],[-77.201,35.225],[-77.175,35.194],[-77.161,35.175],[-77.13,35.125],[-77.125,35.115],[-77.108,35.075],[-77.092,35.025],[-77.081,34.975],[-77.075,34.932],[-77.074,34.925],[-77.069,34.875],[-77.065,34.825],[-77.062,34.775],[-77.06,34.725],[-77.06,34.71]]]}},{"type":"Feature","properties":{"date":"2026-03-30","label":"30 Mar","yday":89,"tier":"day","major":false},"geometry":{"type":"MultiLineString","coordinates":[[[-76.866,34.925],[-76.865,34.875],[-76.863,34.825],[-76.862,34.775]],[[-80.108,35.342],[-80.075,35.344],[-80.025,35.348],[-79.975,35.353],[-79.955,35.355]],[[-79.773,35.377],[-79.725,35.383],[-79.675,35.389],[-79.625,35.395],[-79.575,35.402],[-79.525,35.407],[-79.509,35.409]],[[-79.325,35.428],[-79.275,35.432],[-79.225,35.436],[-79.175,35.439],[-79.125,35.442],[-79.075,35.445],[-79.025,35.448],[-78.975,35.451],[-78.925,35.453],[-78.875,35.455],[-78.825,35.456],[-78.775,35.457],[-78.725,35.458],[-78.675,35.458],[-78.625,35.459],[-78.575,35.46],[-78.525,35.461],[-78.475,35.463],[-78.425,35.465],[-78.375,35.467],[-78.325,35.47],[-78.275,35.474],[-78.269,35.475],[-78.225,35.479],[-78.175,35.484],[-78.125,35.49],[-78.075,35.496],[-78.025,35.503],[-77.975,35.51],[-77.925,35.518],[-77.885,35.525],[-77.875,35.527],[-77.825,35.535],[-77.775,35.543],[-77.725,35.55],[-77.675,35.556],[-77.625,35.561],[-77.575,35.564],[-77.525,35.566],[-77.475,35.566],[-77.425,35.563],[-77.375,35.558],[-77.325,35.549],[-77.275,35.538],[-77.234,35.525],[-77.225,35.522],[-77.175,35.501],[-77.126,35.475],[-77.125,35.475],[-77.075,35.44],[-77.057,35.425],[-77.025,35.395],[-77.006,35.375],[-76.975,35.335],[-76.968,35.325],[-76.938,35.275],[-76.925,35.247],[-76.915,35.225],[-76.898,35.175],[-76.885,35.125],[-76.876,35.075],[-76.875,35.069],[-76.87,35.025]]]}},{"type":"Feature","properties":{"date":"2026-03-31","label":"31 Mar","yday":90,"tier":"index","major":true},"geometry":{"type":"MultiLineString","coordinates":[[[-76.649,34.951],[-76.649,34.925],[-76.649,34.875],[-76.65,34.825],[-76.649,34.799]],[[-78.923,35.577],[-78.875,35.58],[-78.825,35.583],[-78.775,35.585],[-78.725,35.587],[-78.675,35.589],[-78.625,35.591],[-78.575,35.593],[-78.525,35.595],[-78.475,35.598],[-78.425,35.601],[-78.375,35.605],[-78.325,35.609],[-78.275,35.615],[-78.225,35.621],[-78.194,35.625],[-78.175,35.628],[-78.125,35.635],[-78.075,35.643],[-78.025,35.651],[-77.975,35.66],[-77.925,35.668],[-77.888,35.675],[-77.875,35.677],[-77.825,35.686],[-77.775,35.695],[-77.725,35.703],[-77.675,35.71],[-77.625,35.717],[-77.575,35.723],[-77.557,35.725],[-77.525,35.728],[-77.475,35.732],[-77.425,35.734],[-77.375,35.735],[-77.325,35.734],[-77.275,35.731],[-77.225,35.726],[-77.215,35.725],[-77.175,35.719],[-77.125,35.709],[-77.075,35.695],[-77.025,35.678],[-77.017,35.675],[-76.975,35.656],[-76.925,35.628],[-76.92,35.625],[-76.875,35.591],[-76.856,35.575]]]}},{"type":"Feature","properties":{"date":"2026-04-01","label":"1 Apr","yday":91,"tier":"day","major":false},"geometry":{"type":"MultiLineString","coordinates":[[[-76.391,34.941],[-76.39,34.925],[-76.385,34.875]],[[-78.833,35.717],[-78.825,35.718],[-78.775,35.721],[-78.725,35.723],[-78.723,35.723]],[[-78.12,35.78],[-78.075,35.787],[-78.025,35.796],[-77.975,35.806],[-77.925,35.815],[-77.875,35.824],[-77.871,35.825],[-77.825,35.833],[-77.775,35.842],[-77.725,35.851],[-77.675,35.859],[-77.625,35.867],[-77.575,35.875],[-77.574,35.875],[-77.525,35.882],[-77.475,35.888],[-77.425,35.894],[-77.375,35.899],[-77.325,35.903],[-77.275,35.906],[-77.225,35.908],[-77.175,35.909],[-77.125,35.908],[-77.075,35.906],[-77.025,35.902],[-76.975,35.896],[-76.925,35.887],[-76.875,35.876],[-76.873,35.875],[-76.825,35.86],[-76.775,35.839],[-76.749,35.825],[-76.725,35.811],[-76.675,35.775],[-76.675,35.775],[-76.649,35.751]]]}},{"type":"Feature","properties":{"date":"2026-04-02","label":"2 Apr","yday":92,"tier":"day","major":false},"geometry":{"type":"MultiLineString","coordinates":[[[-77.94,35.96],[-77.925,35.963],[-77.875,35.972],[-77.862,35.975],[-77.825,35.982],[-77.775,35.992],[-77.725,36.001],[-77.675,36.01],[-77.625,36.019],[-77.591,36.025],[-77.575,36.028],[-77.525,36.037],[-77.475,36.046],[-77.425,36.055],[-77.375,36.063],[-77.325,36.072],[-77.303,36.075],[-77.275,36.08],[-77.225,36.087],[-77.175,36.095],[-77.125,36.101],[-77.075,36.107],[-77.025,36.113],[-76.975,36.117],[-76.925,36.12],[-76.875,36.121],[-76.825,36.12],[-76.775,36.117]],[[-76.675,36.102],[-76.625,36.088],[-76.591,36.075],[-76.575,36.069]]]}},{"type":"Feature","properties":{"date":"2026-04-03","label":"3 Apr","yday":93,"tier":"day","major":false},"geometry":{"type":"MultiLineString","coordinates":[[[-75.975,35.695],[-75.969,35.675]],[[-77.742,36.158],[-77.725,36.161],[-77.675,36.171],[-77.655,36.175],[-77.625,36.181],[-77.575,36.192],[-77.525,36.204],[-77.475,36.216],[-77.44,36.225],[-77.425,36.229],[-77.375,36.242],[-77.325,36.255],[-77.275,36.268],[-77.247,36.275],[-77.225,36.281],[-77.175,36.294],[-77.125,36.308],[-77.075,36.321],[-77.059,36.325],[-77.025,36.334],[-76.975,36.346],[-76.925,36.357],[-76.875,36.366],[-76.825,36.373],[-76.809,36.375],[-76.775,36.379],[-76.725,36.381],[-76.675,36.381],[-76.625,36.378],[-76.601,36.375],[-76.575,36.372],[-76.525,36.361],[-76.475,36.347]]]}},{"type":"Feature","properties":{"date":"2026-04-04","label":"4 Apr","yday":94,"tier":"day","major":false},"geometry":{"type":"MultiLineString","coordinates":[[[-77.625,36.38],[-77.575,36.395],[-77.525,36.411],[-77.484,36.425],[-77.475,36.428],[-77.425,36.446],[-77.375,36.463],[-77.342,36.475],[-77.325,36.481],[-77.275,36.5],[-77.225,36.518],[-77.206,36.525],[-77.175,36.536],[-77.125,36.554],[-77.075,36.571],[-77.064,36.575],[-77.025,36.588],[-76.975,36.603],[-76.925,36.616],[-76.89,36.625],[-76.875,36.629],[-76.825,36.639],[-76.775,36.648],[-76.725,36.655],[-76.675,36.659],[-76.625,36.662],[-76.575,36.661],[-76.525,36.658],[-76.475,36.651],[-76.425,36.642],[-76.375,36.629],[-76.362,36.625],[-76.325,36.613]]]}},{"type":"Feature","properties":{"date":"2026-04-05","label":"5 Apr","yday":95,"tier":"five","major":false},"geometry":{"type":"MultiLineString","coordinates":[[[-77.875,36.646],[-77.825,36.655],[-77.775,36.663],[-77.725,36.672],[-77.706,36.675]]]}}]}