{"type":"FeatureCollection","features":[{"type":"Feature","properties":{"date":"2010-03-01","label":"1 Mar","yday":60,"tier":"index","major":true},"geometry":{"type":"MultiLineString","coordinates":[[[-82.026,26.675],[-82.025,26.675],[-81.975,26.695],[-81.942,26.708]],[[-81.556,26.856],[-81.525,26.868],[-81.508,26.875],[-81.475,26.888],[-81.425,26.908],[-81.383,26.925],[-81.375,26.928],[-81.37,26.93]]]}},{"type":"Feature","properties":{"date":"2010-03-02","label":"2 Mar","yday":61,"tier":"day","major":false},"geometry":{"type":"MultiLineString","coordinates":[[[-82.033,26.767],[-82.025,26.77],[-82.013,26.775],[-81.975,26.789],[-81.925,26.808],[-81.882,26.825],[-81.875,26.828],[-81.825,26.847],[-81.775,26.866],[-81.752,26.875],[-81.725,26.886],[-81.675,26.905],[-81.625,26.925],[-81.625,26.925],[-81.575,26.945],[-81.525,26.965],[-81.499,26.975],[-81.475,26.985],[-81.425,27.005],[-81.375,27.025],[-81.375,27.025],[-81.325,27.045]]]}},{"type":"Feature","properties":{"date":"2010-03-03","label":"3 Mar","yday":62,"tier":"day","major":false},"geometry":{"type":"MultiLineString","coordinates":[[[-82.025,26.865],[-81.998,26.875],[-81.975,26.884],[-81.925,26.903],[-81.875,26.922],[-81.868,26.925],[-81.825,26.942],[-81.775,26.962],[-81.741,26.975],[-81.725,26.981],[-81.675,27.001],[-81.625,27.021],[-81.615,27.025],[-81.575,27.041],[-81.525,27.061],[-81.491,27.075],[-81.475,27.081],[-81.425,27.102],[-81.375,27.122],[-81.367,27.125],[-81.325,27.142],[-81.275,27.163]]]}},{"type":"Feature","properties":{"date":"2010-03-04","label":"4 Mar","yday":63,"tier":"day","major":false},"geometry":{"type":"MultiLineString","coordinates":[[[-82.271,26.871],[-82.259,26.875],[-82.225,26.887],[-82.197,26.897]],[[-82.051,26.951],[-82.025,26.961],[-81.987,26.975],[-81.975,26.98],[-81.925,26.999],[-81.875,27.019],[-81.859,27.025],[-81.825,27.039],[-81.775,27.059],[-81.734,27.075],[-81.725,27.078],[-81.675,27.098],[-81.625,27.119],[-81.609,27.125],[-81.575,27.139],[-81.525,27.159],[-81.485,27.175],[-81.475,27.179],[-81.425,27.199],[-81.375,27.22],[-81.362,27.225],[-81.325,27.24],[-81.275,27.26],[-81.239,27.275],[-81.225,27.281],[-81.175,27.301],[-81.131,27.319]],[[-80.992,27.375],[-80.975,27.382],[-80.964,27.386]],[[-80.866,27.425],[-80.825,27.441],[-80.775,27.46]]]}},{"type":"Feature","properties":{"date":"2010-03-05","label":"5 Mar","yday":64,"tier":"day","major":false},"geometry":{"type":"MultiLineString","coordinates":[[[-82.343,26.943],[-82.325,26.949],[-82.275,26.967],[-82.254,26.975],[-82.225,26.985],[-82.175,27.004],[-82.125,27.022],[-82.116,27.025],[-82.075,27.04],[-82.025,27.059],[-81.984,27.075],[-81.975,27.078],[-81.925,27.098],[-81.875,27.118],[-81.856,27.125],[-81.825,27.137],[-81.775,27.157],[-81.73,27.175],[-81.725,27.177],[-81.675,27.197],[-81.625,27.217],[-81.606,27.225],[-81.575,27.238],[-81.525,27.258],[-81.483,27.275],[-81.475,27.278],[-81.425,27.299],[-81.375,27.319],[-81.361,27.325],[-81.325,27.34],[-81.275,27.36],[-81.239,27.375],[-81.225,27.381],[-81.175,27.401],[-81.125,27.422],[-81.117,27.425],[-81.075,27.442],[-81.025,27.462],[-80.993,27.475],[-80.975,27.482],[-80.925,27.502],[-80.875,27.521],[-80.865,27.525],[-80.825,27.541],[-80.775,27.559]]]}},{"type":"Feature","properties":{"date":"2010-03-06","label":"6 Mar","yday":65,"tier":"five","major":false},"geometry":{"type":"MultiLineString","coordinates":[[[-82.417,27.017],[-82.393,27.025],[-82.375,27.031],[-82.325,27.049],[-82.275,27.067],[-82.253,27.075],[-82.225,27.085],[-82.175,27.104],[-82.125,27.122],[-82.117,27.125],[-82.075,27.141],[-82.025,27.16],[-81.985,27.175],[-81.975,27.179],[-81.925,27.198],[-81.875,27.218],[-81.857,27.225],[-81.825,27.238],[-81.775,27.258],[-81.731,27.275],[-81.725,27.278],[-81.675,27.298],[-81.625,27.318],[-81.607,27.325],[-81.575,27.338],[-81.525,27.359],[-81.485,27.375],[-81.475,27.379],[-81.425,27.4],[-81.375,27.421],[-81.365,27.425],[-81.325,27.442],[-81.275,27.463],[-81.245,27.475],[-81.225,27.483],[-81.175,27.504],[-81.125,27.525],[-81.125,27.525],[-81.075,27.546],[-81.025,27.566],[-81.003,27.575],[-80.975,27.586],[-80.925,27.606],[-80.876,27.625],[-80.875,27.625],[-80.825,27.645],[-80.775,27.663]]]}},{"type":"Feature","properties":{"date":"2010-03-07","label":"7 Mar","yday":66,"tier":"day","major":false},"geometry":{"type":"MultiLineString","coordinates":[[[-82.425,27.115],[-82.398,27.125],[-82.375,27.133],[-82.325,27.151],[-82.275,27.169],[-82.258,27.175],[-82.225,27.187],[-82.175,27.206],[-82.125,27.224],[-82.123,27.225],[-82.075,27.243],[-82.025,27.262],[-81.992,27.275],[-81.975,27.282],[-81.925,27.301],[-81.875,27.321],[-81.864,27.325],[-81.825,27.34],[-81.775,27.36],[-81.738,27.375],[-81.725,27.38],[-81.675,27.4],[-81.625,27.421],[-81.615,27.425],[-81.575,27.441],[-81.525,27.462],[-81.494,27.475],[-81.475,27.483],[-81.425,27.504],[-81.376,27.525],[-81.375,27.526],[-81.325,27.547],[-81.275,27.569],[-81.26,27.575],[-81.225,27.59],[-81.175,27.612],[-81.144,27.625],[-81.125,27.633],[-81.075,27.654],[-81.025,27.675],[-81.025,27.675],[-80.975,27.696],[-80.925,27.716],[-80.902,27.725],[-80.875,27.736],[-80.825,27.755],[-80.811,27.761]]]}},{"type":"Feature","properties":{"date":"2010-03-08","label":"8 Mar","yday":67,"tier":"day","major":false},"geometry":{"type":"MultiLineString","coordinates":[[[-82.494,27.194],[-82.475,27.201],[-82.425,27.219],[-82.408,27.225],[-82.375,27.237],[-82.325,27.255],[-82.275,27.273],[-82.27,27.275],[-82.225,27.292],[-82.175,27.31],[-82.136,27.325],[-82.125,27.329],[-82.075,27.348],[-82.025,27.367],[-82.005,27.375],[-81.975,27.387],[-81.925,27.406],[-81.876,27.425],[-81.875,27.425],[-81.825,27.445],[-81.775,27.465],[-81.751,27.475],[-81.725,27.485],[-81.675,27.506],[-81.628,27.525],[-81.625,27.526],[-81.575,27.548],[-81.525,27.569],[-81.511,27.575],[-81.475,27.591],[-81.425,27.613],[-81.397,27.625],[-81.375,27.635],[-81.325,27.658],[-81.286,27.675],[-81.275,27.68],[-81.225,27.703],[-81.175,27.725],[-81.175,27.725],[-81.125,27.748],[-81.075,27.77],[-81.062,27.775],[-81.025,27.791],[-80.975,27.812],[-80.944,27.825],[-80.925,27.833],[-80.875,27.854]]]}},{"type":"Feature","properties":{"date":"2010-03-09","label":"9 Mar","yday":68,"tier":"day","major":false},"geometry":{"type":"MultiLineString","coordinates":[[[-82.525,27.289],[-82.475,27.307],[-82.425,27.325],[-82.424,27.325],[-82.375,27.343],[-82.325,27.361],[-82.288,27.375],[-82.275,27.38],[-82.225,27.399],[-82.175,27.418],[-82.155,27.425],[-82.125,27.437],[-82.075,27.456],[-82.025,27.475],[-82.025,27.475],[-81.975,27.494],[-81.925,27.514],[-81.896,27.525],[-81.875,27.533],[-81.825,27.553],[-81.775,27.573],[-81.77,27.575],[-81.725,27.594],[-81.675,27.614],[-81.65,27.625],[-81.625,27.636],[-81.575,27.658],[-81.536,27.675],[-81.525,27.68],[-81.475,27.703],[-81.429,27.725],[-81.425,27.727],[-81.375,27.751],[-81.325,27.775],[-81.324,27.775],[-81.275,27.799],[-81.225,27.823],[-81.221,27.825],[-81.175,27.847],[-81.125,27.871],[-81.115,27.875],[-81.075,27.894],[-81.025,27.916],[-81.005,27.925],[-80.975,27.938],[-80.925,27.96]]]}},{"type":"Feature","properties":{"date":"2010-03-10","label":"10 Mar","yday":69,"tier":"day","major":false},"geometry":{"type":"MultiLineString","coordinates":[[[-82.542,27.392],[-82.525,27.398],[-82.475,27.416],[-82.449,27.425],[-82.425,27.434],[-82.375,27.453],[-82.325,27.471],[-82.315,27.475],[-82.275,27.49],[-82.225,27.509],[-82.183,27.525],[-82.175,27.528],[-82.125,27.547],[-82.075,27.567],[-82.053,27.575],[-82.025,27.586],[-81.975,27.605],[-81.925,27.625],[-81.924,27.625],[-81.875,27.644],[-81.825,27.664],[-81.799,27.675],[-81.775,27.685],[-81.725,27.706],[-81.68,27.725],[-81.675,27.727],[-81.625,27.75],[-81.575,27.773],[-81.572,27.775],[-81.525,27.798],[-81.475,27.823],[-81.471,27.825],[-81.425,27.849],[-81.375,27.875],[-81.375,27.875],[-81.325,27.902],[-81.28,27.925],[-81.275,27.928],[-81.225,27.954],[-81.184,27.975],[-81.175,27.98],[-81.125,28.005],[-81.083,28.025],[-81.075,28.029],[-81.025,28.052],[-80.975,28.075],[-80.975,28.075],[-80.925,28.097]]]}},{"type":"Feature","properties":{"date":"2010-03-11","label":"11 Mar","yday":70,"tier":"five","major":false},"geometry":{"type":"MultiLineString","coordinates":[[[-82.624,27.474],[-82.623,27.475],[-82.575,27.492],[-82.525,27.51],[-82.484,27.525],[-82.475,27.528],[-82.425,27.547],[-82.375,27.565],[-82.35,27.575],[-82.325,27.584],[-82.275,27.604],[-82.225,27.623],[-82.219,27.625],[-82.175,27.642],[-82.125,27.662],[-82.091,27.675],[-82.075,27.681],[-82.025,27.701],[-81.975,27.721],[-81.964,27.725],[-81.925,27.74],[-81.875,27.76],[-81.837,27.775],[-81.825,27.78],[-81.775,27.801],[-81.725,27.822],[-81.719,27.825],[-81.675,27.846],[-81.625,27.871],[-81.618,27.875],[-81.575,27.898],[-81.526,27.925],[-81.525,27.926],[-81.475,27.954],[-81.439,27.975],[-81.425,27.983],[-81.375,28.013],[-81.353,28.025],[-81.325,28.042],[-81.275,28.07],[-81.266,28.075],[-81.225,28.098],[-81.176,28.125],[-81.175,28.125],[-81.125,28.152],[-81.078,28.175],[-81.075,28.176],[-81.025,28.2],[-80.975,28.222],[-80.969,28.225],[-80.938,28.238]]]}},{"type":"Feature","properties":{"date":"2010-03-12","label":"12 Mar","yday":71,"tier":"day","major":false},"geometry":{"type":"MultiLineString","coordinates":[[[-82.524,27.626],[-82.475,27.644],[-82.425,27.662],[-82.392,27.675],[-82.375,27.681],[-82.325,27.701],[-82.275,27.72],[-82.263,27.725],[-82.225,27.74],[-82.175,27.761],[-82.139,27.775],[-82.125,27.781],[-82.075,27.801],[-82.025,27.822],[-82.016,27.825],[-81.975,27.842],[-81.925,27.861],[-81.89,27.875],[-81.875,27.881],[-81.825,27.901],[-81.775,27.923],[-81.771,27.925],[-81.725,27.949],[-81.678,27.975],[-81.675,27.977],[-81.625,28.007],[-81.595,28.025],[-81.575,28.037],[-81.525,28.069],[-81.515,28.075],[-81.475,28.101],[-81.437,28.125],[-81.425,28.133],[-81.375,28.165],[-81.359,28.175],[-81.325,28.197],[-81.279,28.225],[-81.275,28.227],[-81.225,28.257],[-81.192,28.275],[-81.175,28.285],[-81.125,28.311],[-81.096,28.325],[-81.075,28.335],[-81.025,28.357],[-80.982,28.375],[-80.975,28.378]]]}},{"type":"Feature","properties":{"date":"2010-03-13","label":"13 Mar","yday":72,"tier":"day","major":false},"geometry":{"type":"MultiLineString","coordinates":[[[-82.375,27.799],[-82.325,27.819],[-82.311,27.825],[-82.275,27.84],[-82.225,27.861],[-82.192,27.875],[-82.175,27.882],[-82.125,27.904],[-82.078,27.925],[-82.075,27.926],[-82.025,27.948],[-81.975,27.97],[-81.962,27.975],[-81.925,27.991],[-81.875,28.012],[-81.849,28.025],[-81.825,28.037],[-81.775,28.064],[-81.756,28.075],[-81.725,28.093],[-81.675,28.124],[-81.674,28.125],[-81.625,28.157],[-81.598,28.175],[-81.575,28.191],[-81.526,28.225],[-81.525,28.226],[-81.475,28.261],[-81.455,28.275],[-81.425,28.296],[-81.383,28.325],[-81.375,28.331],[-81.325,28.365],[-81.308,28.375],[-81.275,28.396],[-81.226,28.425],[-81.225,28.426],[-81.175,28.452],[-81.128,28.475],[-81.125,28.476],[-81.075,28.498],[-81.025,28.519],[-81.02,28.52]]]}},{"type":"Feature","properties":{"date":"2010-03-14","label":"14 Mar","yday":73,"tier":"day","major":false},"geometry":{"type":"MultiLineString","coordinates":[[[-82.735,27.785],[-82.725,27.789],[-82.675,27.807],[-82.625,27.825]],[[-82.551,27.851],[-82.525,27.86]],[[-82.406,27.906],[-82.375,27.918],[-82.358,27.925],[-82.325,27.938],[-82.275,27.96],[-82.24,27.975],[-82.225,27.982],[-82.175,28.004],[-82.13,28.025],[-82.125,28.027],[-82.075,28.051],[-82.025,28.074],[-82.023,28.075],[-81.975,28.098],[-81.925,28.123],[-81.921,28.125],[-81.875,28.15],[-81.832,28.175],[-81.825,28.179],[-81.775,28.21],[-81.752,28.225],[-81.725,28.243],[-81.68,28.275],[-81.675,28.278],[-81.625,28.315],[-81.611,28.325],[-81.575,28.352],[-81.545,28.375],[-81.525,28.391],[-81.48,28.425],[-81.475,28.429],[-81.425,28.466],[-81.413,28.475],[-81.375,28.502],[-81.341,28.525],[-81.325,28.535],[-81.275,28.565],[-81.257,28.575],[-81.225,28.592],[-81.175,28.616],[-81.156,28.625],[-81.125,28.639],[-81.075,28.659]]]}},{"type":"Feature","properties":{"date":"2010-03-15","label":"15 Mar","yday":74,"tier":"day","major":false},"geometry":{"type":"MultiLineString","coordinates":[[[-82.825,27.868],[-82.806,27.875],[-82.775,27.887],[-82.725,27.905],[-82.711,27.911]],[[-82.563,27.963],[-82.531,27.975],[-82.525,27.977],[-82.475,27.995],[-82.425,28.014],[-82.398,28.025],[-82.375,28.034],[-82.325,28.055],[-82.279,28.075],[-82.275,28.077],[-82.225,28.099],[-82.175,28.123],[-82.17,28.125],[-82.125,28.147],[-82.075,28.173],[-82.07,28.175],[-82.025,28.199],[-81.979,28.225],[-81.975,28.227],[-81.925,28.257],[-81.896,28.275],[-81.875,28.289],[-81.825,28.323],[-81.822,28.325],[-81.775,28.359],[-81.753,28.375],[-81.725,28.396],[-81.688,28.425],[-81.675,28.435],[-81.625,28.475],[-81.625,28.475],[-81.575,28.515],[-81.562,28.525],[-81.525,28.554],[-81.498,28.575],[-81.475,28.592],[-81.43,28.625],[-81.425,28.628],[-81.375,28.662],[-81.354,28.675],[-81.325,28.693],[-81.275,28.722],[-81.269,28.725],[-81.225,28.748],[-81.175,28.771],[-81.166,28.775],[-81.125,28.792],[-81.075,28.812]]]}},{"type":"Feature","properties":{"date":"2010-03-16","label":"16 Mar","yday":75,"tier":"index","major":true},"geometry":{"type":"MultiLineString","coordinates":[[[-82.817,27.983],[-82.775,27.998],[-82.725,28.016],[-82.701,28.025],[-82.675,28.034],[-82.625,28.052],[-82.575,28.069],[-82.559,28.075],[-82.525,28.087],[-82.475,28.106],[-82.426,28.125],[-82.425,28.125],[-82.375,28.146],[-82.325,28.168],[-82.309,28.175],[-82.275,28.19],[-82.225,28.215],[-82.205,28.225],[-82.175,28.24],[-82.125,28.267],[-82.111,28.275],[-82.075,28.296],[-82.028,28.325],[-82.025,28.327],[-81.975,28.359],[-81.952,28.375],[-81.925,28.394],[-81.883,28.425],[-81.875,28.431],[-81.825,28.469],[-81.818,28.475],[-81.775,28.509],[-81.755,28.525],[-81.725,28.55],[-81.695,28.575],[-81.675,28.591],[-81.633,28.625],[-81.625,28.632],[-81.575,28.671],[-81.57,28.675],[-81.525,28.709],[-81.503,28.725],[-81.475,28.745],[-81.431,28.775],[-81.425,28.779],[-81.375,28.81],[-81.351,28.825],[-81.325,28.84],[-81.275,28.867],[-81.26,28.875],[-81.225,28.892],[-81.175,28.915],[-81.152,28.925],[-81.125,28.936],[-81.075,28.955],[-81.025,28.973]]]}},{"type":"Feature","properties":{"date":"2010-03-17","label":"17 Mar","yday":76,"tier":"day","major":false},"geometry":{"type":"MultiLineString","coordinates":[[[-82.775,28.106],[-82.725,28.124],[-82.721,28.125],[-82.675,28.141],[-82.625,28.158],[-82.578,28.175],[-82.575,28.176],[-82.525,28.195],[-82.475,28.214],[-82.448,28.225],[-82.425,28.234],[-82.375,28.256],[-82.334,28.275],[-82.325,28.279],[-82.275,28.304],[-82.236,28.325],[-82.225,28.331],[-82.175,28.36],[-82.15,28.375],[-82.125,28.391],[-82.075,28.424],[-82.073,28.425],[-82.025,28.459],[-82.003,28.475],[-81.975,28.496],[-81.938,28.525],[-81.925,28.535],[-81.876,28.575],[-81.875,28.576],[-81.825,28.618],[-81.816,28.625],[-81.775,28.66],[-81.757,28.675],[-81.725,28.702],[-81.696,28.725],[-81.675,28.742],[-81.633,28.775],[-81.625,28.781],[-81.575,28.819],[-81.566,28.825],[-81.525,28.854],[-81.494,28.875],[-81.475,28.888],[-81.425,28.92],[-81.416,28.925],[-81.375,28.949],[-81.33,28.975],[-81.325,28.978],[-81.275,29.004],[-81.232,29.025],[-81.225,29.028],[-81.175,29.051],[-81.125,29.072],[-81.116,29.075],[-81.075,29.09],[-81.025,29.107],[-80.975,29.121]]]}},{"type":"Feature","properties":{"date":"2010-03-18","label":"18 Mar","yday":77,"tier":"day","major":false},"geometry":{"type":"MultiLineString","coordinates":[[[-82.725,28.23],[-82.675,28.248],[-82.625,28.265],[-82.597,28.275],[-82.575,28.283],[-82.525,28.302],[-82.475,28.322],[-82.468,28.325],[-82.425,28.344],[-82.375,28.367],[-82.36,28.375],[-82.325,28.393],[-82.275,28.422],[-82.269,28.425],[-82.225,28.452],[-82.19,28.475],[-82.175,28.485],[-82.125,28.52],[-82.118,28.525],[-82.075,28.558],[-82.053,28.575],[-82.025,28.597],[-81.991,28.625],[-81.975,28.638],[-81.931,28.675],[-81.925,28.68],[-81.875,28.723],[-81.873,28.725],[-81.825,28.766],[-81.815,28.775],[-81.775,28.808],[-81.754,28.825],[-81.725,28.848],[-81.689,28.875],[-81.675,28.886],[-81.625,28.922],[-81.621,28.925],[-81.575,28.957],[-81.549,28.975],[-81.525,28.991],[-81.475,29.022],[-81.471,29.025],[-81.425,29.052],[-81.386,29.075],[-81.375,29.081],[-81.325,29.108],[-81.291,29.125],[-81.275,29.133],[-81.225,29.156],[-81.183,29.175],[-81.175,29.178],[-81.125,29.198],[-81.075,29.216],[-81.044,29.225],[-81.029,29.229]]]}},{"type":"Feature","properties":{"date":"2010-03-19","label":"19 Mar","yday":78,"tier":"day","major":false},"geometry":{"type":"MultiLineString","coordinates":[[[-82.675,28.357],[-82.625,28.374],[-82.623,28.375],[-82.575,28.393],[-82.525,28.412],[-82.495,28.425],[-82.475,28.434],[-82.425,28.458],[-82.393,28.475],[-82.375,28.485],[-82.325,28.515],[-82.309,28.525],[-82.275,28.547],[-82.234,28.575],[-82.225,28.582],[-82.175,28.618],[-82.166,28.625],[-82.125,28.657],[-82.103,28.675],[-82.075,28.698],[-82.043,28.725],[-82.025,28.74],[-81.985,28.775],[-81.975,28.784],[-81.927,28.825],[-81.925,28.827],[-81.875,28.869],[-81.868,28.875],[-81.825,28.909],[-81.805,28.925],[-81.775,28.948],[-81.74,28.975],[-81.725,28.986],[-81.675,29.022],[-81.67,29.025],[-81.625,29.056],[-81.596,29.075],[-81.575,29.089],[-81.525,29.12],[-81.517,29.125],[-81.475,29.15],[-81.431,29.175],[-81.425,29.178],[-81.375,29.205],[-81.335,29.225],[-81.325,29.23],[-81.275,29.254],[-81.228,29.275],[-81.225,29.276],[-81.175,29.296],[-81.125,29.315],[-81.092,29.325],[-81.075,29.33]]]}},{"type":"Feature","properties":{"date":"2010-03-20","label":"20 Mar","yday":79,"tier":"day","major":false},"geometry":{"type":"MultiLineString","coordinates":[[[-82.625,28.49],[-82.575,28.51],[-82.541,28.525],[-82.525,28.532],[-82.475,28.557],[-82.442,28.575],[-82.425,28.585],[-82.375,28.615],[-82.36,28.625],[-82.325,28.648],[-82.286,28.675],[-82.275,28.683],[-82.225,28.72],[-82.219,28.725],[-82.175,28.76],[-82.157,28.775],[-82.125,28.802],[-82.097,28.825],[-82.075,28.844],[-82.039,28.875],[-82.025,28.887],[-81.98,28.925],[-81.975,28.929],[-81.925,28.97],[-81.918,28.975],[-81.875,29.009],[-81.854,29.025],[-81.825,29.047],[-81.787,29.075],[-81.775,29.084],[-81.725,29.119],[-81.715,29.125],[-81.675,29.152],[-81.639,29.175],[-81.625,29.184],[-81.575,29.214],[-81.557,29.225],[-81.525,29.243],[-81.475,29.271],[-81.467,29.275],[-81.425,29.297],[-81.375,29.322],[-81.368,29.325],[-81.325,29.345],[-81.275,29.366],[-81.254,29.375],[-81.225,29.386],[-81.175,29.405],[-81.125,29.421],[-81.122,29.422]]]}},{"type":"Feature","properties":{"date":"2010-03-21","label":"21 Mar","yday":80,"tier":"five","major":false},"geometry":{"type":"MultiLineString","coordinates":[[[-82.625,28.618],[-82.609,28.625],[-82.575,28.641],[-82.525,28.666],[-82.509,28.675],[-82.475,28.694],[-82.425,28.724],[-82.423,28.725],[-82.375,28.756],[-82.347,28.775],[-82.325,28.791],[-82.279,28.825],[-82.275,28.828],[-82.225,28.869],[-82.217,28.875],[-82.175,28.91],[-82.157,28.925],[-82.125,28.951],[-82.096,28.975],[-82.075,28.992],[-82.035,29.025],[-82.025,29.033],[-81.975,29.072],[-81.971,29.075],[-81.925,29.11],[-81.904,29.125],[-81.875,29.146],[-81.834,29.175],[-81.825,29.181],[-81.775,29.215],[-81.759,29.225],[-81.725,29.246],[-81.679,29.275],[-81.675,29.277],[-81.625,29.306],[-81.592,29.325],[-81.575,29.334],[-81.525,29.361],[-81.497,29.375],[-81.475,29.386],[-81.425,29.41],[-81.391,29.425],[-81.375,29.432],[-81.325,29.453],[-81.275,29.473],[-81.27,29.475],[-81.225,29.491],[-81.175,29.509],[-81.163,29.513]]]}},{"type":"Feature","properties":{"date":"2010-03-22","label":"22 Mar","yday":81,"tier":"day","major":false},"geometry":{"type":"MultiLineString","coordinates":[[[-82.625,28.758],[-82.592,28.775],[-82.575,28.784],[-82.525,28.812],[-82.503,28.825],[-82.475,28.842],[-82.425,28.874],[-82.424,28.875],[-82.375,28.909],[-82.354,28.925],[-82.325,28.946],[-82.288,28.975],[-82.275,28.985],[-82.225,29.024],[-82.224,29.025],[-82.175,29.063],[-82.16,29.075],[-82.125,29.102],[-82.095,29.125],[-82.075,29.14],[-82.027,29.175],[-82.025,29.177],[-81.975,29.212],[-81.957,29.225],[-81.925,29.246],[-81.882,29.275],[-81.875,29.279],[-81.825,29.311],[-81.802,29.325],[-81.775,29.341],[-81.725,29.37],[-81.717,29.375],[-81.675,29.398],[-81.625,29.425],[-81.624,29.425],[-81.575,29.45],[-81.525,29.474],[-81.523,29.475],[-81.475,29.497],[-81.425,29.519],[-81.41,29.525],[-81.375,29.539],[-81.325,29.559],[-81.281,29.575],[-81.275,29.577],[-81.225,29.595],[-81.202,29.602]]]}},{"type":"Feature","properties":{"date":"2010-03-23","label":"23 Mar","yday":82,"tier":"day","major":false},"geometry":{"type":"MultiLineString","coordinates":[[[-82.648,28.898],[-82.625,28.911],[-82.6,28.925],[-82.575,28.94],[-82.525,28.97],[-82.517,28.975],[-82.475,29.002],[-82.441,29.025],[-82.425,29.036],[-82.375,29.071],[-82.369,29.075],[-82.325,29.107],[-82.3,29.125],[-82.275,29.143],[-82.231,29.175],[-82.225,29.179],[-82.175,29.215],[-82.161,29.225],[-82.125,29.25],[-82.089,29.275],[-82.075,29.284],[-82.025,29.317],[-82.013,29.325],[-81.975,29.349],[-81.933,29.375],[-81.925,29.38],[-81.875,29.409],[-81.848,29.425],[-81.825,29.438],[-81.775,29.465],[-81.756,29.475],[-81.725,29.491],[-81.675,29.516],[-81.656,29.525],[-81.625,29.54],[-81.575,29.563],[-81.548,29.575],[-81.525,29.585],[-81.475,29.606],[-81.427,29.625],[-81.425,29.626],[-81.375,29.645],[-81.325,29.663],[-81.292,29.675],[-81.275,29.681],[-81.242,29.692]]]}},{"type":"Feature","properties":{"date":"2010-03-24","label":"24 Mar","yday":83,"tier":"day","major":false},"geometry":{"type":"MultiLineString","coordinates":[[[-82.725,29.019],[-82.714,29.025],[-82.675,29.046],[-82.625,29.075],[-82.625,29.075],[-82.575,29.105],[-82.542,29.125],[-82.525,29.136],[-82.475,29.168],[-82.464,29.175],[-82.425,29.201],[-82.388,29.225],[-82.375,29.234],[-82.325,29.267],[-82.313,29.275],[-82.275,29.3],[-82.237,29.325],[-82.225,29.333],[-82.175,29.365],[-82.159,29.375],[-82.125,29.396],[-82.077,29.425],[-82.075,29.426],[-82.025,29.455],[-81.99,29.475],[-81.975,29.483],[-81.925,29.511],[-81.898,29.525],[-81.875,29.537],[-81.825,29.562],[-81.798,29.575],[-81.775,29.586],[-81.725,29.61],[-81.691,29.625],[-81.675,29.632],[-81.625,29.654],[-81.575,29.675],[-81.575,29.675],[-81.525,29.695],[-81.475,29.715],[-81.448,29.725],[-81.425,29.733],[-81.375,29.751],[-81.325,29.769],[-81.307,29.775],[-81.275,29.786]]]}},{"type":"Feature","properties":{"date":"2010-03-25","label":"25 Mar","yday":84,"tier":"day","major":false},"geometry":{"type":"MultiLineString","coordinates":[[[-82.8,29.15],[-82.775,29.162],[-82.751,29.175],[-82.725,29.189],[-82.675,29.217],[-82.661,29.225],[-82.625,29.246],[-82.575,29.275],[-82.575,29.275],[-82.525,29.305],[-82.492,29.325],[-82.475,29.335],[-82.425,29.366],[-82.41,29.375],[-82.375,29.396],[-82.327,29.425],[-82.325,29.426],[-82.275,29.456],[-82.242,29.475],[-82.225,29.484],[-82.175,29.512],[-82.152,29.525],[-82.125,29.54],[-82.075,29.566],[-82.057,29.575],[-82.025,29.591],[-81.975,29.616],[-81.956,29.625],[-81.925,29.64],[-81.875,29.663],[-81.848,29.675],[-81.825,29.685],[-81.775,29.707],[-81.733,29.725],[-81.725,29.728],[-81.675,29.749],[-81.625,29.769],[-81.61,29.775],[-81.575,29.788],[-81.525,29.807],[-81.476,29.825],[-81.475,29.825],[-81.425,29.843],[-81.375,29.86],[-81.33,29.875],[-81.325,29.877]]]}},{"type":"Feature","properties":{"date":"2010-03-26","label":"26 Mar","yday":85,"tier":"five","major":false},"geometry":{"type":"MultiLineString","coordinates":[[[-83.025,29.217],[-83.008,29.225],[-82.975,29.24],[-82.925,29.264],[-82.902,29.275],[-82.875,29.288],[-82.825,29.314],[-82.803,29.325],[-82.775,29.34],[-82.725,29.366],[-82.709,29.375],[-82.675,29.393],[-82.625,29.421],[-82.617,29.425],[-82.575,29.448],[-82.527,29.475],[-82.525,29.476],[-82.475,29.503],[-82.436,29.525],[-82.425,29.531],[-82.375,29.558],[-82.342,29.575],[-82.325,29.584],[-82.275,29.61],[-82.244,29.625],[-82.225,29.634],[-82.175,29.658],[-82.14,29.675],[-82.125,29.682],[-82.075,29.704],[-82.028,29.725],[-82.025,29.726],[-81.975,29.748],[-81.925,29.769],[-81.91,29.775],[-81.875,29.789],[-81.825,29.81],[-81.786,29.825],[-81.775,29.829],[-81.725,29.849],[-81.675,29.868],[-81.657,29.875],[-81.625,29.887],[-81.575,29.905],[-81.525,29.923],[-81.519,29.925],[-81.475,29.941],[-81.425,29.957],[-81.375,29.974],[-81.371,29.975],[-81.325,29.99]]]}},{"type":"Feature","properties":{"date":"2010-03-27","label":"27 Mar","yday":86,"tier":"day","major":false},"geometry":{"type":"MultiLineString","coordinates":[[[-83.148,29.348],[-83.125,29.357],[-83.086,29.375],[-83.075,29.38],[-83.025,29.403],[-82.977,29.425],[-82.975,29.426],[-82.925,29.45],[-82.875,29.474],[-82.874,29.475],[-82.825,29.499],[-82.775,29.524],[-82.773,29.525],[-82.725,29.549],[-82.675,29.574],[-82.673,29.575],[-82.625,29.599],[-82.575,29.624],[-82.573,29.625],[-82.525,29.648],[-82.475,29.673],[-82.47,29.675],[-82.425,29.696],[-82.375,29.719],[-82.363,29.725],[-82.325,29.742],[-82.275,29.763],[-82.247,29.775],[-82.225,29.784],[-82.175,29.804],[-82.125,29.824],[-82.123,29.825],[-82.075,29.843],[-82.025,29.863],[-81.992,29.875],[-81.975,29.881],[-81.925,29.9],[-81.875,29.919],[-81.858,29.925],[-81.825,29.937],[-81.775,29.956],[-81.725,29.975],[-81.724,29.975],[-81.675,29.993],[-81.625,30.011],[-81.587,30.025],[-81.575,30.029],[-81.525,30.047],[-81.475,30.063],[-81.439,30.075],[-81.425,30.08],[-81.375,30.096]]]}},{"type":"Feature","properties":{"date":"2010-03-28","label":"28 Mar","yday":87,"tier":"day","major":false},"geometry":{"type":"MultiLineString","coordinates":[[[-83.286,29.486],[-83.275,29.491],[-83.225,29.512],[-83.196,29.525],[-83.175,29.534],[-83.125,29.557],[-83.084,29.575],[-83.075,29.579],[-83.025,29.602],[-82.975,29.624],[-82.974,29.625],[-82.925,29.647],[-82.875,29.67],[-82.864,29.675],[-82.825,29.693],[-82.775,29.716],[-82.754,29.725],[-82.725,29.738],[-82.675,29.76],[-82.642,29.775],[-82.625,29.782],[-82.575,29.804],[-82.525,29.824],[-82.524,29.825],[-82.475,29.845],[-82.425,29.865],[-82.398,29.875],[-82.375,29.884],[-82.325,29.902],[-82.275,29.92],[-82.261,29.925],[-82.225,29.938],[-82.175,29.955],[-82.125,29.971],[-82.113,29.975],[-82.075,29.988],[-82.025,30.004],[-81.975,30.02],[-81.96,30.025],[-81.925,30.037],[-81.875,30.054],[-81.825,30.072],[-81.816,30.075],[-81.775,30.091],[-81.725,30.11],[-81.684,30.125],[-81.675,30.129],[-81.625,30.147],[-81.575,30.164],[-81.54,30.175],[-81.525,30.18],[-81.475,30.195],[-81.425,30.211],[-81.377,30.225],[-81.375,30.225]],[[-94.664,29.736],[-94.633,29.725],[-94.625,29.722],[-94.575,29.705],[-94.525,29.687],[-94.491,29.675],[-94.475,29.669]]]}},{"type":"Feature","properties":{"date":"2010-03-29","label":"29 Mar","yday":88,"tier":"day","major":false},"geometry":{"type":"MultiLineString","coordinates":[[[-83.403,29.653],[-83.375,29.665],[-83.353,29.675],[-83.325,29.687],[-83.275,29.709],[-83.237,29.725],[-83.225,29.73],[-83.175,29.752],[-83.125,29.773],[-83.121,29.775],[-83.075,29.795],[-83.025,29.816],[-83.003,29.825],[-82.975,29.837],[-82.925,29.858],[-82.884,29.875],[-82.875,29.879],[-82.825,29.899],[-82.775,29.919],[-82.759,29.925],[-82.725,29.938],[-82.675,29.957],[-82.627,29.975],[-82.625,29.976],[-82.575,29.994],[-82.525,30.011],[-82.483,30.025],[-82.475,30.028],[-82.425,30.044],[-82.375,30.059],[-82.325,30.074],[-82.322,30.075],[-82.275,30.089],[-82.225,30.103],[-82.175,30.117],[-82.144,30.125],[-82.125,30.13],[-82.075,30.144],[-82.025,30.157],[-81.975,30.171],[-81.96,30.175],[-81.925,30.186],[-81.875,30.202],[-81.825,30.22],[-81.813,30.225],[-81.775,30.241],[-81.725,30.26],[-81.684,30.275],[-81.675,30.278],[-81.625,30.295],[-81.575,30.309],[-81.525,30.323],[-81.519,30.325],[-81.475,30.337],[-81.425,30.351]]]}},{"type":"Feature","properties":{"date":"2010-03-30","label":"30 Mar","yday":89,"tier":"day","major":false},"geometry":{"type":"MultiLineString","coordinates":[[[-83.575,29.823],[-83.571,29.825],[-83.525,29.845],[-83.475,29.867],[-83.455,29.875],[-83.425,29.888],[-83.375,29.909],[-83.338,29.925],[-83.325,29.93],[-83.275,29.951],[-83.225,29.972],[-83.217,29.975],[-83.175,29.992],[-83.125,30.013],[-83.093,30.025],[-83.075,30.032],[-83.025,30.052],[-82.975,30.071],[-82.964,30.075],[-82.925,30.09],[-82.875,30.108],[-82.828,30.125],[-82.825,30.126],[-82.775,30.144],[-82.725,30.16],[-82.679,30.175],[-82.675,30.176],[-82.625,30.192],[-82.575,30.207],[-82.525,30.221],[-82.512,30.225],[-82.475,30.235],[-82.425,30.249],[-82.375,30.261],[-82.325,30.273],[-82.317,30.275],[-82.275,30.285],[-82.225,30.296],[-82.175,30.308],[-82.125,30.319],[-82.098,30.325],[-82.075,30.33],[-82.025,30.343],[-81.975,30.356],[-81.925,30.37],[-81.908,30.375],[-81.875,30.385],[-81.825,30.401],[-81.775,30.416],[-81.746,30.425],[-81.725,30.431],[-81.675,30.446],[-81.625,30.459],[-81.575,30.472],[-81.561,30.475],[-81.525,30.484],[-81.475,30.497]],[[-94.359,30.059],[-94.325,30.05],[-94.275,30.035],[-94.243,30.025]]]}},{"type":"Feature","properties":{"date":"2010-03-31","label":"31 Mar","yday":90,"tier":"index","major":true},"geometry":{"type":"MultiLineString","coordinates":[[[-83.802,30.002],[-83.775,30.015],[-83.753,30.025],[-83.725,30.038],[-83.675,30.06],[-83.641,30.075],[-83.625,30.082],[-83.575,30.104],[-83.525,30.125],[-83.525,30.125],[-83.475,30.146],[-83.425,30.166],[-83.404,30.175],[-83.375,30.187],[-83.325,30.207],[-83.279,30.225],[-83.275,30.227],[-83.225,30.246],[-83.175,30.266],[-83.15,30.275],[-83.125,30.285],[-83.075,30.303],[-83.025,30.322],[-83.016,30.325],[-82.975,30.34],[-82.925,30.358],[-82.875,30.375],[-82.875,30.375],[-82.825,30.392],[-82.775,30.409],[-82.725,30.424],[-82.723,30.425],[-82.675,30.44],[-82.625,30.455],[-82.575,30.468],[-82.549,30.475],[-82.525,30.482],[-82.475,30.494],[-82.425,30.506],[-82.375,30.517],[-82.333,30.525],[-82.325,30.527],[-82.275,30.537],[-82.225,30.546],[-82.175,30.555],[-82.125,30.564],[-82.075,30.572],[-82.058,30.575],[-82.025,30.581],[-81.975,30.59],[-81.925,30.599],[-81.875,30.608],[-81.825,30.617],[-81.779,30.625],[-81.775,30.626],[-81.725,30.635],[-81.675,30.644],[-81.625,30.653],[-81.575,30.663],[-81.525,30.672],[-81.513,30.675],[-81.482,30.682]],[[-94.407,30.307],[-94.375,30.301],[-94.325,30.291],[-94.275,30.28],[-94.254,30.275],[-94.225,30.268],[-94.175,30.257],[-94.125,30.245],[-94.075,30.234],[-94.033,30.225],[-94.025,30.223],[-93.975,30.214],[-93.925,30.204]],[[-94.825,30.347],[-94.775,30.347],[-94.725,30.345],[-94.675,30.342]]]}},{"type":"Feature","properties":{"date":"2010-04-01","label":"1 Apr","yday":91,"tier":"day","major":false},"geometry":{"type":"MultiLineString","coordinates":[[[-84.53,29.925],[-84.525,29.929],[-84.475,29.961],[-84.467,29.967]],[[-84.406,30.006],[-84.377,30.025],[-84.375,30.026],[-84.371,30.029]],[[-84.222,30.122],[-84.216,30.125],[-84.175,30.149],[-84.127,30.175],[-84.125,30.176],[-84.075,30.202],[-84.03,30.225],[-84.025,30.228],[-83.975,30.252],[-83.925,30.275],[-83.925,30.275],[-83.875,30.297],[-83.825,30.319],[-83.812,30.325],[-83.775,30.341],[-83.725,30.361],[-83.692,30.375],[-83.675,30.382],[-83.625,30.402],[-83.575,30.422],[-83.567,30.425],[-83.525,30.442],[-83.475,30.461],[-83.44,30.475],[-83.425,30.481],[-83.375,30.501],[-83.325,30.52],[-83.312,30.525],[-83.275,30.54],[-83.225,30.559],[-83.186,30.575],[-83.175,30.579],[-83.125,30.599],[-83.075,30.62],[-83.062,30.625],[-83.025,30.64],[-82.975,30.661],[-82.94,30.675],[-82.925,30.681],[-82.875,30.702],[-82.825,30.723],[-82.819,30.725],[-82.775,30.743],[-82.725,30.763],[-82.694,30.775],[-82.675,30.783],[-82.625,30.801],[-82.575,30.818],[-82.552,30.825],[-82.525,30.834],[-82.475,30.847],[-82.425,30.859],[-82.375,30.868],[-82.326,30.875],[-82.325,30.875],[-82.275,30.88],[-82.225,30.883],[-82.175,30.884],[-82.125,30.884],[-82.075,30.883],[-82.025,30.882],[-81.975,30.881],[-81.925,30.879],[-81.875,30.879],[-81.825,30.878],[-81.775,30.878],[-81.725,30.879],[-81.675,30.88],[-81.625,30.883],[-81.575,30.886],[-81.525,30.891],[-81.495,30.895]],[[-94.583,30.583],[-94.575,30.583],[-94.525,30.581],[-94.475,30.578],[-94.447,30.575],[-94.425,30.573],[-94.375,30.567],[-94.325,30.56],[-94.275,30.552],[-94.225,30.543],[-94.175,30.533],[-94.141,30.525],[-94.125,30.521],[-94.075,30.51],[-94.025,30.497],[-93.975,30.485],[-93.938,30.475],[-93.925,30.472],[-93.875,30.459],[-93.825,30.446],[-93.775,30.434],[-93.739,30.425],[-93.725,30.422],[-93.675,30.41],[-93.625,30.399],[-93.575,30.388],[-93.525,30.377],[-93.514,30.375],[-93.475,30.367],[-93.425,30.358],[-93.375,30.348],[-93.325,30.339],[-93.275,30.329],[-93.25,30.325],[-93.225,30.321],[-93.175,30.312],[-93.125,30.304],[-93.075,30.297],[-93.025,30.291],[-92.975,30.285],[-92.925,30.28],[-92.92,30.28]]]}},{"type":"Feature","properties":{"date":"2010-04-02","label":"2 Apr","yday":92,"tier":"day","major":false},"geometry":{"type":"MultiLineString","coordinates":[[[-85.275,29.817],[-85.255,29.825],[-85.225,29.838],[-85.175,29.861],[-85.146,29.875],[-85.125,29.886],[-85.075,29.915],[-85.058,29.925],[-85.025,29.946],[-84.981,29.975],[-84.975,29.979],[-84.925,30.015],[-84.912,30.025],[-84.875,30.054],[-84.847,30.075],[-84.825,30.093],[-84.786,30.125],[-84.775,30.134],[-84.725,30.175],[-84.725,30.175],[-84.675,30.216],[-84.664,30.225],[-84.625,30.257],[-84.602,30.275],[-84.575,30.296],[-84.536,30.325],[-84.525,30.333],[-84.475,30.369],[-84.465,30.375],[-84.425,30.401],[-84.386,30.425],[-84.375,30.431],[-84.325,30.458],[-84.291,30.475],[-84.275,30.483],[-84.225,30.506],[-84.183,30.525],[-84.175,30.528],[-84.125,30.549],[-84.075,30.57],[-84.063,30.575],[-84.025,30.59],[-83.975,30.609],[-83.934,30.625],[-83.925,30.629],[-83.875,30.647],[-83.825,30.666],[-83.801,30.675],[-83.775,30.685],[-83.725,30.703],[-83.675,30.722],[-83.667,30.725],[-83.625,30.741],[-83.575,30.759],[-83.534,30.775],[-83.525,30.778],[-83.475,30.798],[-83.425,30.817],[-83.405,30.825],[-83.375,30.837],[-83.325,30.857],[-83.282,30.875],[-83.275,30.878],[-83.225,30.9],[-83.175,30.923],[-83.17,30.925],[-83.125,30.947],[-83.075,30.973],[-83.071,30.975],[-83.025,30.999],[-82.977,31.025],[-82.975,31.026],[-82.925,31.053],[-82.883,31.075],[-82.875,31.079],[-82.825,31.105],[-82.785,31.125],[-82.775,31.13],[-82.725,31.153],[-82.677,31.175],[-82.675,31.176],[-82.625,31.196],[-82.575,31.215],[-82.546,31.225],[-82.525,31.232],[-82.475,31.246],[-82.425,31.257],[-82.375,31.264],[-82.325,31.266],[-82.275,31.264],[-82.225,31.261],[-82.175,31.255],[-82.125,31.249],[-82.075,31.241],[-82.025,31.232],[-81.983,31.225],[-81.975,31.223],[-81.925,31.214],[-81.875,31.205],[-81.825,31.196],[-81.775,31.187],[-81.725,31.179],[-81.7,31.175],[-81.675,31.172],[-81.625,31.166],[-81.575,31.161],[-81.525,31.158],[-81.493,31.157]],[[-87.787,30.337],[-87.775,30.341],[-87.725,30.354],[-87.675,30.362],[-87.625,30.365],[-87.575,30.362],[-87.525,30.354],[-87.475,30.342],[-87.426,30.325]],[[-91.125,30.615],[-91.075,30.614],[-91.025,30.613],[-90.975,30.611],[-90.925,30.609],[-90.875,30.605],[-90.825,30.601],[-90.775,30.597],[-90.725,30.591],[-90.675,30.585],[-90.625,30.577],[-90.613,30.575],[-90.575,30.568],[-90.525,30.557],[-90.475,30.544],[-90.425,30.528],[-90.418,30.525],[-90.375,30.505],[-90.325,30.478],[-90.319,30.475]],[[-94.977,30.825],[-94.975,30.825],[-94.925,30.836],[-94.911,30.839]],[[-94.851,30.851],[-94.825,30.855],[-94.775,30.863],[-94.725,30.87],[-94.676,30.875],[-94.675,30.875],[-94.625,30.879],[-94.575,30.882],[-94.525,30.883],[-94.475,30.882],[-94.425,30.88],[-94.375,30.877],[-94.351,30.875],[-94.325,30.873],[-94.275,30.867],[-94.225,30.859],[-94.175,30.85],[-94.125,30.84],[-94.075,30.827],[-94.068,30.825],[-94.025,30.812],[-93.975,30.795],[-93.925,30.777],[-93.92,30.775],[-93.875,30.758],[-93.825,30.739],[-93.791,30.725],[-93.775,30.719],[-93.725,30.7],[-93.675,30.681],[-93.658,30.675],[-93.625,30.664],[-93.575,30.647],[-93.525,30.632],[-93.501,30.625],[-93.475,30.618],[-93.425,30.605],[-93.375,30.594],[-93.325,30.585],[-93.275,30.577],[-93.263,30.575],[-93.225,30.57],[-93.175,30.564],[-93.125,30.559],[-93.075,30.555],[-93.025,30.552],[-92.975,30.55],[-92.925,30.549],[-92.875,30.548],[-92.825,30.547],[-92.775,30.547],[-92.725,30.548],[-92.675,30.549],[-92.625,30.55],[-92.575,30.551],[-92.525,30.553],[-92.475,30.555],[-92.443,30.557]]]}},{"type":"Feature","properties":{"date":"2010-04-03","label":"3 Apr","yday":93,"tier":"day","major":false},"geometry":{"type":"MultiLineString","coordinates":[[[-85.462,30.062],[-85.439,30.075],[-85.425,30.083],[-85.375,30.115],[-85.361,30.125],[-85.325,30.152],[-85.296,30.175],[-85.275,30.193],[-85.24,30.225],[-85.225,30.239],[-85.188,30.275],[-85.175,30.288],[-85.138,30.325],[-85.125,30.339],[-85.089,30.375],[-85.075,30.39],[-85.039,30.425],[-85.025,30.438],[-84.985,30.475],[-84.975,30.484],[-84.925,30.525],[-84.925,30.525],[-84.875,30.562],[-84.857,30.575],[-84.825,30.596],[-84.776,30.625],[-84.775,30.626],[-84.725,30.653],[-84.682,30.675],[-84.675,30.678],[-84.625,30.702],[-84.575,30.725],[-84.574,30.725],[-84.525,30.746],[-84.475,30.766],[-84.452,30.775],[-84.425,30.786],[-84.375,30.804],[-84.325,30.823],[-84.32,30.825],[-84.275,30.841],[-84.225,30.859],[-84.179,30.875],[-84.175,30.876],[-84.125,30.894],[-84.075,30.911],[-84.034,30.925],[-84.025,30.928],[-83.975,30.945],[-83.925,30.962],[-83.888,30.975],[-83.875,30.979],[-83.825,30.997],[-83.775,31.014],[-83.745,31.025],[-83.725,31.032],[-83.675,31.05],[-83.625,31.069],[-83.609,31.075],[-83.575,31.088],[-83.525,31.108],[-83.482,31.125],[-83.475,31.128],[-83.425,31.149],[-83.375,31.171],[-83.365,31.175],[-83.325,31.193],[-83.275,31.216],[-83.256,31.225],[-83.225,31.24],[-83.175,31.264],[-83.153,31.275],[-83.125,31.288],[-83.075,31.312],[-83.049,31.325],[-83.025,31.336],[-82.975,31.359],[-82.939,31.375],[-82.925,31.381],[-82.875,31.401],[-82.825,31.42],[-82.811,31.425],[-82.775,31.437],[-82.725,31.451],[-82.675,31.464],[-82.631,31.475],[-82.625,31.476],[-82.575,31.487],[-82.525,31.497],[-82.475,31.507],[-82.425,31.516],[-82.375,31.524],[-82.37,31.525],[-82.325,31.532],[-82.275,31.538],[-82.225,31.543],[-82.175,31.546],[-82.125,31.549],[-82.075,31.55],[-82.025,31.551],[-81.975,31.551],[-81.925,31.55],[-81.875,31.549],[-81.825,31.547],[-81.775,31.545],[-81.725,31.543],[-81.675,31.542],[-81.625,31.541],[-81.575,31.541],[-81.525,31.542],[-81.475,31.544],[-81.425,31.548],[-81.375,31.552],[-81.325,31.558],[-81.275,31.565],[-81.225,31.573],[-81.216,31.575],[-81.175,31.582]],[[-88.205,30.375],[-88.175,30.387],[-88.125,30.406]],[[-87.909,30.491],[-87.875,30.504],[-87.825,30.521],[-87.812,30.525],[-87.775,30.537],[-87.725,30.55],[-87.675,30.562],[-87.625,30.571],[-87.597,30.575],[-87.575,30.578],[-87.525,30.583],[-87.475,30.586],[-87.425,30.586],[-87.375,30.584],[-87.325,30.579],[-87.302,30.575],[-87.275,30.57],[-87.225,30.557],[-87.194,30.544]],[[-91.325,30.946],[-91.275,30.94],[-91.225,30.933],[-91.175,30.926],[-91.172,30.925],[-91.125,30.918],[-91.075,30.909],[-91.025,30.9],[-90.975,30.891],[-90.925,30.881],[-90.898,30.875],[-90.875,30.87],[-90.825,30.86],[-90.775,30.849],[-90.725,30.837],[-90.675,30.825],[-90.674,30.825],[-90.625,30.813],[-90.575,30.8],[-90.525,30.786],[-90.488,30.775],[-90.475,30.771],[-90.425,30.755],[-90.375,30.737],[-90.345,30.725],[-90.325,30.717],[-90.275,30.695],[-90.234,30.675],[-90.225,30.671],[-90.175,30.644],[-90.142,30.625],[-90.125,30.615],[-90.075,30.584],[-90.06,30.575],[-90.025,30.552],[-89.983,30.525],[-89.975,30.52],[-89.925,30.487],[-89.907,30.475],[-89.875,30.454],[-89.829,30.425],[-89.825,30.423],[-89.775,30.393],[-89.741,30.375],[-89.725,30.367],[-89.675,30.342],[-89.636,30.325],[-89.625,30.32],[-89.575,30.3],[-89.525,30.282],[-89.505,30.275],[-89.475,30.265],[-89.425,30.251]],[[-94.526,31.224],[-94.525,31.224],[-94.475,31.223],[-94.425,31.222],[-94.375,31.219],[-94.325,31.215],[-94.275,31.21],[-94.225,31.203],[-94.175,31.195],[-94.125,31.185],[-94.08,31.175],[-94.075,31.174],[-94.025,31.161],[-93.975,31.147],[-93.925,31.131],[-93.907,31.125],[-93.875,31.114],[-93.825,31.095],[-93.776,31.075],[-93.775,31.075],[-93.725,31.053],[-93.675,31.031],[-93.662,31.025],[-93.625,31.008],[-93.575,30.986],[-93.552,30.975],[-93.525,30.963],[-93.475,30.942],[-93.433,30.925],[-93.425,30.922],[-93.375,30.905],[-93.325,30.892],[-93.275,30.883],[-93.225,30.879],[-93.175,30.876],[-93.125,30.876],[-93.075,30.877],[-93.025,30.878],[-92.975,30.881],[-92.925,30.884],[-92.875,30.887],[-92.825,30.89],[-92.775,30.894],[-92.725,30.898],[-92.675,30.902],[-92.625,30.906],[-92.575,30.91],[-92.525,30.915],[-92.475,30.919],[-92.425,30.924],[-92.412,30.925],[-92.375,30.928],[-92.325,30.933],[-92.275,30.938],[-92.225,30.942],[-92.175,30.947],[-92.149,30.949]]]}},{"type":"Feature","properties":{"date":"2010-04-04","label":"4 Apr","yday":94,"tier":"day","major":false},"geometry":{"type":"MultiLineString","coordinates":[[[-86.161,30.361],[-86.125,30.364],[-86.075,30.371],[-86.054,30.375],[-86.025,30.382],[-85.975,30.396],[-85.925,30.414],[-85.898,30.425],[-85.875,30.436],[-85.825,30.464],[-85.808,30.475],[-85.775,30.498],[-85.739,30.525],[-85.725,30.536],[-85.677,30.575],[-85.675,30.577],[-85.625,30.619],[-85.619,30.625],[-85.575,30.661],[-85.558,30.675],[-85.525,30.7],[-85.492,30.725],[-85.475,30.736],[-85.425,30.77],[-85.418,30.775],[-85.375,30.801],[-85.334,30.825],[-85.325,30.83],[-85.275,30.855],[-85.232,30.875],[-85.225,30.878],[-85.175,30.897],[-85.125,30.913],[-85.088,30.925],[-85.075,30.929],[-85.025,30.943],[-84.975,30.956],[-84.925,30.97],[-84.906,30.975],[-84.875,30.983],[-84.825,30.996],[-84.775,31.009],[-84.725,31.023],[-84.716,31.025],[-84.675,31.036],[-84.625,31.05],[-84.575,31.064],[-84.536,31.075],[-84.525,31.078],[-84.475,31.092],[-84.425,31.107],[-84.375,31.121],[-84.363,31.125],[-84.325,31.136],[-84.275,31.151],[-84.225,31.166],[-84.194,31.175],[-84.175,31.181],[-84.125,31.196],[-84.075,31.211],[-84.031,31.225],[-84.025,31.227],[-83.975,31.242],[-83.925,31.258],[-83.875,31.275],[-83.874,31.275],[-83.825,31.291],[-83.775,31.308],[-83.726,31.325],[-83.725,31.325],[-83.675,31.343],[-83.625,31.361],[-83.588,31.375],[-83.575,31.38],[-83.525,31.399],[-83.475,31.418],[-83.458,31.425],[-83.425,31.438],[-83.375,31.458],[-83.334,31.475],[-83.325,31.479],[-83.275,31.499],[-83.225,31.52],[-83.212,31.525],[-83.175,31.54],[-83.125,31.56],[-83.087,31.575],[-83.075,31.58],[-83.025,31.598],[-82.975,31.616],[-82.949,31.625],[-82.925,31.633],[-82.875,31.649],[-82.825,31.664],[-82.787,31.675],[-82.775,31.679],[-82.725,31.692],[-82.675,31.705],[-82.625,31.718],[-82.596,31.725],[-82.575,31.73],[-82.525,31.742],[-82.475,31.755],[-82.425,31.766],[-82.388,31.775],[-82.375,31.778],[-82.325,31.789],[-82.275,31.8],[-82.225,31.81],[-82.175,31.82],[-82.148,31.825],[-82.125,31.829],[-82.075,31.838],[-82.025,31.847],[-81.975,31.855],[-81.925,31.864],[-81.875,31.872],[-81.856,31.875],[-81.825,31.88],[-81.775,31.888],[-81.725,31.896],[-81.675,31.905],[-81.625,31.913],[-81.575,31.922],[-81.559,31.925],[-81.525,31.931],[-81.475,31.94],[-81.425,31.949],[-81.375,31.958],[-81.325,31.967],[-81.275,31.975],[-81.273,31.975],[-81.225,31.982],[-81.175,31.987],[-81.125,31.991],[-81.075,31.994],[-81.025,31.995],[-80.975,31.995],[-80.925,31.995],[-80.894,31.994]],[[-88.823,30.423],[-88.805,30.425],[-88.775,30.428],[-88.725,30.435],[-88.675,30.443],[-88.625,30.452],[-88.575,30.462],[-88.525,30.474],[-88.522,30.475],[-88.475,30.488],[-88.425,30.503],[-88.375,30.518],[-88.353,30.525],[-88.325,30.534],[-88.275,30.55],[-88.225,30.567],[-88.2,30.575],[-88.175,30.583],[-88.125,30.6],[-88.087,30.613]],[[-87.926,30.676],[-87.925,30.676],[-87.875,30.695],[-87.825,30.713],[-87.791,30.725],[-87.775,30.73],[-87.725,30.746],[-87.675,30.761],[-87.625,30.775],[-87.624,30.775],[-87.575,30.787],[-87.525,30.799],[-87.475,30.81],[-87.425,30.82],[-87.395,30.825],[-87.375,30.829],[-87.325,30.837],[-87.275,30.844],[-87.225,30.85],[-87.175,30.854],[-87.125,30.857],[-87.075,30.857],[-87.025,30.853],[-86.975,30.845],[-86.925,30.832],[-86.905,30.825],[-86.875,30.812],[-86.825,30.782],[-86.814,30.775],[-86.775,30.738],[-86.763,30.725],[-86.727,30.675],[-86.725,30.671],[-86.698,30.625],[-86.675,30.579],[-86.673,30.575],[-86.644,30.525],[-86.625,30.498],[-86.606,30.475],[-86.589,30.461]],[[-91.347,31.353],[-91.325,31.347],[-91.275,31.331],[-91.259,31.325],[-91.225,31.314],[-91.175,31.295],[-91.125,31.275],[-91.125,31.275],[-91.075,31.255],[-91.025,31.234],[-91.006,31.225],[-90.975,31.212],[-90.925,31.19],[-90.894,31.175],[-90.875,31.167],[-90.825,31.145],[-90.782,31.125],[-90.775,31.122],[-90.725,31.1],[-90.675,31.079],[-90.667,31.075],[-90.625,31.058],[-90.575,31.038],[-90.543,31.025],[-90.525,31.018],[-90.475,30.999],[-90.425,30.98],[-90.412,30.975],[-90.375,30.961],[-90.325,30.942],[-90.284,30.925],[-90.275,30.921],[-90.225,30.9],[-90.175,30.878],[-90.169,30.875],[-90.125,30.854],[-90.075,30.829],[-90.067,30.825],[-90.025,30.803],[-89.975,30.776],[-89.973,30.775],[-89.925,30.748],[-89.884,30.725],[-89.875,30.72],[-89.825,30.691],[-89.796,30.675],[-89.775,30.663],[-89.725,30.635],[-89.706,30.625],[-89.675,30.608],[-89.625,30.583],[-89.609,30.575],[-89.575,30.559],[-89.525,30.537],[-89.497,30.525],[-89.475,30.516],[-89.425,30.498],[-89.375,30.481],[-89.356,30.475],[-89.325,30.466],[-89.275,30.453],[-89.225,30.441],[-89.175,30.432],[-89.129,30.425],[-89.125,30.424],[-89.075,30.419],[-89.025,30.416]],[[-92.432,31.382],[-92.425,31.383],[-92.375,31.388],[-92.325,31.393],[-92.275,31.398]],[[-94.282,31.568],[-94.275,31.568],[-94.225,31.565],[-94.175,31.561],[-94.125,31.556],[-94.075,31.55],[-94.025,31.543],[-93.975,31.535],[-93.925,31.526],[-93.922,31.525],[-93.875,31.516],[-93.825,31.505],[-93.775,31.494],[-93.725,31.482],[-93.699,31.475],[-93.675,31.469],[-93.625,31.456],[-93.575,31.443],[-93.525,31.431],[-93.501,31.425],[-93.475,31.419],[-93.425,31.407],[-93.375,31.396],[-93.325,31.386],[-93.275,31.378],[-93.255,31.375],[-93.225,31.371],[-93.175,31.365],[-93.125,31.36],[-93.075,31.357],[-93.025,31.355],[-92.975,31.353],[-92.925,31.353],[-92.875,31.353],[-92.825,31.354],[-92.775,31.356],[-92.725,31.358]]]}},{"type":"Feature","properties":{"date":"2010-04-05","label":"5 Apr","yday":95,"tier":"five","major":false},"geometry":{"type":"MultiLineString","coordinates":[[[-91.098,31.802],[-91.075,31.787],[-91.057,31.775],[-91.025,31.752],[-90.989,31.725],[-90.975,31.714],[-90.928,31.675],[-90.925,31.673],[-90.875,31.63],[-90.87,31.625],[-90.825,31.585],[-90.814,31.575],[-90.775,31.54],[-90.758,31.525],[-90.725,31.496],[-90.703,31.475],[-90.675,31.451],[-90.645,31.425],[-90.625,31.409],[-90.585,31.375],[-90.575,31.368],[-90.525,31.329],[-90.52,31.325],[-90.475,31.293],[-90.448,31.275],[-90.425,31.261],[-90.375,31.232],[-90.363,31.225],[-90.325,31.206],[-90.275,31.18],[-90.265,31.175],[-90.225,31.156],[-90.175,31.131],[-90.162,31.125],[-90.125,31.107],[-90.075,31.082],[-90.061,31.075],[-90.025,31.057],[-89.975,31.032],[-89.962,31.025],[-89.925,31.006],[-89.875,30.98],[-89.865,30.975],[-89.825,30.954],[-89.775,30.928],[-89.768,30.925],[-89.725,30.903],[-89.675,30.878],[-89.67,30.875],[-89.625,30.853],[-89.575,30.829],[-89.566,30.825],[-89.525,30.806],[-89.475,30.785],[-89.451,30.775],[-89.425,30.764],[-89.375,30.746],[-89.325,30.728],[-89.314,30.725],[-89.275,30.713],[-89.225,30.699],[-89.175,30.687],[-89.125,30.678],[-89.109,30.675],[-89.075,30.67],[-89.025,30.664],[-88.975,30.66],[-88.925,30.658],[-88.875,30.658],[-88.825,30.659],[-88.775,30.662],[-88.725,30.667],[-88.675,30.673],[-88.662,30.675],[-88.625,30.681],[-88.575,30.69],[-88.525,30.7],[-88.475,30.711],[-88.425,30.724],[-88.419,30.725],[-88.375,30.737],[-88.325,30.751],[-88.275,30.765],[-88.242,30.775],[-88.225,30.78],[-88.175,30.796],[-88.125,30.812],[-88.087,30.825],[-88.075,30.829],[-88.025,30.847],[-87.975,30.864],[-87.945,30.875],[-87.925,30.882],[-87.875,30.899],[-87.825,30.916],[-87.798,30.925],[-87.775,30.932],[-87.725,30.948],[-87.675,30.963],[-87.631,30.975],[-87.625,30.977],[-87.575,30.99],[-87.525,31.003],[-87.475,31.015],[-87.428,31.025],[-87.425,31.026],[-87.375,31.036],[-87.325,31.046],[-87.275,31.054],[-87.225,31.062],[-87.175,31.07],[-87.135,31.075],[-87.125,31.076],[-87.075,31.082],[-87.025,31.088],[-86.975,31.093],[-86.925,31.098],[-86.875,31.103],[-86.825,31.109],[-86.775,31.115],[-86.725,31.122],[-86.707,31.125],[-86.675,31.13],[-86.625,31.139],[-86.575,31.149],[-86.525,31.159],[-86.475,31.169],[-86.444,31.175],[-86.425,31.178],[-86.375,31.184],[-86.325,31.187],[-86.275,31.186],[-86.225,31.183],[-86.175,31.178],[-86.147,31.175],[-86.125,31.172],[-86.075,31.164],[-86.025,31.157],[-85.975,31.15],[-85.925,31.144],[-85.875,31.139],[-85.825,31.136],[-85.775,31.135],[-85.725,31.135],[-85.675,31.136],[-85.625,31.14],[-85.575,31.145],[-85.525,31.151],[-85.475,31.158],[-85.425,31.166],[-85.376,31.175],[-85.375,31.175],[-85.325,31.184],[-85.275,31.194],[-85.225,31.203],[-85.175,31.213],[-85.125,31.223],[-85.115,31.225],[-85.075,31.233],[-85.025,31.243],[-84.975,31.252],[-84.925,31.262],[-84.875,31.273],[-84.864,31.275],[-84.825,31.283],[-84.775,31.293],[-84.725,31.304],[-84.675,31.315],[-84.632,31.325],[-84.625,31.327],[-84.575,31.338],[-84.525,31.35],[-84.475,31.362],[-84.425,31.375],[-84.424,31.375],[-84.375,31.388],[-84.325,31.401],[-84.275,31.414],[-84.235,31.425],[-84.225,31.428],[-84.175,31.441],[-84.125,31.455],[-84.075,31.469],[-84.055,31.475],[-84.025,31.483],[-83.975,31.498],[-83.925,31.513],[-83.884,31.525],[-83.875,31.528],[-83.825,31.543],[-83.775,31.559],[-83.727,31.575],[-83.725,31.576],[-83.675,31.592],[-83.625,31.609],[-83.58,31.625],[-83.575,31.627],[-83.525,31.644],[-83.475,31.662],[-83.44,31.675],[-83.425,31.68],[-83.375,31.698],[-83.325,31.717],[-83.302,31.725],[-83.275,31.735],[-83.225,31.753],[-83.175,31.77],[-83.162,31.775],[-83.125,31.788],[-83.075,31.805],[-83.025,31.822],[-83.016,31.825],[-82.975,31.839],[-82.925,31.855],[-82.875,31.871],[-82.862,31.875],[-82.825,31.887],[-82.775,31.902],[-82.725,31.918],[-82.701,31.925],[-82.675,31.933],[-82.625,31.948],[-82.575,31.964],[-82.537,31.975],[-82.525,31.979],[-82.475,31.994],[-82.425,32.009],[-82.375,32.024],[-82.371,32.025],[-82.325,32.038],[-82.275,32.053],[-82.225,32.066],[-82.193,32.075],[-82.175,32.08],[-82.125,32.093],[-82.075,32.107],[-82.025,32.12],[-82.005,32.125],[-81.975,32.133],[-81.925,32.146],[-81.875,32.159],[-81.825,32.172],[-81.813,32.175],[-81.775,32.185],[-81.725,32.197],[-81.675,32.21],[-81.625,32.222],[-81.611,32.225],[-81.575,32.233],[-81.525,32.244],[-81.475,32.254],[-81.425,32.264],[-81.375,32.273],[-81.36,32.275],[-81.325,32.28],[-81.275,32.287],[-81.225,32.292],[-81.175,32.297],[-81.125,32.3],[-81.075,32.303],[-81.025,32.305],[-80.975,32.306],[-80.925,32.307],[-80.875,32.307],[-80.825,32.307],[-80.806,32.306]],[[-92.833,31.833],[-92.825,31.833],[-92.775,31.835],[-92.725,31.838],[-92.675,31.842],[-92.625,31.846],[-92.575,31.852],[-92.525,31.858],[-92.475,31.865],[-92.425,31.872],[-92.407,31.875],[-92.375,31.88],[-92.325,31.888],[-92.275,31.897],[-92.225,31.906],[-92.175,31.914],[-92.125,31.923],[-92.112,31.925],[-92.075,31.931],[-92.025,31.939],[-91.975,31.946],[-91.949,31.949]],[[-80.655,32.305],[-80.625,32.304],[-80.575,32.304],[-80.547,32.303]]]}},{"type":"Feature","properties":{"date":"2010-04-06","label":"6 Apr","yday":96,"tier":"day","major":false},"geometry":{"type":"MultiLineString","coordinates":[[[-90.647,32.075],[-90.625,32.051],[-90.602,32.025],[-90.575,31.993],[-90.561,31.975],[-90.525,31.928],[-90.523,31.925],[-90.487,31.875],[-90.475,31.859],[-90.451,31.825],[-90.425,31.788],[-90.416,31.775],[-90.38,31.725],[-90.375,31.719],[-90.342,31.675],[-90.325,31.654],[-90.302,31.625],[-90.275,31.594],[-90.258,31.575],[-90.225,31.54],[-90.21,31.525],[-90.175,31.492],[-90.157,31.475],[-90.125,31.448],[-90.098,31.425],[-90.075,31.407],[-90.032,31.375],[-90.025,31.37],[-89.975,31.335],[-89.96,31.325],[-89.925,31.302],[-89.882,31.275],[-89.875,31.271],[-89.825,31.241],[-89.798,31.225],[-89.775,31.212],[-89.725,31.184],[-89.708,31.175],[-89.675,31.158],[-89.625,31.132],[-89.61,31.125],[-89.575,31.108],[-89.525,31.085],[-89.502,31.075],[-89.475,31.063],[-89.425,31.043],[-89.379,31.025],[-89.375,31.024],[-89.325,31.006],[-89.275,30.989],[-89.229,30.975],[-89.225,30.974],[-89.175,30.96],[-89.125,30.949],[-89.075,30.938],[-89.025,30.93],[-88.987,30.925],[-88.975,30.923],[-88.925,30.919],[-88.875,30.916],[-88.825,30.914],[-88.775,30.915],[-88.725,30.917],[-88.675,30.92],[-88.629,30.925],[-88.625,30.925],[-88.575,30.932],[-88.525,30.939],[-88.475,30.948],[-88.425,30.958],[-88.375,30.969],[-88.348,30.975],[-88.325,30.98],[-88.275,30.993],[-88.225,31.006],[-88.175,31.02],[-88.157,31.025],[-88.125,31.034],[-88.075,31.049],[-88.025,31.064],[-87.987,31.075],[-87.975,31.079],[-87.925,31.094],[-87.875,31.108],[-87.825,31.123],[-87.818,31.125],[-87.775,31.137],[-87.725,31.151],[-87.675,31.164],[-87.632,31.175],[-87.625,31.177],[-87.575,31.189],[-87.525,31.2],[-87.475,31.211],[-87.425,31.222],[-87.409,31.225],[-87.375,31.232],[-87.325,31.241],[-87.275,31.25],[-87.225,31.258],[-87.175,31.267],[-87.126,31.275],[-87.125,31.275],[-87.075,31.284],[-87.025,31.293],[-86.975,31.303],[-86.925,31.314],[-86.881,31.325],[-86.875,31.326],[-86.825,31.339],[-86.775,31.351],[-86.725,31.364],[-86.683,31.375],[-86.675,31.377],[-86.625,31.389],[-86.575,31.4],[-86.525,31.41],[-86.475,31.419],[-86.43,31.425],[-86.425,31.426],[-86.375,31.43],[-86.325,31.434],[-86.275,31.435],[-86.225,31.435],[-86.175,31.434],[-86.125,31.432],[-86.075,31.43],[-86.025,31.427],[-85.99,31.425],[-85.975,31.424],[-85.925,31.421],[-85.875,31.418],[-85.825,31.416],[-85.775,31.415],[-85.725,31.414],[-85.675,31.414],[-85.625,31.416],[-85.575,31.418],[-85.525,31.421],[-85.48,31.425],[-85.475,31.425],[-85.425,31.43],[-85.375,31.436],[-85.325,31.442],[-85.275,31.449],[-85.225,31.456],[-85.175,31.463],[-85.125,31.471],[-85.101,31.475],[-85.075,31.479],[-85.025,31.487],[-84.975,31.495],[-84.925,31.504],[-84.875,31.512],[-84.825,31.521],[-84.803,31.525],[-84.775,31.53],[-84.725,31.539],[-84.675,31.549],[-84.625,31.559],[-84.575,31.569],[-84.549,31.575],[-84.525,31.58],[-84.475,31.591],[-84.425,31.603],[-84.375,31.614],[-84.332,31.625],[-84.325,31.627],[-84.275,31.639],[-84.225,31.652],[-84.175,31.665],[-84.136,31.675],[-84.125,31.678],[-84.075,31.691],[-84.025,31.705],[-83.975,31.719],[-83.956,31.725],[-83.925,31.734],[-83.875,31.749],[-83.825,31.764],[-83.79,31.775],[-83.775,31.78],[-83.725,31.795],[-83.675,31.812],[-83.635,31.825],[-83.625,31.828],[-83.575,31.845],[-83.525,31.862],[-83.486,31.875],[-83.475,31.879],[-83.425,31.896],[-83.375,31.913],[-83.339,31.925],[-83.325,31.93],[-83.275,31.947],[-83.225,31.964],[-83.192,31.975],[-83.175,31.981],[-83.125,31.997],[-83.075,32.014],[-83.042,32.025],[-83.025,32.031],[-82.975,32.047],[-82.925,32.064],[-82.891,32.075],[-82.875,32.08],[-82.825,32.097],[-82.775,32.114],[-82.742,32.125],[-82.725,32.131],[-82.675,32.148],[-82.625,32.165],[-82.597,32.175],[-82.575,32.182],[-82.525,32.2],[-82.475,32.217],[-82.452,32.225],[-82.425,32.234],[-82.375,32.251],[-82.325,32.267],[-82.3,32.275],[-82.275,32.283],[-82.225,32.299],[-82.175,32.314],[-82.141,32.325],[-82.125,32.33],[-82.075,32.345],[-82.025,32.361],[-81.981,32.375],[-81.975,32.377],[-81.925,32.392],[-81.875,32.408],[-81.825,32.423],[-81.819,32.425],[-81.775,32.438],[-81.725,32.453],[-81.675,32.467],[-81.646,32.475],[-81.625,32.481],[-81.575,32.493],[-81.525,32.505],[-81.475,32.515],[-81.425,32.525],[-81.422,32.525],[-81.375,32.533],[-81.325,32.541],[-81.275,32.548],[-81.225,32.555],[-81.175,32.561],[-81.125,32.567],[-81.075,32.572],[-81.048,32.575],[-81.025,32.577],[-80.975,32.582],[-80.925,32.587],[-80.875,32.591],[-80.825,32.595],[-80.775,32.6],[-80.725,32.604],[-80.675,32.608],[-80.625,32.612],[-80.575,32.616],[-80.525,32.619],[-80.475,32.622],[-80.425,32.624],[-80.392,32.625],[-80.375,32.625],[-80.334,32.625],[-80.325,32.625],[-80.275,32.623],[-80.225,32.619],[-80.175,32.613],[-80.143,32.607]],[[-93.03,32.23],[-93.025,32.23],[-92.975,32.228],[-92.925,32.228],[-92.875,32.228],[-92.825,32.229],[-92.775,32.231],[-92.725,32.235],[-92.675,32.239],[-92.625,32.245],[-92.575,32.252],[-92.525,32.261],[-92.475,32.27],[-92.453,32.275],[-92.425,32.281],[-92.375,32.293],[-92.349,32.299]]]}},{"type":"Feature","properties":{"date":"2010-04-07","label":"7 Apr","yday":97,"tier":"day","major":false},"geometry":{"type":"MultiLineString","coordinates":[[[-90.267,32.225],[-90.23,32.175],[-90.225,32.167],[-90.197,32.125],[-90.175,32.09],[-90.166,32.075],[-90.135,32.025],[-90.125,32.009],[-90.104,31.975],[-90.075,31.928],[-90.073,31.925],[-90.041,31.875],[-90.025,31.851],[-90.007,31.825],[-89.975,31.78],[-89.971,31.775],[-89.933,31.725],[-89.925,31.716],[-89.89,31.675],[-89.875,31.658],[-89.844,31.625],[-89.825,31.607],[-89.792,31.575],[-89.775,31.56],[-89.735,31.525],[-89.725,31.517],[-89.675,31.478],[-89.671,31.475],[-89.625,31.443],[-89.599,31.425],[-89.575,31.41],[-89.525,31.381],[-89.515,31.375],[-89.475,31.354],[-89.425,31.33],[-89.414,31.325],[-89.375,31.309],[-89.325,31.289],[-89.284,31.275],[-89.275,31.272],[-89.225,31.255],[-89.175,31.24],[-89.125,31.226],[-89.121,31.225],[-89.075,31.214],[-89.025,31.203],[-88.975,31.194],[-88.925,31.187],[-88.875,31.181],[-88.825,31.177],[-88.781,31.175],[-88.775,31.175],[-88.725,31.174],[-88.675,31.175],[-88.67,31.175],[-88.625,31.177],[-88.575,31.181],[-88.525,31.186],[-88.475,31.192],[-88.425,31.199],[-88.375,31.207],[-88.325,31.216],[-88.28,31.225],[-88.275,31.226],[-88.225,31.237],[-88.175,31.248],[-88.125,31.26],[-88.075,31.272],[-88.061,31.275],[-88.025,31.284],[-87.975,31.296],[-87.925,31.309],[-87.875,31.321],[-87.86,31.325],[-87.825,31.334],[-87.775,31.346],[-87.725,31.358],[-87.675,31.369],[-87.65,31.375],[-87.625,31.381],[-87.575,31.392],[-87.525,31.402],[-87.475,31.412],[-87.425,31.422],[-87.408,31.425],[-87.375,31.431],[-87.325,31.44],[-87.275,31.449],[-87.225,31.458],[-87.175,31.467],[-87.132,31.475],[-87.125,31.476],[-87.075,31.487],[-87.025,31.498],[-86.975,31.51],[-86.925,31.523],[-86.918,31.525],[-86.875,31.536],[-86.825,31.549],[-86.775,31.561],[-86.725,31.573],[-86.715,31.575],[-86.675,31.584],[-86.625,31.594],[-86.575,31.602],[-86.525,31.61],[-86.475,31.617],[-86.425,31.622],[-86.39,31.625],[-86.375,31.626],[-86.325,31.629],[-86.275,31.632],[-86.225,31.633],[-86.175,31.634],[-86.125,31.634],[-86.075,31.634],[-86.025,31.633],[-85.975,31.633],[-85.925,31.632],[-85.875,31.632],[-85.825,31.633],[-85.775,31.633],[-85.725,31.634],[-85.675,31.636],[-85.625,31.638],[-85.575,31.641],[-85.525,31.644],[-85.475,31.648],[-85.425,31.653],[-85.375,31.658],[-85.325,31.663],[-85.275,31.669],[-85.225,31.675],[-85.225,31.675],[-85.175,31.681],[-85.125,31.688],[-85.075,31.694],[-85.025,31.701],[-84.975,31.707],[-84.925,31.714],[-84.875,31.722],[-84.852,31.725],[-84.825,31.729],[-84.775,31.737],[-84.725,31.745],[-84.675,31.753],[-84.625,31.762],[-84.575,31.772],[-84.56,31.775],[-84.525,31.782],[-84.475,31.792],[-84.425,31.803],[-84.375,31.815],[-84.331,31.825],[-84.325,31.827],[-84.275,31.839],[-84.225,31.851],[-84.175,31.864],[-84.135,31.875],[-84.125,31.878],[-84.075,31.892],[-84.025,31.906],[-83.975,31.92],[-83.96,31.925],[-83.925,31.935],[-83.875,31.951],[-83.825,31.966],[-83.797,31.975],[-83.775,31.982],[-83.725,31.998],[-83.675,32.015],[-83.644,32.025],[-83.625,32.031],[-83.575,32.048],[-83.525,32.064],[-83.494,32.075],[-83.475,32.081],[-83.425,32.098],[-83.375,32.115],[-83.344,32.125],[-83.325,32.131],[-83.275,32.148],[-83.225,32.164],[-83.193,32.175],[-83.175,32.181],[-83.125,32.197],[-83.075,32.214],[-83.041,32.225],[-83.025,32.23],[-82.975,32.247],[-82.925,32.264],[-82.893,32.275],[-82.875,32.281],[-82.825,32.299],[-82.775,32.316],[-82.75,32.325],[-82.725,32.334],[-82.675,32.352],[-82.625,32.37],[-82.611,32.375],[-82.575,32.388],[-82.525,32.406],[-82.475,32.424],[-82.472,32.425],[-82.425,32.442],[-82.375,32.459],[-82.329,32.475],[-82.325,32.476],[-82.275,32.494],[-82.225,32.511],[-82.183,32.525],[-82.175,32.528],[-82.125,32.544],[-82.075,32.561],[-82.034,32.575],[-82.025,32.578],[-81.975,32.595],[-81.925,32.611],[-81.883,32.625],[-81.875,32.628],[-81.825,32.644],[-81.775,32.66],[-81.726,32.675],[-81.725,32.675],[-81.675,32.69],[-81.625,32.704],[-81.575,32.717],[-81.54,32.725],[-81.525,32.729],[-81.475,32.74],[-81.425,32.751],[-81.375,32.761],[-81.325,32.772],[-81.31,32.775],[-81.275,32.782],[-81.225,32.793],[-81.175,32.804],[-81.125,32.815],[-81.078,32.825],[-81.075,32.826],[-81.025,32.837],[-80.975,32.848],[-80.925,32.859],[-80.875,32.87],[-80.852,32.875],[-80.825,32.881],[-80.775,32.892],[-80.725,32.902],[-80.675,32.912],[-80.625,32.922],[-80.609,32.925],[-80.575,32.932],[-80.525,32.942],[-80.475,32.95],[-80.425,32.957],[-80.375,32.962],[-80.325,32.965],[-80.275,32.966],[-80.225,32.964],[-80.175,32.96],[-80.125,32.952],[-80.075,32.942],[-80.025,32.928],[-80.016,32.925],[-79.975,32.91],[-79.925,32.888],[-79.9,32.875],[-79.875,32.863],[-79.825,32.836],[-79.807,32.825],[-79.787,32.813]]]}},{"type":"Feature","properties":{"date":"2010-04-08","label":"8 Apr","yday":98,"tier":"day","major":false},"geometry":{"type":"MultiLineString","coordinates":[[[-89.955,32.295],[-89.94,32.275],[-89.925,32.253],[-89.905,32.225],[-89.875,32.181],[-89.871,32.175],[-89.837,32.125],[-89.825,32.107],[-89.803,32.075],[-89.775,32.035],[-89.768,32.025],[-89.732,31.975],[-89.725,31.965],[-89.694,31.925],[-89.675,31.901],[-89.654,31.875],[-89.625,31.842],[-89.61,31.825],[-89.575,31.788],[-89.562,31.775],[-89.525,31.74],[-89.508,31.725],[-89.475,31.697],[-89.448,31.675],[-89.425,31.658],[-89.378,31.625],[-89.375,31.623],[-89.325,31.592],[-89.293,31.575],[-89.275,31.566],[-89.225,31.543],[-89.179,31.525],[-89.175,31.523],[-89.125,31.506],[-89.075,31.491],[-89.025,31.478],[-89.012,31.475],[-88.975,31.467],[-88.925,31.457],[-88.875,31.449],[-88.825,31.443],[-88.775,31.438],[-88.725,31.435],[-88.675,31.433],[-88.625,31.433],[-88.575,31.434],[-88.525,31.436],[-88.475,31.44],[-88.425,31.444],[-88.375,31.45],[-88.325,31.457],[-88.275,31.464],[-88.225,31.472],[-88.211,31.475],[-88.175,31.481],[-88.125,31.491],[-88.075,31.501],[-88.025,31.511],[-87.975,31.522],[-87.96,31.525],[-87.925,31.532],[-87.875,31.543],[-87.825,31.554],[-87.775,31.565],[-87.729,31.575],[-87.725,31.576],[-87.675,31.587],[-87.625,31.597],[-87.575,31.607],[-87.525,31.618],[-87.487,31.625],[-87.475,31.627],[-87.425,31.637],[-87.375,31.647],[-87.325,31.657],[-87.275,31.667],[-87.234,31.675],[-87.225,31.677],[-87.175,31.687],[-87.125,31.697],[-87.075,31.708],[-87.025,31.718],[-86.994,31.725],[-86.975,31.729],[-86.925,31.74],[-86.875,31.75],[-86.825,31.76],[-86.775,31.769],[-86.74,31.775],[-86.725,31.778],[-86.675,31.786],[-86.625,31.793],[-86.575,31.799],[-86.525,31.804],[-86.475,31.809],[-86.425,31.813],[-86.375,31.816],[-86.325,31.818],[-86.275,31.82],[-86.225,31.821],[-86.175,31.822],[-86.125,31.822],[-86.075,31.822],[-86.025,31.822],[-85.975,31.823],[-85.925,31.823],[-85.875,31.824],[-85.856,31.825],[-85.825,31.826],[-85.775,31.828],[-85.725,31.829],[-85.675,31.832],[-85.625,31.834],[-85.575,31.837],[-85.525,31.841],[-85.475,31.845],[-85.425,31.849],[-85.375,31.854],[-85.325,31.859],[-85.275,31.864],[-85.225,31.87],[-85.182,31.875],[-85.175,31.876],[-85.125,31.881],[-85.075,31.887],[-85.025,31.892],[-84.975,31.897],[-84.925,31.903],[-84.875,31.909],[-84.825,31.915],[-84.775,31.922],[-84.757,31.925],[-84.725,31.93],[-84.675,31.938],[-84.625,31.947],[-84.575,31.956],[-84.525,31.966],[-84.483,31.975],[-84.475,31.977],[-84.425,31.988],[-84.375,31.999],[-84.325,32.012],[-84.275,32.025],[-84.273,32.025],[-84.225,32.038],[-84.175,32.052],[-84.125,32.066],[-84.094,32.075],[-84.075,32.081],[-84.025,32.096],[-83.975,32.111],[-83.931,32.125],[-83.925,32.127],[-83.875,32.143],[-83.825,32.16],[-83.779,32.175],[-83.775,32.176],[-83.725,32.193],[-83.675,32.21],[-83.633,32.225],[-83.625,32.228],[-83.575,32.245],[-83.525,32.262],[-83.487,32.275],[-83.475,32.279],[-83.425,32.296],[-83.375,32.313],[-83.338,32.325],[-83.325,32.329],[-83.275,32.346],[-83.225,32.362],[-83.185,32.375],[-83.175,32.378],[-83.125,32.395],[-83.075,32.411],[-83.031,32.425],[-83.025,32.427],[-82.975,32.444],[-82.925,32.461],[-82.886,32.475],[-82.875,32.479],[-82.825,32.497],[-82.775,32.516],[-82.75,32.525],[-82.725,32.534],[-82.675,32.553],[-82.625,32.571],[-82.615,32.575],[-82.575,32.59],[-82.525,32.608],[-82.477,32.625],[-82.475,32.626],[-82.425,32.643],[-82.375,32.661],[-82.334,32.675],[-82.325,32.678],[-82.275,32.695],[-82.225,32.712],[-82.187,32.725],[-82.175,32.729],[-82.125,32.746],[-82.075,32.762],[-82.036,32.775],[-82.025,32.779],[-81.975,32.795],[-81.925,32.811],[-81.881,32.825],[-81.875,32.827],[-81.825,32.842],[-81.775,32.858],[-81.725,32.873],[-81.717,32.875],[-81.675,32.887],[-81.625,32.902],[-81.575,32.916],[-81.543,32.925],[-81.525,32.93],[-81.475,32.945],[-81.425,32.959],[-81.375,32.975],[-81.374,32.975],[-81.325,32.991],[-81.275,33.007],[-81.226,33.025],[-81.225,33.025],[-81.175,33.044],[-81.125,33.064],[-81.099,33.075],[-81.075,33.086],[-81.025,33.108],[-80.986,33.125],[-80.975,33.131],[-80.925,33.154],[-80.88,33.175],[-80.875,33.178],[-80.825,33.201],[-80.775,33.224],[-80.772,33.225],[-80.725,33.245],[-80.675,33.264],[-80.642,33.275],[-80.625,33.281],[-80.575,33.295],[-80.525,33.306],[-80.475,33.315],[-80.425,33.32],[-80.375,33.322],[-80.325,33.321],[-80.275,33.318],[-80.225,33.311],[-80.175,33.302],[-80.125,33.29],[-80.076,33.275],[-80.075,33.275],[-80.025,33.257],[-79.975,33.237],[-79.948,33.225],[-79.925,33.215],[-79.875,33.19],[-79.849,33.175],[-79.825,33.162],[-79.775,33.132],[-79.764,33.125],[-79.725,33.101],[-79.687,33.075],[-79.675,33.067],[-79.625,33.032],[-79.615,33.025],[-79.592,33.008]]]}},{"type":"Feature","properties":{"date":"2010-04-09","label":"9 Apr","yday":99,"tier":"day","major":false},"geometry":{"type":"MultiLineString","coordinates":[[[-86.089,32.011],[-86.075,32.011],[-86.025,32.011],[-85.975,32.011],[-85.925,32.011],[-85.875,32.012],[-85.825,32.012],[-85.775,32.013],[-85.725,32.015],[-85.675,32.016],[-85.625,32.018],[-85.575,32.02],[-85.525,32.023],[-85.489,32.025],[-85.475,32.026],[-85.425,32.029],[-85.375,32.033],[-85.325,32.037],[-85.275,32.041],[-85.225,32.045],[-85.175,32.049],[-85.125,32.054],[-85.075,32.058],[-85.025,32.063],[-84.975,32.068],[-84.925,32.073],[-84.911,32.075],[-84.875,32.079],[-84.825,32.086],[-84.775,32.093],[-84.725,32.101],[-84.675,32.11],[-84.625,32.119],[-84.596,32.125],[-84.575,32.129],[-84.525,32.14],[-84.475,32.151],[-84.425,32.163],[-84.38,32.175],[-84.375,32.176],[-84.325,32.19],[-84.275,32.204],[-84.225,32.218],[-84.202,32.225],[-84.175,32.233],[-84.125,32.249],[-84.075,32.265],[-84.044,32.275],[-84.025,32.281],[-83.975,32.298],[-83.925,32.315],[-83.898,32.325],[-83.875,32.333],[-83.825,32.351],[-83.775,32.369],[-83.759,32.375],[-83.725,32.388],[-83.675,32.406],[-83.625,32.425],[-83.624,32.425],[-83.575,32.443],[-83.525,32.462],[-83.488,32.475],[-83.475,32.48],[-83.425,32.497],[-83.375,32.515],[-83.345,32.525],[-83.325,32.532],[-83.275,32.549],[-83.225,32.566],[-83.196,32.575],[-83.175,32.582],[-83.125,32.599],[-83.075,32.615],[-83.047,32.625],[-83.025,32.632],[-82.975,32.65],[-82.925,32.668],[-82.907,32.675],[-82.875,32.687],[-82.825,32.705],[-82.775,32.723],[-82.77,32.725],[-82.725,32.741],[-82.675,32.759],[-82.629,32.775],[-82.625,32.776],[-82.575,32.793],[-82.525,32.81],[-82.481,32.825],[-82.475,32.827],[-82.425,32.844],[-82.375,32.86],[-82.329,32.875],[-82.325,32.876],[-82.275,32.892],[-82.225,32.909],[-82.175,32.925],[-82.174,32.925],[-82.125,32.941],[-82.075,32.957],[-82.025,32.972],[-82.017,32.975],[-81.975,32.988],[-81.925,33.004],[-81.875,33.019],[-81.857,33.025],[-81.825,33.035],[-81.775,33.051],[-81.725,33.066],[-81.697,33.075],[-81.675,33.082],[-81.625,33.098],[-81.575,33.115],[-81.547,33.125],[-81.525,33.133],[-81.475,33.152],[-81.425,33.172],[-81.418,33.175],[-81.375,33.195],[-81.325,33.22],[-81.315,33.225],[-81.275,33.249],[-81.233,33.275],[-81.225,33.28],[-81.175,33.315],[-81.162,33.325],[-81.125,33.353],[-81.097,33.375],[-81.075,33.394],[-81.037,33.425],[-81.025,33.436],[-80.978,33.475],[-80.975,33.478],[-80.925,33.519],[-80.916,33.525],[-80.875,33.556],[-80.846,33.575],[-80.825,33.589],[-80.775,33.618],[-80.761,33.625],[-80.725,33.642],[-80.675,33.663],[-80.639,33.675],[-80.625,33.68],[-80.575,33.693],[-80.525,33.703],[-80.475,33.71],[-80.425,33.715],[-80.375,33.716],[-80.325,33.715],[-80.275,33.71],[-80.225,33.704],[-80.175,33.694],[-80.125,33.683],[-80.099,33.675],[-80.075,33.668],[-80.025,33.65],[-79.975,33.63],[-79.965,33.625],[-79.925,33.606],[-79.875,33.579],[-79.868,33.575],[-79.825,33.549],[-79.79,33.525],[-79.775,33.515],[-79.725,33.478],[-79.722,33.475],[-79.675,33.438],[-79.66,33.425],[-79.625,33.395],[-79.603,33.375],[-79.575,33.351],[-79.547,33.325],[-79.525,33.306],[-79.492,33.275],[-79.475,33.26],[-79.436,33.225],[-79.425,33.215],[-79.379,33.175],[-79.375,33.171],[-79.325,33.128],[-79.323,33.127]],[[-89.525,32.175],[-89.483,32.125],[-89.475,32.116],[-89.439,32.075],[-89.425,32.06],[-89.391,32.025],[-89.375,32.009],[-89.338,31.975],[-89.325,31.963],[-89.279,31.925],[-89.275,31.921],[-89.225,31.885],[-89.21,31.875],[-89.175,31.852],[-89.127,31.825],[-89.125,31.824],[-89.075,31.799],[-89.025,31.778],[-89.017,31.775],[-88.975,31.76],[-88.925,31.744],[-88.875,31.731],[-88.848,31.725],[-88.825,31.72],[-88.775,31.711],[-88.725,31.705],[-88.675,31.7],[-88.625,31.696],[-88.575,31.695],[-88.525,31.695],[-88.475,31.696],[-88.425,31.698],[-88.375,31.702],[-88.325,31.707],[-88.275,31.713],[-88.225,31.719],[-88.186,31.725],[-88.175,31.727],[-88.125,31.735],[-88.075,31.743],[-88.025,31.753],[-87.975,31.762],[-87.925,31.772],[-87.908,31.775],[-87.875,31.782],[-87.825,31.792],[-87.775,31.802],[-87.725,31.813],[-87.675,31.823],[-87.664,31.825],[-87.625,31.833],[-87.575,31.843],[-87.525,31.853],[-87.475,31.863],[-87.425,31.873],[-87.414,31.875],[-87.375,31.883],[-87.325,31.892],[-87.275,31.902],[-87.225,31.911],[-87.175,31.92],[-87.147,31.925]],[[-89.724,32.425],[-89.683,32.375],[-89.675,32.365],[-89.644,32.325],[-89.625,32.301],[-89.604,32.275],[-89.575,32.237]]]}},{"type":"Feature","properties":{"date":"2010-04-10","label":"10 Apr","yday":100,"tier":"five","major":false},"geometry":{"type":"MultiLineString","coordinates":[[[-87.169,32.169],[-87.125,32.174],[-87.114,32.175],[-87.075,32.179],[-87.025,32.185],[-86.975,32.189],[-86.959,32.191]],[[-85.575,32.197],[-85.525,32.197],[-85.475,32.198],[-85.425,32.2],[-85.375,32.202],[-85.325,32.204],[-85.275,32.206],[-85.225,32.209],[-85.175,32.212],[-85.125,32.216],[-85.075,32.22],[-85.025,32.224],[-85.017,32.225],[-84.975,32.229],[-84.925,32.235],[-84.875,32.242],[-84.825,32.249],[-84.775,32.257],[-84.725,32.266],[-84.68,32.275],[-84.675,32.276],[-84.625,32.287],[-84.575,32.298],[-84.525,32.31],[-84.475,32.323],[-84.467,32.325],[-84.425,32.337],[-84.375,32.351],[-84.325,32.366],[-84.295,32.375],[-84.275,32.381],[-84.225,32.397],[-84.175,32.414],[-84.143,32.425],[-84.125,32.431],[-84.075,32.449],[-84.025,32.468],[-84.005,32.475],[-83.975,32.486],[-83.925,32.506],[-83.876,32.525],[-83.875,32.525],[-83.825,32.545],[-83.775,32.566],[-83.752,32.575],[-83.725,32.586],[-83.675,32.607],[-83.632,32.625],[-83.625,32.628],[-83.575,32.649],[-83.525,32.669],[-83.509,32.675],[-83.475,32.689],[-83.425,32.708],[-83.382,32.725],[-83.375,32.728],[-83.325,32.747],[-83.275,32.766],[-83.252,32.775],[-83.225,32.785],[-83.175,32.804],[-83.125,32.822],[-83.117,32.825],[-83.075,32.84],[-83.025,32.858],[-82.975,32.875],[-82.975,32.875],[-82.925,32.892],[-82.875,32.908],[-82.825,32.924],[-82.823,32.925],[-82.775,32.94],[-82.725,32.956],[-82.675,32.971],[-82.661,32.975],[-82.625,32.986],[-82.575,33.001],[-82.525,33.016],[-82.494,33.025],[-82.475,33.031],[-82.425,33.046],[-82.375,33.061],[-82.328,33.075],[-82.325,33.076],[-82.275,33.091],[-82.225,33.106],[-82.175,33.122],[-82.165,33.125],[-82.125,33.138],[-82.075,33.153],[-82.025,33.169],[-82.007,33.175],[-81.975,33.185],[-81.925,33.201],[-81.875,33.218],[-81.852,33.225],[-81.825,33.234],[-81.775,33.251],[-81.725,33.269],[-81.709,33.275],[-81.675,33.288],[-81.625,33.309],[-81.589,33.325],[-81.575,33.331],[-81.525,33.357],[-81.494,33.375],[-81.475,33.386],[-81.425,33.42],[-81.419,33.425],[-81.375,33.46],[-81.357,33.475],[-81.325,33.504],[-81.304,33.525],[-81.275,33.555],[-81.256,33.575],[-81.225,33.609],[-81.211,33.625],[-81.175,33.667],[-81.168,33.675],[-81.125,33.725],[-81.125,33.725],[-81.079,33.775],[-81.075,33.78],[-81.028,33.825],[-81.025,33.828],[-80.975,33.867],[-80.963,33.875],[-80.925,33.898],[-80.875,33.923],[-80.871,33.925],[-80.825,33.943],[-80.775,33.962],[-80.739,33.975],[-80.725,33.98],[-80.675,33.995],[-80.625,34.01],[-80.575,34.023],[-80.564,34.025],[-80.525,34.033],[-80.475,34.042],[-80.425,34.048],[-80.375,34.053],[-80.325,34.056],[-80.275,34.057],[-80.225,34.057],[-80.175,34.056],[-80.125,34.054],[-80.075,34.051],[-80.025,34.047],[-79.975,34.042],[-79.925,34.036],[-79.875,34.029],[-79.852,34.025],[-79.825,34.02],[-79.775,34.01],[-79.725,33.997],[-79.675,33.981],[-79.66,33.975],[-79.625,33.96],[-79.575,33.932],[-79.565,33.925],[-79.525,33.893],[-79.506,33.875],[-79.475,33.84],[-79.464,33.825],[-79.43,33.775],[-79.425,33.767],[-79.401,33.725],[-79.375,33.68],[-79.373,33.675],[-79.345,33.625],[-79.325,33.592],[-79.316,33.575],[-79.285,33.525],[-79.275,33.511],[-79.252,33.475],[-79.225,33.439],[-79.215,33.425],[-79.175,33.375],[-79.175,33.375]],[[-89.278,32.322],[-89.275,32.319],[-89.232,32.275],[-89.225,32.269],[-89.178,32.225],[-89.175,32.222],[-89.125,32.18],[-89.119,32.175],[-89.075,32.142],[-89.049,32.125],[-89.025,32.109],[-88.975,32.081],[-88.964,32.075],[-88.925,32.056],[-88.875,32.035],[-88.846,32.025],[-88.825,32.018],[-88.775,32.004],[-88.725,31.992],[-88.675,31.983],[-88.625,31.976],[-88.61,31.975],[-88.575,31.972],[-88.525,31.969],[-88.475,31.969],[-88.425,31.97],[-88.375,31.972],[-88.335,31.975],[-88.325,31.976],[-88.275,31.981],[-88.225,31.987],[-88.175,31.993],[-88.125,32.001],[-88.075,32.009],[-88.025,32.018],[-87.987,32.025],[-87.975,32.027],[-87.935,32.035]],[[-78.875,34.374],[-78.877,34.375],[-78.925,34.407],[-78.944,34.425],[-78.975,34.474],[-78.976,34.475],[-78.99,34.525],[-78.997,34.575],[-78.997,34.625],[-78.993,34.675],[-78.986,34.725],[-78.976,34.775],[-78.975,34.777],[-78.962,34.825],[-78.946,34.875],[-78.927,34.925],[-78.925,34.929],[-78.903,34.975],[-78.875,35.023],[-78.874,35.025],[-78.836,35.075],[-78.825,35.088],[-78.792,35.125],[-78.775,35.142],[-78.739,35.175],[-78.725,35.187],[-78.675,35.225],[-78.674,35.225],[-78.625,35.255],[-78.586,35.275],[-78.575,35.28],[-78.525,35.299],[-78.475,35.315],[-78.431,35.325],[-78.425,35.326],[-78.375,35.333],[-78.325,35.336],[-78.275,35.336],[-78.225,35.332],[-78.175,35.325],[-78.174,35.325],[-78.125,35.314],[-78.075,35.3],[-78.025,35.283],[-78.004,35.275],[-77.975,35.262],[-77.925,35.235],[-77.91,35.225],[-77.875,35.197],[-77.851,35.175],[-77.825,35.142],[-77.813,35.125],[-77.79,35.075],[-77.778,35.025],[-77.776,34.975],[-77.782,34.925],[-77.796,34.875],[-77.817,34.825],[-77.825,34.811],[-77.847,34.775],[-77.875,34.736],[-77.884,34.725],[-77.925,34.68],[-77.93,34.675],[-77.975,34.635],[-77.987,34.625],[-78.025,34.597],[-78.058,34.575],[-78.075,34.564],[-78.125,34.536],[-78.146,34.525],[-78.175,34.511],[-78.225,34.488],[-78.255,34.475],[-78.275,34.467],[-78.325,34.448],[-78.375,34.43],[-78.389,34.425],[-78.425,34.413],[-78.475,34.398],[-78.525,34.383],[-78.558,34.375],[-78.575,34.371],[-78.625,34.36],[-78.675,34.352],[-78.725,34.348],[-78.775,34.35],[-78.825,34.358],[-78.875,34.374]]]}},{"type":"Feature","properties":{"date":"2010-04-11","label":"11 Apr","yday":101,"tier":"day","major":false},"geometry":{"type":"MultiLineString","coordinates":[[[-85.944,32.394],[-85.925,32.393],[-85.875,32.389],[-85.825,32.386],[-85.775,32.382],[-85.725,32.38],[-85.675,32.377],[-85.628,32.375],[-85.625,32.375],[-85.575,32.373],[-85.525,32.372],[-85.475,32.371],[-85.425,32.37],[-85.375,32.37],[-85.325,32.371],[-85.275,32.372],[-85.225,32.373],[-85.188,32.375],[-85.175,32.376],[-85.125,32.378],[-85.075,32.382],[-85.025,32.386],[-84.975,32.391],[-84.925,32.397],[-84.875,32.404],[-84.825,32.413],[-84.775,32.422],[-84.761,32.425],[-84.725,32.433],[-84.675,32.444],[-84.625,32.456],[-84.575,32.469],[-84.553,32.475],[-84.525,32.483],[-84.475,32.497],[-84.425,32.513],[-84.386,32.525],[-84.375,32.529],[-84.325,32.545],[-84.275,32.563],[-84.24,32.575],[-84.225,32.581],[-84.175,32.599],[-84.125,32.619],[-84.109,32.625],[-84.075,32.639],[-84.025,32.659],[-83.987,32.675],[-83.975,32.68],[-83.925,32.702],[-83.875,32.724],[-83.872,32.725],[-83.825,32.746],[-83.775,32.769],[-83.762,32.775],[-83.725,32.792],[-83.675,32.816],[-83.656,32.825],[-83.625,32.84],[-83.575,32.863],[-83.55,32.875],[-83.525,32.887],[-83.475,32.911],[-83.445,32.925],[-83.425,32.934],[-83.375,32.958],[-83.337,32.975],[-83.325,32.98],[-83.275,33.002],[-83.225,33.023],[-83.221,33.025],[-83.175,33.043],[-83.125,33.061],[-83.085,33.075],[-83.075,33.078],[-83.025,33.094],[-82.975,33.109],[-82.925,33.123],[-82.919,33.125],[-82.875,33.137],[-82.825,33.15],[-82.775,33.163],[-82.73,33.175],[-82.725,33.176],[-82.675,33.189],[-82.625,33.202],[-82.575,33.215],[-82.535,33.225],[-82.525,33.228],[-82.475,33.241],[-82.425,33.255],[-82.375,33.269],[-82.354,33.275],[-82.325,33.283],[-82.275,33.299],[-82.225,33.314],[-82.19,33.325],[-82.175,33.33],[-82.125,33.346],[-82.075,33.363],[-82.038,33.375],[-82.025,33.379],[-81.975,33.396],[-81.925,33.413],[-81.891,33.425],[-81.875,33.431],[-81.825,33.449],[-81.775,33.469],[-81.761,33.475],[-81.725,33.491],[-81.675,33.517],[-81.661,33.525],[-81.625,33.547],[-81.585,33.575],[-81.575,33.583],[-81.526,33.625],[-81.525,33.626],[-81.476,33.675],[-81.475,33.676],[-81.431,33.725],[-81.425,33.732],[-81.389,33.775],[-81.375,33.792],[-81.347,33.825],[-81.325,33.851],[-81.304,33.875],[-81.275,33.907],[-81.258,33.925],[-81.225,33.957],[-81.206,33.975],[-81.175,34.001],[-81.143,34.025],[-81.125,34.038],[-81.075,34.069],[-81.064,34.075],[-81.025,34.096],[-80.975,34.12],[-80.963,34.125],[-80.925,34.141],[-80.875,34.162],[-80.841,34.175],[-80.825,34.181],[-80.775,34.2],[-80.725,34.218],[-80.705,34.225],[-80.675,34.235],[-80.625,34.252],[-80.575,34.268],[-80.549,34.275],[-80.525,34.282],[-80.475,34.293],[-80.425,34.304],[-80.375,34.314],[-80.325,34.323],[-80.312,34.325],[-80.275,34.331],[-80.225,34.339],[-80.175,34.347],[-80.125,34.354],[-80.075,34.362],[-80.025,34.37],[-79.993,34.375],[-79.975,34.378],[-79.925,34.388],[-79.875,34.4],[-79.825,34.415],[-79.797,34.425],[-79.775,34.433],[-79.725,34.455],[-79.686,34.475],[-79.675,34.481],[-79.625,34.513],[-79.607,34.525],[-79.575,34.55],[-79.545,34.575],[-79.525,34.594],[-79.494,34.625],[-79.475,34.645],[-79.449,34.675],[-79.425,34.703],[-79.408,34.725],[-79.375,34.77],[-79.372,34.775],[-79.341,34.825],[-79.325,34.852],[-79.313,34.875],[-79.284,34.925],[-79.275,34.94],[-79.255,34.975],[-79.225,35.021],[-79.222,35.025],[-79.187,35.075],[-79.175,35.09],[-79.147,35.125],[-79.125,35.15],[-79.103,35.175],[-79.075,35.203],[-79.053,35.225],[-79.025,35.251],[-78.999,35.275],[-78.975,35.296],[-78.94,35.325],[-78.925,35.337],[-78.876,35.375],[-78.875,35.375],[-78.825,35.41],[-78.802,35.425],[-78.775,35.441],[-78.725,35.469],[-78.713,35.475],[-78.675,35.493],[-78.625,35.514],[-78.596,35.525],[-78.575,35.533],[-78.525,35.549],[-78.475,35.562],[-78.425,35.573],[-78.414,35.575],[-78.375,35.581],[-78.325,35.585],[-78.275,35.587],[-78.225,35.586],[-78.175,35.583],[-78.125,35.579],[-78.096,35.575],[-78.075,35.572],[-78.025,35.564],[-77.975,35.555],[-77.925,35.545],[-77.875,35.533],[-77.842,35.525],[-77.825,35.52],[-77.775,35.505],[-77.725,35.486],[-77.7,35.475],[-77.675,35.463],[-77.625,35.433],[-77.614,35.425],[-77.575,35.393],[-77.557,35.375],[-77.525,35.336],[-77.517,35.325],[-77.49,35.275],[-77.475,35.237],[-77.471,35.225],[-77.459,35.175],[-77.452,35.125],[-77.45,35.075],[-77.453,35.025],[-77.459,34.975],[-77.47,34.925],[-77.475,34.905],[-77.484,34.875],[-77.501,34.825],[-77.522,34.775],[-77.525,34.77],[-77.548,34.725],[-77.575,34.679],[-77.578,34.675],[-77.612,34.625],[-77.625,34.608],[-77.652,34.575],[-77.675,34.549],[-77.697,34.525],[-77.725,34.497],[-77.749,34.475],[-77.775,34.452],[-77.809,34.425],[-77.825,34.413],[-77.875,34.378],[-77.88,34.375],[-77.925,34.348],[-77.969,34.325],[-77.975,34.322],[-78.025,34.3],[-78.075,34.279],[-78.084,34.275],[-78.125,34.259],[-78.175,34.239],[-78.208,34.225],[-78.225,34.218],[-78.275,34.197],[-78.324,34.175],[-78.325,34.175],[-78.375,34.151],[-78.425,34.127],[-78.43,34.125],[-78.475,34.102],[-78.525,34.076],[-78.527,34.075],[-78.575,34.048],[-78.617,34.025],[-78.625,34.02],[-78.675,33.99],[-78.699,33.975],[-78.725,33.957],[-78.768,33.925],[-78.775,33.918],[-78.821,33.875],[-78.825,33.87],[-78.859,33.825],[-78.875,33.796],[-78.886,33.775],[-78.901,33.725],[-78.903,33.697]],[[-89.034,32.516],[-89.025,32.507],[-88.988,32.475],[-88.975,32.464],[-88.927,32.425],[-88.925,32.423],[-88.875,32.388],[-88.855,32.375],[-88.825,32.357],[-88.775,32.332],[-88.758,32.325],[-88.725,32.313],[-88.675,32.3],[-88.625,32.29],[-88.575,32.284],[-88.525,32.28],[-88.475,32.278],[-88.425,32.279],[-88.375,32.281],[-88.325,32.285],[-88.275,32.29],[-88.225,32.296],[-88.175,32.303]],[[-89.625,33.042],[-89.602,33.025],[-89.575,33.005],[-89.536,32.975],[-89.525,32.966]]]}},{"type":"Feature","properties":{"date":"2010-04-12","label":"12 Apr","yday":102,"tier":"day","major":false},"geometry":{"type":"MultiLineString","coordinates":[[[-88.59,32.725],[-88.575,32.72],[-88.525,32.707],[-88.475,32.698],[-88.425,32.692],[-88.39,32.69]],[[-87.525,32.74],[-87.475,32.74],[-87.425,32.738],[-87.375,32.736],[-87.325,32.733],[-87.275,32.73],[-87.225,32.726],[-87.209,32.725],[-87.175,32.722],[-87.125,32.718],[-87.075,32.714],[-87.025,32.709],[-86.975,32.705],[-86.925,32.7],[-86.875,32.696],[-86.825,32.691],[-86.775,32.686],[-86.725,32.682],[-86.675,32.677],[-86.652,32.675],[-86.625,32.672],[-86.575,32.668],[-86.525,32.663],[-86.475,32.658],[-86.425,32.653],[-86.375,32.648],[-86.325,32.642],[-86.275,32.636],[-86.225,32.63],[-86.18,32.625],[-86.175,32.624],[-86.125,32.618],[-86.075,32.612],[-86.025,32.606],[-85.975,32.6],[-85.925,32.594],[-85.875,32.588],[-85.825,32.582],[-85.775,32.576],[-85.764,32.575],[-85.725,32.571],[-85.675,32.566],[-85.625,32.561],[-85.575,32.557],[-85.525,32.554],[-85.475,32.551],[-85.425,32.549],[-85.375,32.547],[-85.325,32.546],[-85.275,32.546],[-85.225,32.547],[-85.175,32.548],[-85.125,32.55],[-85.075,32.553],[-85.025,32.557],[-84.975,32.563],[-84.925,32.569],[-84.888,32.575],[-84.875,32.577],[-84.825,32.587],[-84.775,32.597],[-84.725,32.609],[-84.675,32.621],[-84.66,32.625],[-84.625,32.634],[-84.575,32.649],[-84.525,32.664],[-84.489,32.675],[-84.475,32.68],[-84.425,32.696],[-84.375,32.714],[-84.345,32.725],[-84.325,32.732],[-84.275,32.752],[-84.225,32.772],[-84.217,32.775],[-84.175,32.793],[-84.125,32.814],[-84.101,32.825],[-84.075,32.837],[-84.025,32.86],[-83.993,32.875],[-83.975,32.884],[-83.925,32.909],[-83.892,32.925],[-83.875,32.934],[-83.825,32.96],[-83.815,32.965]],[[-83.425,33.177],[-83.375,33.203],[-83.329,33.225],[-83.325,33.227],[-83.275,33.25],[-83.225,33.27],[-83.213,33.275],[-83.175,33.29],[-83.125,33.307],[-83.075,33.323],[-83.07,33.325],[-83.025,33.339],[-82.975,33.353],[-82.925,33.366],[-82.89,33.375]],[[-82.48,33.47],[-82.475,33.471],[-82.461,33.475],[-82.425,33.486],[-82.375,33.501],[-82.325,33.517],[-82.299,33.525],[-82.275,33.533],[-82.225,33.55],[-82.175,33.567],[-82.15,33.575],[-82.125,33.584],[-82.075,33.601],[-82.025,33.619],[-82.009,33.625],[-81.975,33.638],[-81.925,33.658],[-81.887,33.675],[-81.875,33.68],[-81.825,33.706],[-81.792,33.725],[-81.775,33.735],[-81.725,33.771],[-81.72,33.775],[-81.675,33.813],[-81.662,33.825],[-81.625,33.859],[-81.609,33.875],[-81.575,33.907],[-81.557,33.925],[-81.525,33.955],[-81.505,33.975],[-81.475,34.002],[-81.449,34.025],[-81.425,34.045],[-81.39,34.075],[-81.375,34.086],[-81.325,34.124],[-81.323,34.125],[-81.275,34.157],[-81.248,34.175]],[[-77.963,34.087],[-77.975,34.082],[-77.994,34.075],[-78.025,34.063],[-78.075,34.042],[-78.112,34.025],[-78.125,34.018],[-78.175,33.989],[-78.198,33.975],[-78.225,33.954],[-78.262,33.925]],[[-80.74,34.41],[-80.725,34.416],[-80.703,34.425],[-80.675,34.437],[-80.625,34.457],[-80.58,34.475],[-80.575,34.477],[-80.525,34.498],[-80.475,34.518],[-80.457,34.525],[-80.425,34.538],[-80.375,34.559],[-80.335,34.575],[-80.325,34.579],[-80.275,34.6],[-80.225,34.621],[-80.215,34.625],[-80.175,34.643],[-80.125,34.665],[-80.102,34.675],[-80.075,34.689],[-80.025,34.715],[-80.007,34.725],[-79.975,34.748],[-79.941,34.775],[-79.925,34.79],[-79.889,34.825],[-79.875,34.84],[-79.841,34.875],[-79.825,34.891],[-79.79,34.925],[-79.775,34.939],[-79.734,34.975],[-79.725,34.983],[-79.676,35.025],[-79.675,35.026],[-79.625,35.068],[-79.618,35.075],[-79.575,35.111],[-79.56,35.125],[-79.525,35.155],[-79.503,35.175],[-79.475,35.198],[-79.443,35.225],[-79.425,35.238],[-79.378,35.275],[-79.375,35.277],[-79.325,35.312],[-79.308,35.325],[-79.275,35.346],[-79.231,35.375],[-79.225,35.379],[-79.175,35.409],[-79.15,35.425],[-79.125,35.44],[-79.075,35.47],[-79.067,35.475],[-79.041,35.491]],[[-77.392,34.542],[-77.404,34.525]],[[-78.925,35.562],[-78.904,35.575],[-78.875,35.592],[-78.825,35.62],[-78.815,35.625],[-78.775,35.645],[-78.725,35.669],[-78.711,35.675],[-78.686,35.686]],[[-78.099,35.801],[-78.075,35.8],[-78.025,35.799],[-77.975,35.798],[-77.925,35.796],[-77.875,35.795],[-77.825,35.795],[-77.775,35.796],[-77.725,35.796],[-77.675,35.796],[-77.625,35.795],[-77.575,35.792],[-77.525,35.786],[-77.475,35.777],[-77.469,35.775],[-77.425,35.762],[-77.375,35.738],[-77.355,35.725],[-77.325,35.702],[-77.298,35.675],[-77.275,35.646],[-77.261,35.625],[-77.235,35.575],[-77.225,35.552],[-77.215,35.525],[-77.201,35.475],[-77.19,35.425],[-77.182,35.375],[-77.177,35.325],[-77.175,35.284],[-77.175,35.275],[-77.174,35.225],[-77.175,35.195],[-77.176,35.175],[-77.18,35.125],[-77.187,35.075],[-77.196,35.025],[-77.207,34.975],[-77.221,34.925],[-77.225,34.912],[-77.236,34.875],[-77.254,34.825],[-77.273,34.775],[-77.275,34.769],[-77.294,34.725],[-77.317,34.675],[-77.325,34.66]]]}},{"type":"Feature","properties":{"date":"2010-04-13","label":"13 Apr","yday":103,"tier":"day","major":false},"geometry":{"type":"MultiLineString","coordinates":[[[-87.825,33.101],[-87.775,33.101],[-87.725,33.101],[-87.7,33.1]],[[-87.525,33.085],[-87.475,33.077],[-87.463,33.075],[-87.425,33.068],[-87.375,33.059],[-87.325,33.049],[-87.275,33.039],[-87.225,33.029],[-87.206,33.025],[-87.175,33.019],[-87.125,33.009],[-87.075,32.998],[-87.025,32.989],[-86.975,32.979],[-86.955,32.975],[-86.925,32.969],[-86.875,32.96],[-86.825,32.952],[-86.775,32.944],[-86.725,32.936],[-86.675,32.928],[-86.656,32.925],[-86.625,32.92],[-86.575,32.913],[-86.525,32.906],[-86.475,32.898],[-86.425,32.891],[-86.375,32.883],[-86.325,32.876],[-86.322,32.875],[-86.275,32.868],[-86.225,32.86],[-86.175,32.852],[-86.125,32.843],[-86.075,32.835],[-86.025,32.827],[-86.015,32.825],[-85.975,32.818],[-85.925,32.81],[-85.875,32.802],[-85.825,32.794],[-85.775,32.786],[-85.725,32.779],[-85.699,32.775],[-85.675,32.772],[-85.625,32.765],[-85.575,32.759],[-85.525,32.753],[-85.475,32.749],[-85.425,32.745],[-85.375,32.742],[-85.325,32.74],[-85.275,32.738],[-85.225,32.738],[-85.175,32.739],[-85.125,32.741],[-85.075,32.744],[-85.025,32.748],[-84.975,32.753],[-84.925,32.76],[-84.875,32.768],[-84.835,32.775],[-84.825,32.777],[-84.775,32.787],[-84.725,32.799],[-84.675,32.811],[-84.625,32.825],[-84.625,32.825],[-84.575,32.84],[-84.525,32.856],[-84.475,32.873],[-84.469,32.875],[-84.425,32.891],[-84.375,32.91],[-84.338,32.925],[-84.325,32.93],[-84.275,32.952],[-84.225,32.974],[-84.225,32.975]],[[-82.325,33.842],[-82.275,33.858],[-82.225,33.874],[-82.222,33.875],[-82.175,33.891],[-82.125,33.909],[-82.083,33.925],[-82.075,33.928],[-82.025,33.949],[-81.975,33.971],[-81.966,33.975],[-81.925,33.995],[-81.875,34.021],[-81.868,34.025],[-81.825,34.048],[-81.78,34.075]],[[-80.596,34.704],[-80.575,34.719],[-80.567,34.725]],[[-76.991,34.991],[-76.995,34.975],[-77.01,34.925],[-77.025,34.875],[-77.025,34.875],[-77.042,34.825],[-77.059,34.775],[-77.075,34.73],[-77.076,34.726]],[[-80.104,35.154],[-80.076,35.175],[-80.075,35.175],[-80.025,35.211],[-80.004,35.225],[-79.975,35.245],[-79.932,35.275],[-79.925,35.28],[-79.898,35.298]],[[-76.917,35.375],[-76.925,35.325],[-76.925,35.322],[-76.933,35.275],[-76.941,35.225],[-76.949,35.175],[-76.959,35.125],[-76.969,35.075]],[[-79.768,35.382],[-79.725,35.406],[-79.69,35.425]],[[-76.749,36.049],[-76.755,36.025],[-76.771,35.975],[-76.775,35.963],[-76.788,35.925],[-76.804,35.875],[-76.819,35.825],[-76.825,35.806],[-76.834,35.775],[-76.848,35.725],[-76.86,35.675],[-76.871,35.625],[-76.875,35.607],[-76.882,35.575],[-76.883,35.567]],[[-77.808,36.092],[-77.775,36.102],[-77.725,36.118],[-77.705,36.125],[-77.675,36.136],[-77.625,36.155],[-77.576,36.175],[-77.575,36.175],[-77.525,36.196],[-77.475,36.22],[-77.464,36.225],[-77.425,36.244],[-77.375,36.27],[-77.366,36.275],[-77.325,36.297],[-77.276,36.325],[-77.275,36.326],[-77.225,36.353],[-77.182,36.375],[-77.175,36.379],[-77.125,36.402],[-77.075,36.424],[-77.072,36.425],[-77.025,36.443],[-76.975,36.459],[-76.925,36.471],[-76.875,36.475],[-76.825,36.467],[-76.775,36.44],[-76.759,36.425],[-76.727,36.375],[-76.725,36.369],[-76.714,36.325],[-76.71,36.29]],[[-76.716,36.184],[-76.717,36.175],[-76.719,36.169]]]}},{"type":"Feature","properties":{"date":"2010-04-14","label":"14 Apr","yday":104,"tier":"day","major":false},"geometry":{"type":"MultiLineString","coordinates":[[[-87.625,33.372],[-87.575,33.367],[-87.525,33.361],[-87.475,33.354],[-87.425,33.346],[-87.375,33.338],[-87.325,33.329],[-87.304,33.325],[-87.275,33.319],[-87.225,33.31],[-87.175,33.3],[-87.125,33.289],[-87.075,33.279],[-87.057,33.275],[-87.025,33.268],[-86.975,33.257],[-86.925,33.246],[-86.875,33.235],[-86.831,33.225],[-86.825,33.224],[-86.775,33.213],[-86.725,33.203],[-86.675,33.194],[-86.625,33.185],[-86.575,33.176],[-86.568,33.175],[-86.525,33.167],[-86.475,33.158],[-86.425,33.149],[-86.375,33.14],[-86.325,33.13],[-86.299,33.125],[-86.275,33.12],[-86.225,33.11],[-86.175,33.1],[-86.125,33.09],[-86.075,33.08],[-86.052,33.075],[-86.025,33.07],[-85.975,33.059],[-85.925,33.049],[-85.875,33.039],[-85.825,33.028],[-85.808,33.025],[-85.775,33.018],[-85.725,33.009],[-85.675,33.0],[-85.625,32.991],[-85.575,32.983],[-85.525,32.976],[-85.52,32.975],[-85.475,32.969],[-85.425,32.963],[-85.375,32.959],[-85.325,32.955],[-85.275,32.952],[-85.225,32.95],[-85.175,32.95],[-85.125,32.951],[-85.075,32.953],[-85.025,32.956],[-84.975,32.96],[-84.925,32.966],[-84.875,32.973],[-84.863,32.975],[-84.825,32.981],[-84.775,32.991],[-84.725,33.002],[-84.675,33.015],[-84.638,33.025],[-84.625,33.029],[-84.575,33.044],[-84.525,33.061],[-84.486,33.075],[-84.475,33.079],[-84.425,33.099],[-84.407,33.107]],[[-76.823,34.923],[-76.825,34.914],[-76.836,34.875],[-76.851,34.825],[-76.866,34.775]],[[-76.78,35.08],[-76.781,35.075],[-76.794,35.025]],[[-77.639,36.439],[-77.625,36.444],[-77.575,36.465],[-77.552,36.475],[-77.525,36.487],[-77.475,36.51],[-77.447,36.525],[-77.425,36.537],[-77.375,36.567],[-77.363,36.575],[-77.325,36.601],[-77.293,36.625]],[[-76.359,36.675],[-76.347,36.625],[-76.34,36.575],[-76.339,36.561]]]}},{"type":"Feature","properties":{"date":"2010-04-15","label":"15 Apr","yday":105,"tier":"index","major":true},"geometry":{"type":"MultiLineString","coordinates":[[[-87.149,33.551],[-87.125,33.548],[-87.075,33.542],[-87.025,33.536],[-86.975,33.53],[-86.938,33.525],[-86.925,33.523],[-86.875,33.517],[-86.825,33.509],[-86.775,33.502],[-86.725,33.493],[-86.675,33.483],[-86.636,33.475],[-86.625,33.473],[-86.575,33.462],[-86.525,33.451],[-86.475,33.44],[-86.425,33.429],[-86.408,33.425],[-86.375,33.418],[-86.325,33.406],[-86.275,33.395],[-86.225,33.384],[-86.187,33.375],[-86.175,33.372],[-86.125,33.361],[-86.075,33.349],[-86.025,33.337],[-85.977,33.325],[-85.975,33.325],[-85.925,33.312],[-85.875,33.3],[-85.825,33.288],[-85.775,33.275],[-85.774,33.275],[-85.725,33.263],[-85.675,33.252],[-85.625,33.241],[-85.575,33.23],[-85.549,33.225],[-85.525,33.22],[-85.475,33.212],[-85.425,33.204],[-85.375,33.197],[-85.325,33.191],[-85.275,33.186],[-85.225,33.182],[-85.175,33.18],[-85.125,33.179],[-85.075,33.179],[-85.025,33.181],[-84.975,33.184],[-84.938,33.188]],[[-87.775,33.618],[-87.725,33.613],[-87.675,33.607],[-87.625,33.602],[-87.575,33.597],[-87.544,33.594]],[[-76.633,34.967],[-76.644,34.925],[-76.657,34.875],[-76.67,34.825],[-76.671,34.821]],[[-77.875,36.622],[-77.866,36.625],[-77.825,36.641],[-77.775,36.66],[-77.735,36.675],[-77.728,36.678]]]}},{"type":"Feature","properties":{"date":"2010-04-16","label":"16 Apr","yday":106,"tier":"day","major":false},"geometry":{"type":"MultiLineString","coordinates":[[[-87.298,33.798],[-87.275,33.797],[-87.225,33.795],[-87.175,33.792],[-87.125,33.79],[-87.075,33.787],[-87.025,33.785],[-86.975,33.782],[-86.925,33.778],[-86.881,33.775],[-86.875,33.775],[-86.825,33.77],[-86.775,33.765],[-86.725,33.759],[-86.675,33.753],[-86.625,33.745],[-86.575,33.736],[-86.525,33.727],[-86.513,33.725],[-86.475,33.717],[-86.425,33.707],[-86.375,33.697],[-86.325,33.686],[-86.278,33.675],[-86.275,33.674],[-86.225,33.663],[-86.175,33.651],[-86.125,33.639],[-86.075,33.628],[-86.064,33.625],[-86.025,33.616],[-85.975,33.604],[-85.925,33.591],[-85.875,33.579],[-85.861,33.575],[-85.825,33.565],[-85.775,33.551],[-85.725,33.537],[-85.683,33.525],[-85.675,33.523],[-85.625,33.509],[-85.575,33.496],[-85.525,33.484],[-85.484,33.475],[-85.475,33.473],[-85.425,33.463],[-85.375,33.454],[-85.325,33.446],[-85.275,33.44],[-85.225,33.435],[-85.175,33.431],[-85.125,33.429],[-85.075,33.428]],[[-76.452,35.002],[-76.458,34.975],[-76.47,34.925],[-76.475,34.902],[-76.481,34.875],[-76.491,34.825],[-76.496,34.804]]]}},{"type":"Feature","properties":{"date":"2010-04-17","label":"17 Apr","yday":107,"tier":"day","major":false},"geometry":{"type":"MultiLineString","coordinates":[[[-86.673,34.023],[-86.625,34.017],[-86.575,34.01],[-86.525,34.002],[-86.475,33.994],[-86.425,33.985],[-86.378,33.975],[-86.375,33.974],[-86.325,33.964],[-86.275,33.953],[-86.225,33.941],[-86.175,33.929],[-86.158,33.925],[-86.125,33.917],[-86.075,33.904],[-86.025,33.891],[-85.975,33.878],[-85.964,33.875],[-85.925,33.865],[-85.875,33.851],[-85.825,33.837],[-85.781,33.825],[-85.775,33.823],[-85.725,33.809],[-85.675,33.796],[-85.625,33.782],[-85.598,33.775],[-85.575,33.769],[-85.525,33.756],[-85.475,33.745],[-85.425,33.734],[-85.379,33.725],[-85.375,33.724],[-85.325,33.716],[-85.275,33.709],[-85.225,33.704],[-85.175,33.7],[-85.125,33.699],[-85.075,33.699],[-85.025,33.701],[-84.975,33.705],[-84.941,33.709]],[[-87.425,34.041],[-87.375,34.04],[-87.325,34.04],[-87.275,34.04],[-87.225,34.04],[-87.175,34.041],[-87.125,34.042],[-87.075,34.042],[-87.042,34.042]],[[-86.775,34.033],[-86.725,34.028],[-86.694,34.025]],[[-75.952,35.825],[-75.975,35.782]]]}},{"type":"Feature","properties":{"date":"2010-04-18","label":"18 Apr","yday":108,"tier":"day","major":false},"geometry":{"type":"MultiLineString","coordinates":[[[-85.82,34.13],[-85.802,34.125],[-85.775,34.117],[-85.725,34.102],[-85.675,34.087],[-85.635,34.075],[-85.625,34.072],[-85.575,34.058],[-85.525,34.045],[-85.475,34.033],[-85.441,34.025],[-85.425,34.022],[-85.375,34.012],[-85.325,34.003],[-85.275,33.997],[-85.225,33.992],[-85.175,33.989],[-85.125,33.988],[-85.075,33.99],[-85.025,33.994],[-84.975,34.0],[-84.925,34.01],[-84.875,34.023],[-84.868,34.025],[-84.825,34.039],[-84.775,34.059],[-84.74,34.075],[-84.725,34.082],[-84.675,34.11],[-84.651,34.125],[-84.625,34.141],[-84.605,34.155]]]}}]}